location_id,name,street,city,region,postal,country,telephone,longitude,latitude,scalelimit,logourl,url,notes
10009,SCHOOL BASICS & MORE,67620 HAZEL DELL RD,LATHAM,MO,65050,US,6604586654,,,90,,,
10022,CRAYOLA LLC,1100 CHURCH LN,EASTON,PA,180440431,US,6102536272,,,90,,,
10024,GONZALEZ OFFICE PRODUCTS TM#763,2929 LONGHORN BLVD,AUSTIN,TX,78758,US,5123002300,,,90,,,
10045,MID VALLEY OFFICE SUPPLIES AND A,927 W BUSINESS HWY 83,WESLACO,TX,78596,US,9569688281,,,90,,,
10048,MISSISSIPPI DISCOUNT DRUGS,224 CLINTON BLVD,CLINTON,MS,39056,US,6019245212,,,90,,,
10058,LONESOURCE DO NOT USE SEE NOTE,114 MCKENAN DR,CARY,NC,27511,US,7707342342,,,90,,,
10060,BEATTIES BASICS,399 VANSICKLE RD,ST. CATHARINES,ON,L2S3T4,CA,9056884040,,,90,,,
10079,IVE BEEN FRAMED,4950 SE FOSTER RD,PORTLAND,OR,97206,US,5037752651,,,90,,,
10102,AFFORDABLE TREASURES,15795 LOS GATOS BLVD,LOS GATOS,CA,95032,US,4083563101,,,90,,,
10136,RESTOCKIT.COM  TM208,4350 OAKES RD SUITE 512,DAVIE,FL,33314,US,8006800859,,,90,,,
10167,KB LEARNING CENTER INC,1602 FORD AVE SUITE D,EFFINGHAM,IL,62401,US,2173473343,,,90,,,
10225,WEE WONDER EARLY CHILDHOOD COMPA,8323 CULEBRA RD,SAN ANTONIO,TX,78251,US,2103257156,,,90,,,
10226,SNYDER PAPER CORPORATION,250 26TH ST SE,HICKORY,NC,28602,US,8283282501,,,90,,,
10237,EYE CAN ART,3030 44TH AVE SW,SEATTLE,WA,98116,US,2068511457,,,90,,,
1025,BINDER PRODUCTS,PO BOX 1710,SEATTLE,WA,98111,US,2064439424,,,90,,,
10254,SCHOOL SUPPLY CONNECTION,2798 EDWIN DR,BEAVER CREEK,OH,45434,US,9379125995,,,90,,,
10279,CLEVELAND COMMONS THE,172 N SHARP AVE,CLEVELAND,MS,38732,US,6628433802,,,90,,,
10312,YELLOW BUS THE,670 KING PARK DR STE 8,BILLINGS,MT,59102,US,4066564300,,,90,,,
10313,PLANET MIND LEARNING STORE,108 N MAIN ST,KOKOMO,IN,46902,US,7654522341,,,90,,,
10321,ALIN PARTY SUPPLY,4139 WOODRUFF AVE,LAKEWOOD,CA,90713,US,5622820422,,,90,,,
10322,CIELO OFFICE PRODUCTS - TM# 273,1209 E HACKBERRY,MCALLEN,TX,78501,US,9566886001,,,90,,,
1033,I Q ZONE SUPERSTORE LLC,10421 NW 41 ST,MIAMI,FL,33178,US,3055926879,,,90,,,
10344,VEACHS,715 E MAIN ST,RICHMOND,IN,47374,US,7659625761,,,90,,,
10351,OFFICE360 TM159,2002 S EAST ST,INDIANAPOLIS,IN,46225,US,3176865754,,,90,,,
10384,WESTERN - BRW,1800 KELLY BOULEVARD,CARROLLTON,TX,75006,US,9726471551,,,90,,,
10387,LES ESCOMPTES LECOMPTE,714 ST JOSEPH EST BUREAU 101,QUEBEC,QC,G1K3C3,CA,4185292743,,,90,,,
10388,OFFICEQUAD - IS#1176,5730 THREE NOTCHED RD,CROZET,VA,22932,US,4348231264,,,90,,,
10389,GREEN APPLE SUPPLY,33833 DEEP FOREST RD,EVERGREEN,CO,80437,US,3036746262,,,90,,,
10390,SHAW OFFICE SUPPLIES,806 N PINE ST,LUMBERTON,NC,28358,US,9107392906,,,90,,,
10399,BOSS & HUGHES - TM# 296,7525 S FWY,HOUSTON,TX,77021,US,7136649829,,,90,,,
10401,SAMPLE HOUSE & CANDLE SHOP,4722 BENGAL ST,DALLAS,TX,75235,US,2146880751,,,90,,,
10409,RHYME BUSINESS PRODUCTS TM 176,PO BOX 338,PORTAGE,WI,53901,US,9202318280,,,90,,,
10420,OTTAWA OFFICE SUPPLY  TM# 500190,209 WEST MAIN ST,OTTAWA,IL,61350,US,8154330273,,,90,,,
10421,ANYTHING EDUCATIONAL,1930 SOUTH BROADWAY,SANTA MARIA,CA,93454,US,8053520123,,,90,,,
10431,STRAIGHT AS,180 EAST POST RD,WHITE PLAINS,NY,10601,US,9144378922,,,90,,www.straightaeducational.com,
10440,TERRIFIC TEACHING TOOLS,620-A TAYLOR STATION RD,GAHANNA,OH,43230,US,6148618000,,,90,,,
10450,POCKET SUPPLIES,2231 ALA WAI BLVD  #602,HONOLULU,HI,96815,US,8083813945,,,90,,,
10452,SHAPES UNLIMITED,1735 NIXON ST,LITTLE CHUTE,WI,54140,US,9207885400,,,90,,,
10466,PURCHASING BY PREMIER TM621,110 ASIA PL,CARLSTADT,NJ,7072,US,2129471365,,,90,,,
1049,BARREN COUNTY BUSINESS IS#1263,201 LINCOLN RD,GLASGOW,KY,42141,US,2706592061,,,90,,,
10490,ARCH DRAFTING SUPPLY,99 MISSOURI ST,SAN FRANCISCO,CA,94107,US,4154332724,,,90,,www.archsupplies.com,
10515,KIDZGROUP DIST INC,6615 ORDAN DR UNIT 1,MISSISSAUGA,ON,L5T1X2,CA,9056707999,,,90,,,
1052,SUPREME DISTRIBUTORS,310 HENDERSON DR,REGINA,SK,S4N5W7,CA,2043245018,,,90,,,
10524,MELISSA & DOUG,PO BOX 590,WESTPORT,CT,6881,US,2037624500,,,90,,,
10534,FEDERAL OFFICE PRODUCTS - TM263,7921 NIEMAN RD,LENEXA,KS,66214,US,9138886778,,,90,,,
10557,4CATS ENTERPRISES,128 BULLOCK CREEK RD,SALT SPRING ISLAND,BC,V8K2L3,CA,7789909413,,,90,,,
10568,OFFICE BASICS IS P019,22 CREEK CIR,BOOTHWYN,PA,19061,US,6105584800,,,90,,,
10569,MAIL ROOM THE,1370 S MAIN RD,VINELAND,NJ,8360,US,8566922662,,,90,,,
10570,TRADING POST,183 WILSON ST STE 391,BROOKLYN,NY,11211,US,7188643020,,,90,,,
10571,OFFICEPRO- TM#119,615 N PARKER DR,JANESVILLE,WI,53545,US,6085316001,,,90,,,
1058,CREATIVE CHILDREN,#6-3005 MURRAY ST,PORT MOODY,BC,V3H1X3,CA,6044696403,,,90,,,
10608,LOUISIANA ART SUPPLY,1205 MCKASKLE DR,HAMMOND,LA,70403,US,9856625181,,,90,,,
10609,BMR HOLDINGS LLC DBA: PATCHINGTO,13920 58TH ST N #1006,CLEARWATER,FL,33760,US,7276428554,,,90,,,
10618,COPY STOP,1451 S 2300 E,SALT LAKE CITY,UT,84108,US,8015834200,,,90,,,
10622,SET SHOP,36 W 20TH ST,NEW YORK,NY,10011,US,2122553500,,,90,,,
10623,UNDER THE BIG TOP INC,5121 COLLEGE OAK DR,SACRAMENTO,CA,95841,US,9163487700,,,90,,bigtopnovelty.com,
10624,OUR LITTLE MESSES,508 DAWN RIVER COVE,AUSTIN,TX,78732,US,5127455126,,,90,,,
10634,SB ENTERPRISES LTD,535 SOUTH MADISON,LA GRANGE,IL,60409,US,7084820243,,,90,,,
1064,P L O PAPER PRODUCTS-BANKRUPCTY,35 ROYAL GROUP CRESCENT,WOODBRIDGE,ON,L4H1X9,CA,9052659650,,,90,,www.fierropaperproducts.net,
10640,ZERBEE BUSINESS PRODUCTS TM#345,6645 JAMES AVE N,MINNEAPOLIS,MN,55430,US,8554937233,,,90,,,
10644,EDUCATHEQUE,250 RUE PROVENCHER,MONT ST HILAIRE,QC,J3H3M2,CA,4502813382,,,90,,,
10647,BAREFIELD & CO  TM951,251 W SOUTH ST,JACKSON,MS,39203,US,6013544960,,,90,,,
1065,UNISOURCE-NEW WESTMINSTER,"1425 DERWENT WAY, ANNACIS ISLAND",NEW WESTMINSTER,BC,V3L5A9,CA,6045207578,,,90,,,
10650,RSR ELECTRONICS,900 HART ST,RAHWAY,NJ,7065,US,7323818777,,,90,,,
10652,BLUSOURCE,2000 E SEWARD RD,GUTHRIE,OK,73044,US,4052936112,,,90,,,
10653,US OFFICE SOLUTIONS,2335 BLADENSBURG RD NE,WASHINGTON,DC,20018,US,2025268767,,,90,,,
1066,SUN COAST/CLAYS BUSINESS SUPPLY,1601 26TH AVENUE,GULFPORT,MS,39501,US,2288682522,,,90,,,
10666,TEACHERS SCHOOL SUPPLY LLC,101 E TOWN PL SUITE 650,ST AUGUSTINE,FL,32092,US,8008535316,,,90,,,
10669,WECSYS LLC TM908,8825 XYLON AVE N,BROOKLYN PARK,MN,55445,US,7635041069,,,90,,,
10671,SCHOOL STATION INC THE,505 S NEIL ST SUITE 9,CHAMPAIGN,IL,61820,US,7732892659,,,90,,,
10673,GET YOUR PARTY STARTED,116 W LIBERTY ST,FARMINGTON,MO,63640,US,5737608900,,,90,,,
10679,SCHOLASTIC CANADA LTD,175 HILLMOUNT RD,MARKHAM,ON,L6C1Z7,CA,9058877323,,,90,,,
10682,ADVENTURES IN LEARNING,7230 GATEWAY BLVD E STE A,EL PASO,TX,79915,US,8888353695,,,90,,,
10694,CONCORDIA PUBLISHING HOUSE,3558 S JEFFERSON AVE,ST LOUIS,MO,63118,US,3142681355,,,90,,,
1070,RIDGEWAY BOOKSTORE,RT 1 BOX 79,KNOX CITY,MO,63446,US,6604345592,,,90,,,
10710,MARVIN WINDOWS & DOORS,401 STATE AVE N,WARROAD,MN,56763,US,2183864012,,,90,,,
10714,TRI CITY TECHNOLOGIES,2615  DEL MONTE ST,WEST SACRAMENTO,CA,95691,US,9165035300,,,90,,,
10716,J THAYER CO.  TM #930,15802 SW UPPER BOONES FY,LAKE OSWEGO,OR,97035,US,5036847874,,,90,,,
10718,VIVA PINATA DISTRIBUTORS,9250 GEORGE ST,MANASSAS,VA,20110,US,7035868130,,,90,,,
1072,TEACHERS TRUNK,1028 LOUISE AVE,SASKATOON,SK,S7H2P6,CA,3066533000,,,90,,,
10720,CREATIVE SHAPES ETC,532 N PLYMOUTH AVE,ROCHESTER,NY,14608,US,5853356619,,,90,,,
10723,KLB SUPPLY GROUP,60 BAY FRONT PL,HAMPTON,VA,23664,US,7578766337,,,90,,,
10725,DESIGNS BY SHALEIGH LLC,17391 E FORD DR,AURORA,CO,80017,US,7206129250,,,90,,,
10726,CHURCH PAPER INC,3351 STONERS BEND DR,HERMITAGE,TN,37076,US,6158835222,,,90,,,
10733,SUPPLIES N MORE,1524 57TH ST,BROOKLYN,NY,11219,US,7188530030,,,90,,,
10734,APPLIED IMAGES INC,312 BRADFORD ST NW,GAINESVILLE,GA,30501,US,7705342086,,,90,,,
10736,H2OCEAN,7938 SW JACK JAMES DR,STUART,FL,34997,US,8664202326,,,90,,,
10737,SMART KIDZ LLC,1101 MAPLE ST,FARMINGTON,MO,63640,US,3149746628,,,90,,,
10741,FIERRO PAPER PRODUCTS LTD,35 ROYAL GROUP CRESCENT,WOODBRIDGE,ON,L4H1X9,CA,9052659796,,,90,,,
10747,AARDVARK LETTERPRESS,2500 W 7TH ST,LOS ANGELES,CA,90057,US,2133882271,,,90,,,
10754,PROSCENE DAUPHINAIS INC,301 RUE ST PIERRE,ST GERMAIN DE GRATHAM,QC,J0C1K0,CA,8194757446,,,90,,,
10760,ZULILY,2200 FIRST AVENUE SOUTH,SEATTLE,WA,98134,US,8777795614,,,90,,,
10772,DOUR PRINTING AND OFFICE SUPPLIE,18 N 2ND ST,MIAMISBURG,OH,45342,US,9378665040,,,90,,,
10782,LEWISBURG MEDIA GROUP LLC,1722 W MARKET ST SUITE 4,LEWISBURG,PA,17837,US,5705240300,,,90,,,
10783,QUIDSI LOGISTICS LLC EASTERN REG,10 EXCHANGE PL 25TH FLOOR,JERSEY CITY,NJ,7302,US,9738424053,,,90,,,
10784,SCHOOL OUTFITTERS,3736 REGENT AVE,CINCINNATI,OH,45212,US,5133866547,,,90,,,
10786,MOZ DISTRIBUTORS,PO BOX 12307,LA JOLLA,CA,92039,US,8585605152,,,90,,,
10788,MCGREGORS,2020 E JOHNSON,JONESBORO,AR,72401,US,8099356074,,,90,,,
10792,STAMPINGTON COMPANY,22992 MILL CREEK DRIVE #B,LAGUNA HILLS,CA,92653,US,9493807318,,,90,,,
10797,CLEAN SWEEP SUPPLY CO,7171 TELEGRAPH ROAD,MONTEBELLO,CA,90640,US,3238877777,,,90,,,
10799,DAVIS TYPEWRITER CO INC,1158 OXFORD ST,WORTHINGTON,MN,56187,US,5073432001,,,90,,,
1080,LEARNING ESSENTIALS,1830 E PARKS HWY A117,WASILLA,AK,99654,US,9073573990,,,90,,,
10803,GOLD TECH,687 MELOCKE AVE,DORVAL,QC,H9P2S4,CA,8007361720,,,90,,,
10804,MIO,446 NORTH 12TH ST,PHILADELPHIA,PA,19123,US,2159259359,,,90,,,
10811,ALTER EGOS,5020 Virginia Ave #1,Kansas City,MO,64110,US,9015966704,,,90,,,
10813,OFFICE PARTNERS LLC,826 E EDGERTON ST,BTYAN,OH,43506,US,4196367260,,,90,,,
10814,BOSS INC,123 W TOWNE STREET,GLENDIVE,MT,59330,US,4063772374,,,90,,,
10818,RHINO OFFICE PRODUCTS INC,17 W LAS VEGAS ST,COLORADO SPRINGS,CO,80903,US,7196343372,,,90,,,
10819,MRS CHALKBOX,310 UNION AVENUE,ALTOONA,PA,16602,US,8149460766,,,90,,,
10822,PREPPY PRODIGY LLC,2773 REMINGTON WAY,TRACY,CA,95377,US,9163641778,,,90,,,
10823,LOLLIPOP TOY STORE,130 Industrial Park Rd,Dawsonville,GA,30534,US,7062162032,,,90,,,
10824,INDIANHEAD SPECIALTY CO INC,16856 W SAND LAKE ROAD,STONE LAKE,WI,54876,US,7158652311,,,90,,,
10828,NEWTOWN OFFICE SUPPLY SOLUTIONS,31 FRIENDS LN,NEWTOWN,PA,18940,US,2158601717,,,90,,,
10829,SPC OFFICE PRODUCTS #291,322 N. Mail Street,Guymon,OK,73942,US,5803388418,,,90,,,
1083,LEARNING STATION,315 HWY 314 SUITE B,FAYETTEVILLE,GA,30214,US,6786103129,,,90,,,
10832,RALPH G MOULTON HOLDINGS LTD,1125 ELGIN ST W,COBURG,ON,K9A5T9,CA,9053728781,,,90,,,
10837,BAHAMAS BUSINESS SOL. ISX008,90 COLLINS AVE,NASSAU,UN,,US,2423615212,,,90,,,
10838,BULLDOG OFFICE PRODUCTS INC,500 GLASS ROAD,PITTSBURGH,PA,15205,US,4124898104,,,90,,,
10840,CENTRAL VALLEY OFFICE SLY OP4022,1800 SOUTH LEXINGTON,DELANO,CA,93215,US,6617253060,,,90,,,
10842,DOUBLE PLAY TOYS,4115 14TH AVE,BROOKLYN,NY,11219,US,7184380664,,,90,,,
10844,BAIRD GUERRA & ASSOCIATES,3340 SW 72ND AVENUE,MIAMI,FL,33155,US,3052669496,,,90,,,
10845,TWIST OFFICE PRODUCTS TM 127,1981 WEST COUNTY ROAD C2,ROSEVILLE,MN,55113,US,6123792832,,,90,,,
10846,HISTORY EDUCATION STORE,13011 E 21ST N  STE 107,WICHITA,KS,67230,US,3162603345,,,90,,,
10847,A & J VARIETY ENT INC,4523 16TH AVE,BROOKLYN,NY,11204,US,7184385832,,,90,,,
10848,BRIGHT OWL EDUC SERVICES,600 E 600 S,FORT BRANCH,IN,47648,US,8126647614,,,90,,,
10849,LEARNING SOLUTIONS,84 CHARING CROSS ST,BRANTFORD,ON,N3R2H6,CA,5197536757,,,90,,,
10850,MAC PAPERS WEST PALM-DO NOT USE,7970 CENTRAL INDUSTRIAL,RIVERIA BEACH,FL,33404,US,5618401900,,,90,,,
10853,TOBY J WEXLER INC,453 D HEYMANN BLVD  BLDG D,LAFAYETTE,LA,70503,US,3372324575,,,90,,,
10856,NICKERSON BUSINESS SUPPLIES,876 A LEBANON ST,MONROE,OH,45050,US,5135396600,,,90,,,
10857,TEACHERS BASKET,1949 RICHMOND AVE,STATEN ISLAND,NY,10314,US,7184777755,,,90,,,
10858,KENT TEACHING TOYS,225 WEST MEEKER STREET,KENT,WA,98032,US,2538520383,,,90,,,
10860,CLASSROOM LIBRARY COMPANY,3901 Union Blvd,St. Louis,MO,63115,US,8883182665,,,90,,,
10861,SOUTH COUNTY ART SUPPLY,237 ROBINSON ST,WAKEFIELD,RI,2879,US,4017832749,,,90,,,
10862,MAC PAPERS - CHARLOTTE,1827 SCOTT FUTRELL DR,CHARLOTTE,NC,28208,US,7043931776,,,90,,,
1087,INTERNET MARKETING ASSOCIATES,337 W US HWY 92,SEFFNER,FL,33595,US,8772759955,,,90,,,
10876,PHOENIX OFFICE PROD IS287,3001 NICHOLSON AVE,KANSAS CITY,MO,64120,US,8164836033,,,90,,,
10877,HUGHES GRAPHIC,PO BOX 278,BELLAIRE,OH,43906,US,8888008324,,,90,,,
1088,WALGREENS,200 WILMOT RD,DEERFIELD,IL,60015,US,8479143780,,,90,,,
10882,SUPPLYMASTER INC OP 1038,2433 CROSS CREEK LANE,ESCONDIDO,CA,92025,US,7607452580,,,90,,,
10883,STARBUCK,4235 MILLCREST COURT,ROANOKE,VA,24018,US,5409890214,,,90,,,
10888,O'BRION AGENCY THE,628 EAST ALBERT STREET,PORTAGE,WI,53901,US,6087424677,,,90,,,
10891,LIGHTHOUSE PRODUCTIONS,183 POLENTA ROAD,SMITHFIELD,NC,27577,US,9194172878,,,90,,,
10901,BACK TO SCHOOL PAKS INC,5332 N MEADOW RUN,NEW CARLISLE,IN,46552,US,5743231239,,,90,,,
10902,PROFESSIONAL BUSINESS MACHINES,181 HUDSON STREET,NEW YORK,NY,10013,US,2126611490,,,90,,,
10907,PUREFUN INC,401 INDUSTRIAL PARK DRIVE,LAWRENCEVILLE,GA,30046,US,7706828880,,,90,,,
10925,CAM SUPPLY INC,490 E MENLO AVE BLDG A,HEMET,CA,92543,US,9517650808,,,90,,,
10935,BEVERLY FABRICS,9019 SOQUEL DR SUITE 175,APTOS,CA,95003,US,8316844220,,,90,,,
1097,TARDY BELL THE,3305 RICHMOND RD,TEXARKANA,TX,75503,US,9038322914,,,90,,,
1102,UNISOURCE-FAIRBANKS DIV,3318 INTERNATIONAL WAY,FAIRBANKS,AK,99701,US,9074521697,,,90,,,
11027,HELPING HANDS,4057 ALBERT ST,REGINA,SK,S4S3R6,CA,3065258228,,,90,,,
1107,AIB BUS & SCHOOL SUPPPLY STORE,1209 FT LASHLEY AVE,TALLADEGA,AL,35160,US,2567613586,,,90,,,
1108,WCP SOLUTIONS,2209 SPAR AVE,ANCHORAGE,AK,99501,US,9072766191,,,90,,,
1111,APPLE TREE THE,1220 FOX RUN AVE   SUITE 203,OPELIKA,AL,36801,US,3347496910,,,90,,,
1117,C & T PUBLISHING INC,1651 CHALLENGE DRIVE,CONCORD,CA,945205206,US,9256770377,,,90,,,
1118,APPLE EDUCATION INC,2310 BATTLEGROUND AVE SUITE 104,GREENSBORO,NC,27408,US,3365401240,,,90,,,
11205,EUREKA OFFICE SUPPLY & GIFTS,395 HWY 93 NORTH,EUREKA,MT,59917,US,4062972849,,,90,,,
11213,RUDOLPHS WAREHOUSE -TM884,8800 KELSO DR SUITE B-C,BALTIMORE,MD,21221,US,410-9314150,,,90,,,
11237,CALIF FAIR SERVICE AUTHORITY,1776 TRIBUTE RD / STE 100,SACRAMENTO,CA,95815,US,9162636191,,,90,,,
1129,MINTON-JONES COMPANY INC,1325 OAKBROOK DRIVE,NORCROSS,GA,30093,US,7704494787,,,90,,www.mintonjones.com,
11334,CAXTON PRINTERS,312 MAIN ST,CALDWELL,ID,83605,US,2084597421,,,90,,,
1134,B & C BUSINESS PRODUCTS,113 W 9TH,STILLWATER,OK,74074,US,4053723882,,,90,,www.bncbussinessproducts.com,
11361,MILLS PRINTING & STATIONERY CO,1111 CLARK DR,VANCOUVER,BC,V5L3K5,CA,6042547211,,,90,,,
1139,EAST TEXAS EDUCATIONAL SUPPLIES,4506 JUDSON RD,LONGVIEW,TX,75605,US,9036634310,,,90,,,
11443,GANN OFFICE SUPPLIERS   IS# 1061,5519 RANSOM DR,COLUMBIA,SC,29206,US,8037901788,,,90,,,
11454,CLAS E PROFESSOR,1600 N RIVERSIDE DR #1087,MEDFORD,OR,97501,US,5417790653,,,90,,www.clasprofessor.com,
11466,OFFICE EQUIPMENT CENTER,1010 LAMAR AVE,PARIS,TX,75461,US,9037846604,,,90,,,
11529,KIDSOURCE INC,6229 CENTRE ST SW,CALGARY,AB,T2H0C7,CA,4032534567,,,90,,,
1157-0101,UNITED STATIONERS SUWANEE,125 HORIZON DR,SUWANEE,GA,30024,US,7704468300,,,90,,,
1157-0104,UNITED STATIONERS WALKER,2640 NORTHRIDGE DR,WALKER,MI,49544,US,6166479024,,,90,,,
1157-0105,UNITED STATIONERS WOBURN,415 WILDWOOD AVE,WOBURN,MA,1801,US,8007334085,,,90,,,
1157-0106,UNITED STATIONERS CTY OF INDUS,918 S STIMSON AVE,CITY OF INDUSTRY,CA,91745,US,8007334086,,,90,,,
1157-0108,UNITED STATIONERS - WARRENDALE,760 COMMONWEALTH DR,WARRENDALE,PA,15086,US,8007338947,,,90,,,
1157-0109,UNITED STATIONERS HANOVER,7441 CANDLEWOOD RD,HANOVER,MD,21076,US,8007334089,,,90,,,
1157-0110,UNITED STATIONERS LAVERGNE,455 INDUSTRIAL BLVD,LAVERGNE,TN,37086,US,8002518198,,,90,,,
1157-0111,UNITED STATIONERS TWINSBURG,2100 HIGHLAND RD,TWINSBURG,OH,44087,US,8007334091,,,90,,,
1157-0112,UNITED STATIONERS EAGAN,1720 ALEXANDER RD,EAGAN,MN,55121,US,8007334092,,,90,,,
1157-0115,UNITED STATIONERS GREENVILLE,2000 WOLF BUSINESS PARK,GREENVILLE,IL,62246,US,8007334095,,,90,,,
1157-0116,UNITED STATIONERS COXSACKIE,HWY 9W & WOLF RD,COXSACKIE,NY,12051,US,8007334096,,,90,,,
1157-0117,UNITED STATIONERS N KANSAS CTY,1606 LINN ST,NORTH KANSAS CITY,MO,64116,US,8008596011,,,90,,,
1157-0118,UNITED STATIONERS PORTLAND,14330 N LOMBARD ST,PORTLAND,OR,97203,US,8006786016,,,90,, www.ussco.com,
1157-0122,UNITED STATIONERS - TULSA,1870 N 109TH E AVE,TULSA,OK,74116,US,8008596005,,,90,,,
1157-0123,UNITED STATIONERS TUKWILA,18351 CASCADE AVE S,TUKWILA,WA,98188,US,8006786015,,,90,,,
1157-0125,UNITED STATIONERS CAROL STREAM,810 KIMBERLY DR,CAROL STREAM,IL,60188,US,6306901400,,,90,,,
1157-0127,UNITED STATIONERS IRVING,5425 FAA BLVD,IRVING,TX,75061,US,8777331567,,,90,,,
1157-0129,UNITED STATIONERS TEMPE,1013 W ALAMEDA DR,TEMPE,AZ,85282,US,8006786014,,,90,,,
1157-0131,UNITED STATIONERS-FT LAUDERDALE,10801 NW 103RD ST,MIAMI,FL,33178,US,8007334099,,,90,,,
1157-0136,UNITED STATIONERS COLUMBUS,1634 WESTBELT DR,COLUMBUS,OH,43228,US,8002926473,,,90,,,
1157-0137,UNITED STATIONERS INDIANAPOLIS,5345 W 81ST ST,INDIANAPOLIS,IN,46268,US,8005253449,,,90,,,
1157-0142,UNITED STATIONERS MEMPHIS,5300 HICKORY HILL RD,MEMPHIS,TN,38141,US,8668354000,,,90,,,
1157-0143,UNITED STATIONERS HOUSTON,7677 PINEMONT DR,HOUSTON,TX,77040,US,7136906665,,,90,,,
1157-0147,UNITED STATIONERS SACRAMENTO,5440 STATIONERS WAY,SACRAMENTO,CA,95842,US,8008596017,,,90,,,
1157-0148,UNITED STATIONERS SALT LAKE CTY,4625 W 1730 SOUTH ST,SALT LAKE CITY,UT,84104,US,8008596019,,,90,,,
1157-0150,UNITED STATIONERS CRANBURY,100 LIBERTY WAY,CRANBURY,NJ,8512,US,6096194000,,,90,,,
1157-0151,UNITED STATIONERS DENVER,9910 E 47TH AVE,DENVER,CO,80238,US,8005256010,,,90,,,
1157-0152,UNITED STATIONERS FLORIDA,2405 COMMERCE PARK DR,ORLANDO,FL,32819,US,4073622120,,,90,,,
1157-0153,UNITED STATIONERS CHARLOTTE,10800 WITHERS COVE PARK DR,CHARLOTTE,NC,28278,US,7043193177,,,90,,,
11586,COUNTRY LOFT CRAFTS,288 E MAIN ST,LEHI,UT,84043,US,8017689214,,,90,,,
1159,CLASSROOM PLUS INC,650 GOODLETTE RD N,NAPLES,FL,34102,US,2392636101,,,90,,,
11600,CREATIVE APPLE,2201 PILLSBURY RD,CHICO,CA,95926,US,5303450122,,,90,,,
11650,DIRECT MAIL PRINTERS INC,231 S IDA ST,WICHITA,KS,67211,US,3162631855,,,90,,,
1168,TEACHER DIRECT,1200 B ROBERTS INDUSTRIAL DR,BIRMINGHAM,AL,35208,US,2052260830,,,90,, www.teacherdirect.com,
1172,ALL ABOUT EDUCATION,15 W SECOND AVE,LEXINGTON,NC,27295,US,3362367052,,,90,,,
1174,TEACHERS TOOLS,3364 W PALMETTO ST,FLORENCE,SC,29501,US,8436690900,,,90,,,
1180,JONES SCHOOL SUPPLY CO INC,PO BOX 226,COLUMBIA,SC,29202,US,8034074926,,,90,,,
11803,DELTA MAT & MOULDING,9881 HORN RD,SACRAMENTO,CA,95827,US,9163612353,,,90,,,
1182,CHRIST IS CHRISTMAS,1910 APPERSON DR UNIT 19,SALEM,VA,24153,US,5407747554,,,90,,,
11852,ART OF LEARNING CO,7405 Greenback Lane #428,CITRUS HEIGHTS,CA,95610,US,9169859607,,,90,,,
1186,BOOK SMART KIDS.COM,1980 WELLS RD #5,ORANGE PARK,FL,32073,US,9042982082,,,90,,,
11870,DISPLAY & COSTUME SUPPLY,11201 ROOSEVELT WAY,SEATTLE,WA,98175,US,2063624810,,,90,,,
11884,WITT'S EVERYTHING FOR THE OFFICE,20437 BRIAN WAY,TEHACHAPI,CA,93561,US,6618226760,,,90,,,
11980-1078,OFFICE DEPOT 1078,6805 S 217TH ST,KENT,WA,98032,US,5614385030,,,90,,,
11980-1079,OFFICE DEPOT 1079,2220 N HWY #360,GRAND PRAIRIE,TX,75050,US,5614385030,,,90,,,
11980-1080,OFFICE DEPOT 1080,4600 HAVANA ST,DENVER,CO,80239,US,5614385030,,,90,,,
11980-1090,OFFICE DEPOT 1090,1105 XENIUM LN,PLYMOUTH,MN,55441,US,5614385030,,,90,,,
11980-1105,OFFICE DEPOT 1105,515 KEHOE BLVD,CAROL STREAM,IL,60188,US,5614385030,,,90,,,
11980-1127,OFFICE DEPOT 1127,6225 WEST BY NW BLVD,HOUSTON,TX,77040,US,,,,90,,,
11980-1135,OFFICE DEPOT 1135,6700 AUTOMALL PKWY,FREMONT,CA,94538,US,5614385030,,,90,,,
11980-1165,OFFICE DEPOT 1165,2925 W CORPORATE LAKES BLVD,WESTON,FL,33331,US,5614385030,,,90,,,
11980-1170,OFFICE DEPOT 1170,4700 MULHOUSER RD,HAMILTON,OH,45011,US,5614385030,,,90,,,
11980-1214,OFFICE DEPOT 1214,2500 MILL CENTER PKWY,BUFORD,GA,30519,US,5614385030,,,90,,,
11980-3061,OFFICE DEPOT CROSSDOCK 3061,3366 E WILLOW ST,SIGNAL HILL,CA,90755,US,5624907419,,,90,,,
11980-3063,OFFICE DEPOT CROSSDOCK 3063,1151 GILLS DR SUITE 1100,ORLANDO,FL,32824,US,4078591621,,,90,,,
11980-3066,OFFICE DEPOT CROSSDOCK 3066,555 KEHOE BLVD,CAROL STREAM,IL,60188,US,7084181280,,,90,,,
11980-3069,OFFICE DEPOT CROSSDOCK 3069,6700 AUTOMALL PKWY,FREMONT,CA,94538,US,5104971900,,,90,,,
11980-3070,OFFICE DEPOT CROSSDOCK 3070,4600 HAVANNA ST,DENVER,CO,80239,US,,,,90,,,
11980-3072,OFFICE DEPOT CROSSDOCK 3072,6805 SOUTH 217TH ST,KENT,WA,98032,US,2538721768,,,90,,,
11980-3073,OFFICE DEPOT CROSSDOCK 3073,2220 NORTH HWY #360,GRAND PRAIRIE,TX,75050,US,8174672117,,,90,,,
11980-3074,OFFICE DEPOT CROSSDOCK 3074,7 ELMWOOD ROAD,MOUNTAIN TOP,PA,18707,US,5704033017,,,90,,,
11980-3075,OFFICE DEPOT CROSSDOCK 3075,2500 MILL CENTER PKWY,BUFORD,GA,30518,US,6787144250,,,90,,,
11980-3077,OFFICE DEPOT CROSSDOCK 3077,840 BOLING ST,JACKSON,MS,39209,US,6017182632,,,90,,,
11980-3910,OFFICE DEPOT CROSSDOCKS 3910,6225 WEST BY NORTHWEST BLVD,HOUSTON,TX,77040,US,7139963262,,,90,,,
11980-5101,OFFICE DEPOT 5101,602 S 63RD AVE   SUITE #3,PHOENIX,AZ,85043,US,5614385030,,,90,,,
11980-5125,OFFICE DEPOT 5125,3366 E WILLOW ST,SIGNAL HILL,CA,90806,US,5614385030,,,90,,,
11980-5910,OFFICE DEPOT 5910,950 CENTERVILLE RD,NEWVILLE,PA,17241,US,7177762642,,,90,,,
11980-9999,OFFICE DEPOT 9999,PO BOX 152488,CAPE CORAL,FL,339152488,US,5614385030,,,90,,,
12012,GEYER INSTRUCTIONAL PRODUCTS,11130 ROLLING PINE RUN,FORT WAYNE,IN,46814,US,2607455408,,,90,,,
12014,PETERSEN-ARNE,4310 W FIFTH AVE,EUGENE,OR,97402,US,5414851406,,,90,,,
12021,C-LINE PRODUCTS INC,1100 BUSINESS CENTER DR,MT. PROSPECT,IL,60056,US,8478276661,,,90,,,
1204,HOWARD D HAPPY COMPANY  TM,1393 STATE HWY 45 NORTH,MAYFIELD,KY,42066,US,2702475912,,,90,,,
1210,INDUSTRIAL PAPER PRODUCTS INC,PO BOX 210,BURLINGTON,NC,272160210,US,3362262457,,,90,,,
12126,EDUCATIONAL STUFF - CLOSED BUSIN,908 1/2 S MAIN,SALINAS,CA,93901,US,8314225044,,,90,,,
12145,SPECTRUM EDUCATION SUPPLIES,150 PONY DR,NEWMARKET,ON,L3Y7B6,CA,9058980031,,,90,,,
12163,KINKOS NETWORK INC,PO BOX 262683,PLANO,TX,750262683,US,2145507000,,,90,,,
1220,OFFICE PROS,2121 BROWNS BRIDGE RD,GAINESVILLE,GA,30501,US,7702877767,,,90,, www.officeprosonline.com,
1231,OLMSTED-KIRK,1601 VALLEY VIEW LN,DALLAS,TX,75234,US,2146377161,,,90,,,
1233,CLASS ACTS SCHOOL PACKS,14060 PROTON RD,DALLAS,TX,75244,US,2145132849,,,90,,,
1235,TEACHERS MART,5765-M BURKE CENTER PKWY,BURKE,VA,22015,US,7032506777,,,90,, www.vateachersmart.com,
12351,CLOVES PRINTER SUPPLY CO INC,1812 W SUNSET BLVD #30,ST GEORGE,UT,84770,US,4356733980,,,90,,,
12366,EMPIRE PAPER COMPANY,3841 WEST 5850 SOUTH,ROY,UT,84067,US,8019857800,,,90,,,
1237,BASSETT OFFICE SUPPLY,2266 FAIRYSTONE PARK HWY,BASSETT,VA,24055,US,2766295341,,,90,,,
12370,GRAINGER SOURCING,PO BOX 1368,JANESVILLE,WI,535475210,US,6087542345,,,90,,,
1240,ALPHA TEACHING TOOLS,1114 E LOHMAN,LAS CRUCES,NM,88001,US,5755253583,,,90,,,
12405,LOUISIANA OFFICE SUPPLY  IS#1177,7643 FLORIDA BLVD,BATON ROUGE,LA,70806,US,2259271110,,,90,,,
12411,DOLLARAMA,5805 ROYALMOUNT AVE,VILLE MONT-ROYAL,QC,H4P0A1,CA,5147371006,,,90,,,
12420,UNITED OFFICE SOLUTIONS  TM# 789,16180 HWY 7 SUITE 2,MINNETONKA,MN,55123,US,9524013268,,,90,,,
1244,APPLETON ALLIANCE CHURCH,2693 W GRAND CHUTE BLVD,APPLETON,WI,54914,US,9209680700,,,90,,,
12460,RITE PRICE OFFICE SUPPLY TM#260,214 S FREDERICK,OELWEIN,IA,50662,US,3192835141,,,90,,,
12468,MIDWAY OFFICE SUPPLY CENTER INC,5900 MIDWAY PARK NE,ALBUQUERQUE,NM,87109,US,5053453414,,,90,,,
12525,PAYLESS OFFICE PRODUCTS  IS#P012,13467 CHANDLER RD,OMAHA,NE,68138,US,4028916210,,,90,,,
12548,RAYS BUSINESS PRODUCTS,200 E EXPRESSWAY 83,PHARR,TX,78577,US,9567821554,,,90,,,
12608,TORONTO TEACHERS CTR OF UMESORAH,3130 BATHURST ST SUITE 212,TORONTO,ON,M6A2A1,CA,6478859455,,,90,,,
12627,ADVANCE VISUALS INC,58 ORCHARD TER,LOMBARD,IL,601481957,US,6306272770,,,90,,,
12638,VC EDUCATIONAL CONSULTING,19 Perkins Glenn Court,GREENVILLE,SC,29607,US,8642387216,,,90,,,
1266,CROSBY OFFICE SUPPLIES INC,514 CHURCH ST,CROSBY,TX,77532,US,2813285838,,,90,,,
1272,MCKINNEY RESTORATION LLC,1727 CROSS POINT RD,MCKINNEY,TX,75070,US,9725401562,,,90,,,
12724,A TO Z LEARNING SUPPLIES,18587 STATE RTE #7,MARIETTA,OH,45750,US,7403742102,,,90,,,
12753,IMPERIAL DISTRIBUTORS INC,33 SWORD ST,AUBURN,MA,1501,US,5087565156,,,90,,,
12756,HOME & SCHOOL CONNECTION,911 ALBERT ST,REGINA,SK,S4R2P6,CA,8666643276,,,90,,,
12771,GL2 LLC,2000 LITTLE RAVEN ST #501,DENVER,CO,80202,US,7202560510,,,90,,,
1279,A 2 Z EDUCATIONAL SUPPLIES,222 B W FIRST ST,HUMBLE,TX,77338,US,2815406001,,,90,,,
1281,NATIONWIDE SUPPLIES LP,2301 EXECUTIVE DR,GARLAND,TX,750416122,US,9728892867,,,90,,,
12820,EDUCATION WORKS,735 IWILEI RD #330,HONOLULU,HI,96819,US,8082375360,,,90,,,
12821,MULTIFAB INC,3808 N SULLIVAN RD #6,SPOKANE VALLEY,WA,99216,US,5099264026,,,90,,,
12828,FISHER HAWAII,450 COOKE ST,HONOLULU,HI,96813,US,8085248770,,,90,,,
12867,FLORA-DEC SALES-DSP,PO BOX 52,HONOLULU,HI,96810,US,8085376194,,,90,,,
12868,MODERN IMAGING SOLUTIONS IS#1189,"22122 SHERMAN WAY, SUITE 209",CANOGA PARK,CA,91303,US,8005117585,,,90,,,
12880R,LEARNING TREE,3381 NW BUCKLIN HILL RD STE B,SILVERDALE,WA,98383,US,3606925411,,,90,,,
12927,FUN AND FUNCTION LLC,PO BOX 11,MERION STATION,PA,19066,US,8002316329,,,90,,,
1296,STRICKLAND PAPER CO INC,481 REPUBLIC CIR,BIRMINGHAM,AL,35214,US,2057983000,,,90,,,
1301,TURTLE SHELL INC THE,160 W MAIN ST,PRATTVILLE,AL,36067,US,3343580902,,,90,,,
1302,EDUCATORS RESOURCE,2575 SCHILLINGER RD,SEMMES,AL,36575,US,2516458800,,,90,,www.edresources.com,
13045,WHOOS SMART EDUCATIONAL MASAN S,9460 MIRA MESA BLVD #J,SAN DIEGO,CA,92126,US,8586958761,,,90,,www.whoosmart.com,
13075,TEACHERS WORLD LLC,101 N UNION ST #112,KENNEWICK,WA,99336,US,5099474178,,,90,,,
1309,DAVIES SCHOOL SUPPLY,1819 WILMER AVE,ANNISTON,AL,362021946,US,2562376982,,,90,,www.davieschoolsupply.com,
1311,OFF CAMPUS COLLEGE BOOKSTORE,1009 HENDERSON RD,HUNTSVILLE,AL,35816,US,2568379529,,,90,,,
1312,OAK CLIFF OFFICE PRODUCTS,1876 LONE STAR DR,DALLAS,TX,75212,US,2149437421,,,90,,,
13142,DORFIN INC,5757 BLVD THIMENS,ST. LAURENT,QC,H4R2H6,CA,5143350333,,,90,,,
1316,KAYLORS SCHOOL & OFFICE,4152 HWY 75 N,ALBERTVILLE,AL,35951,US,2568781200,,,90,,,
1327,TEACHER PARENT CONNECTION,101 SOUTH PANTANO RD,TUCSON,AZ,85710,US,5202981612,,,90,,,
13270,SOS OFFICE SUPPLY TM 126,4722 50TH ST SE,GRAND RAPIDS,MI,49512,US,6165541300,,,90,,,
1329,SCHOOLCRAFT,717 CHURCH ST,HUNTSVILLE,AL,35801,US,2565337070,,,90,,,
1331,LEARNING OASIS,1200 SOUTH WALDRON ROAD,FORT SMITH,AR,72903,US,4794526288,,,90,,,
13331,TOTAL OFFICE SOLUTIONS IS#1118,931 S TEJON ST,COLORADO SPRINGS,CO,80903,US,7193275885,,,90,,,
1340,A+ EDUCATIONAL SUPPLY,1520 N MAIN,HARRISON,AR,72601,US,8707411880,,,90,,,
13406,AVE OFFICE SUPPLIES   IS# 1231,25325 SHIAWASSEE CIR #203,SOUTHFIELD,MI,48033,US,2482132080,,,90,,,
1342,LEARNING BUG THE,1796 E RTE 66,FLAGSTAFF,AZ,860045119,US,9282148344,,,90,,,
13436,HANDS ON EDUCATIONAL,1700 MCHENRY AVE SUITE 61,MODESTO,CA,95350,US,2094912937,,,90,,,
1345,COLEMANS OFFICE & SCHOOL PRODUCT,813 SECOND ST,CONWAY,AR,72032,US,5013298314,,,90,,,
1348,PARTY PINATAS,1905 GESSNER,HOUSTON,TX,77080,US,7134685812,,,90,,,
1352,APPLES & BANANAS,400 LURAY AVE STE 160,JOHNSTOWN,PA,15904,US,8142627277,,,90,,,
13550,CHALK N MORE LLC,1674 CARL D SILVER PKWY,FREDERICKSBURG,VA,22401,US,5407378540,,,90,,,
13560,PAPER STORE AND MORE THE,1786 S STATE ST,OREM,UT,84097,US,8016071776,,,90,,,
13565,SUBITO MUSIC CORPORATION,60 DEPOT ST,VERONA,NJ,7044,US,9738573440,,,90,,,
1357,LUCKY GAMES,2044  N DOMINICK ST,CHICAGO,IL,60614,US,7735499051,,,90,,,
1365,FUNSTEPS INC,5100 HILLSBORO AVE N,NEW HOPE,MN,554284030,US,7635356070,,,90,,,
13675,DESERT PAPER & ENVELOPE CO INC,2700 GIRARD BLVD NE,ALBUQUERQUE,NM,87107,US,5058840640,,,90,,,
13677,HOBBY CENTER,2908 GARRITY,NAMPA,ID,83687,US,2084668173,,,90,,,
13712,COLE OFFICE PRODUCTS  TM 500359,1245A STONE DR,SAN MARCOS,CA,92078,US,7607610090,,,90,,,
13716,VESCO BUSINESS PRODUCTS,425 N 10TH ST,LA PORTE,TX,77571,US,2818421877,,,90,,,
13742,LITIN PAPER CO,3903 PACIFIC STREET NORTH,MINNEAPOLIS,MN,55411,US,6125219109,,,90,,,
1375,PAPER PLUS-MESA,624 W BROADWAY #222,MESA,AZ,85210,US,4808341815,,,90,,www.paperplus.com,
13754,GRACES EDUCATION PLACE,"861 GRAY AVENUE, STE K",YUBA CITY,CA,95991,US,5306743730,,,90,,,
1376,BENNYS INC,340 WATERMAN AVE,ESMOND,RI,2917,US,4012311000,,,90,,,
13760,RJ PEN COMPANY,7945 PENDLETON PIKE,INDIANAPOLIS,IN,46226,US,3175477888,,,90,,,
1377,GULF COAST OFFICE PRODUCTS,6020 ENTERPRISE DR,PENSACOLA,FL,32505,US,8504345588,,,90,,,
13779,APPLES FOR THE TEACHER LLC,2001 W FERGUSON RD,MT PLEASANT,TX,75455,US,9037178757,,,90,,,
1379,FIVE BELOW INC,1818 MARKET ST,PHILADELPHIA,PA,19103,US,2155467909,,,90,,,
1385,PAPER PLUS,"5295 W PHELPS RD, SUITE #2",GLENDALE,AZ,85306,US,6028667033,,,90,,www.paperplus.com,
13873,CRAFT N COLOR,1578 49TH STREET,BROOKLYN,NY,11219,US,3478710323,,,90,,,
13875,IDAHO BOOK AND SCHOOL SUPPLY,5286 CHINDEN BLVD,BOISE,ID,83714,US,2083755250,,,90,,,
1388,A TOUCH OF CLASS TEACHER SUPPLY,11734 BARKER CYPRESS,CYPRESS,TX,77433,US,8322862432,,,90,,,
1389,UNISOURCE-PHOENIX,PO BOX 44178,JACKSONVILLE,FL,322314178,US,7146906725,,,90,,,
13896,EMPIRE OFFICE PRODUCTS LLC,PO BOX 6129,JACKSON,MI,49202,US,5177680200,,,90,,,
1393,TEACHING COTTAGE,304 GULF FREEWAY NORTH,LEAGUE CITY,TX,77573,US,2813323581,,,90,,,
13953,OLLIES BARGAIN OUTLET INC,6295 ALLENTOWN BLVD,HARRISBURG,PA,17112,US,7176572300,,,90,,,
1407,BAKER OFFICE PRODUCTS IS#327,1301 13TH ST,LUBBOCK,TX,79401,US,8067632500,,,90,,,
1409,SCHOOL SQUARED INC,112 E CENTRAL,BENTONVILLE,AR,72712,US,4792733386,,,90,,,
14139,UNIV OF CONNECTICUT COOPERATIVE,2075 HILLSIDE RD,STORRS,CT,62691019,US,8604862653,,,90,,,
1425,TODAYS OFFICE FURNITURE,120 E CHESTNUT,GARDEN CITY,KS,67846,US,6202768225,,,90,,,
1430,BUSINESS MACHINES PLUS  IS# 1095,1424 GARDNER BLVD,COLUMBUS,MS,39702,US,6623286011,,,90,,,
14348,ROSAUER VENTURES,PO BOX 415,OREGON,IL,61061,US,8153974080,,,90,,,
1437,THE OFFICE CITY    TM #500455,604 PRICE AVE,REDWOOD,CA,94063,US,6503644311,,,90,,www.theofficecity.com,
1439,MOSER CORP SALES DIVISION,601 N 13TH ST,ROGERS,AR,727571984,US,4796363481,,,90,,retail@mosercorporation.com,
1440,ARKANSAS SCHOOL & OFFICE,123 N 22ND ST,FORT SMITH,AR,72901,US,4797838921,,,90,,,
1442,EVANS OFFICE SUPPLY  IS# 276,1600 E ANDREW JOHNSON HWY,MORRISTOWN,TN,37814,US,4235867981,,,90,,,
1443,PETTUS OFFICE PRODUCTS  TM #751,2 FREEWAY DRIVE,LITTLE ROCK,AR,72204,US,5016667226,,,90,,,
1444,NOLANS OFFICE & PROMO,16120 COLLEGE OAK,SAN ANTONIO,TX,78249,US,2106537770,,,90,,,
1448,RAYMOND SOLUTIONS INC,3509 WALDRON DR,GREENSBORO,NC,27408,US,3362025366,,,90,,,
1452,BOBEL'S OFFICE PLUS - IS#017,1953 COOPER FOSTER PK RD,AMHERST,OH,44001,US,4409607078,,,90,,,
14600,J M KOOL LTD,UNIT 102 - 2517 BOWEN RD,NANAIMO,BC,V9T3L2,CA,2505851778,,,90,,,
14700,JONATHANS EDU RESOURCE,3100 N STONE AVE,TUCSON,AZ,85705,US,5206281108,,,90,,,
1473,PALACE ART & OFFICE  IS#426,2606 CHANTICLEER AVE,SANTA CRUZ,CA,95065,US,8314763815,,,90,,,
1502,BENNETTS EDUCATIONAL MATERIALS,5130 HOLLISTER AVE,SANTA BARBARA,CA,93111,US,8059648998,,,90,,,
1503,ANGELS SCHOOL SUPPLY,600 E COLORADO BLVD,PASADENA,CA,91101,US,6265840855,,,90,,www.angelsschoolsupply.com,
15036,QUILL/STAPLES - 489,13327 CAROWINDS BLVD,CHARLOTTE,NC,28273,US,7045887796,,,90,,,
1504,HEARTHSONG,PO BOX 1089,MADISON,VA,22727,US,5409487362,,,90,,,
1506,MONTROY SUPPLY CO,PO BOX 93000,LONG BEACH,CA,908093000,US,8582773310,,,90,,www.butcherpaperking.com,
1525,CASH N CARRY,5680 SAWTELLE BLVD,CULVER CITY,CA,90230,US,3103909543,,,90,,,
15272,LIPPMAN  COMPANY,50 S E YAMHILL ST,PORTLAND,OR,97214,US,5032397007,,,90,,,
1532,CM SCHOOL SUPPLY CO,940 N CENTRAL AVE,UPLAND,CA,91786,US,9099829695,,,90,,www.cmschoolsupply.com,
15414R,QUILL/STAPLES-925,125 MUSHROOM BLVD,ROCHESTER,NY,14623,US,5854249153,,,90,,,
1544,WCP SOLUTIONS,4041 EASTSIDE ROAD,REDDING,CA,96001,US,5302261455,,,90,,,
1546,GW SCHOOL SUPPLY- #99 WHSE,5626 E BELMONT,FRESNO,CA,93727,US,5592516026,,,90,,www.gwschool.com,
1549,HOME PRESCHOOL PROGRAM,22600 LAMBERT ST 905C,LAKE FOREST,CA,92630,US,9499513946,,,90,,,
1551,GOLDEN APPLE,4807 HOPYARD #3,PLEASANTON,CA,94588,US,9254605163,,,90,,,
1555,EDUCATION STATION,10155 BALBOA BLVD,NORTHRIDGE,CA,91325,US,8183494050,,,90,,www.learning-materials.com,
1557,J C PAPER,47422 KATO RD,FREMONT,CA,945387319,US,5102261951,,,90,,,
1560,LAKESHORE LEARNING MATERIALS,2695 E DOMINGUEZ ST,CARSON,CA,90895,US,3105378600,,,90,,www.lakeshorelearning.com,
15639,ALL MEDIA ART SUPPLY,417 E MAIN ST,KENT,OH,44240,US,3306788078,,,90,,,
1571,OFFICE SUPPLY EXPRESS,1017 I ST,LOS BANOS,CA,93635,US,2098268751,,,90,,,
1574,SOUTHWEST SCHOOL SUPPLY,805 N BARRINGTON AVE,ONTARIO,CA,91764,US,9099807777,,,90,,,
1578,ACHIEVEMENT PRODUCTS,PO BOX 7636,SPRECKELS,CA,939627636,US,831333 2000,,,90,,,
1579,EXCELLIGENCE LEARNING CORP,PO BOX 7636,SPRECKELS,CA,93962,US,8313335531,,,90,,,
1580,NASCO WEST,PO BOX 101,SALIDA,CA,953680101,US,2095451600,,,90,,www.enasco.com,
1586,THEMATIC ATTIC,235 E BADILLO ST,COVINA,CA,91723,US,6263322979,,,90,,,
1598,MORRISON SCHOOL SUPPLIES,400 INDUSTRIAL RD,SAN CARLOS,CA,94070,US,6505923000,,,90,,www.morrisonschoolsupplies.com,
1605,TEACHER SUPPLIES INC,6561 - 6571 BEACH BLVD,BUENA PARK,CA,90621,US,7145217607,,,90,,,
1608,TOUT ABOUT TOYS,1530 GILBRETH RD,BURLINGAME,CA,94010,US,6506921669,,,90,,,
1609,NEELY EDUCATIONAL MATERIALS,5950 SOUTH BROADWAY,LOS ANGELES,CA,90003,US,3237505011,,,90,,,
16115,JACQUES,4301-B S TEXAS AVE,BRYAN,TX,77802,US,9798468660,,,90,,,
1612,K C SALES AND COMPANY,1526 GLENDALE BLVD,LOS ANGELES,CA,90026,US,2132502854,,,90,,,
16139,FRAMERS INVENTORY,5000 SE 18TH AVE,PORTLAND,OR,97202,US,5032369293,,,90,,,
1618,WINTERGREEN LEARNING MATERIALS,3075 LINE 8 RR# 2,BRADFORD,ON,L3Z2A5,CA,9057788584,,,90,,,
1619,ARTISTS EMPORIUM,1610 ST JAMES ST,WINNIPEG,MB,R3H0L2,CA,2047222421,,,90,,,
1620,ROSE DELTA DEV LTD,6034 83RD ST,EDMONTON,AB,T6E5B9,CA,7804683279,,,90,,,
1629,KIDCRAFT,82 O LEARY AVE,ST JOHNS,NF,A1B2C7,CA,7097537696,,,90,,,
1633,PARTYWORKS/PROFESSOR TOY,9951 W LEGACY AVE,VISALIA,CA,93291,US,5596251148,,,90,,www.professortoy.com,
16423,TEACH YOUR CHILDREN,232 E ST,DAVIS,CA,95616,US,5307532300,,,90,,,
1646,BLUE RIBBON DISTRIBUTING,1260 S PARKER RD #100,DENVER,CO,80247,US,3037500960,,,90,,,
1647,ADVANCED GRAPHICS,5333 HIGHWAY BLVD,KATY,TX,77494,US,2813918595,,,90,,,
1649,A & W OFFICE SUPPLY INC  TM#217,222 S STAPLES,CORPUS CHRISTI,TX,78401,US,3618836784,,,90,,,
1655,SCHOOL CROSSING,5540 LIBRARY LN,COLORADO SPRINGS,CO,80918,US,7195937112,,,90,,schoolcrossing@msn.com,
1663,INQUISICORP CORPORATION,8042 S GRANT WAY,LITTLETON,CO,801222705,US,3037308193,,,90,,,
1671,BANKS SCHOOL SUPPLY INC,11080 IRMA DR,NORTHGLENN,CO,80233,US,3032557173,,,90,,www.banksschoolsupply.com,
1686,OFFICE DIRECT,14020 PLANK RD,BAKER,LA,70714,US,2257748773,,,90,,,
1691,SCHWEGMAN OFFICE SUPPLY IS# 728,308 EAST MAIN ST,BATESVILLE,AR,72501,US,8706981557,,,90,,,
16914,PARENT TEACHER AIDS,43793 15TH ST W,LANCASTER,CA,93534,US,6612736335,,,90,,www.pted@aol.com,
16915,PARENT TEACHER AIDS THE,5000 SMITHRIDGE DR A-21,RENO,NV,89502,US,7758253328,,,90,,www.zteacher.com\pta-nv,
16920,DECORATIVE PAPER,9030 CARROLL WAY #1,SAN DIEGO,CA,92121,US,9496504060,,,90,,,
1693,IDEAL IMAGES,13747 F ST,OMAHA,NE,68137,US,4025961002,,,90,,,
16930,PARTY CRAFT,639 W INTERNATIONAL AIRPORT RD,ANCHORAGE,AK,995181114,US,9075615558,,,90,,,
1696,MISS LIBRARY AND MEDIA SUPPLY,3109 LOUIS WILSON DR,BRANDON,MS,39042,US,6018241900,,,90,,,
16988,PARTY FOR LESS,10015 NE 137TH ST,KIRKLAND,WA,98034,US,4258204751,,,90,,,
17054,PIERSON BUILDING CENTER,4100 BROADWAY,EUREKA,CA,95503,US,7074412700,,,90,,,
1707,C & C OFFICE SUPPLY TM#500110,257 CAILLAVET ST,BILOXI,MS,39530,US,2284320477,,,90,,,
17085,CLASS CONNECTIONS,19101 BLOOMFIELD AVE,CERRITOS,CA,90703,US,5624027511,,,90,,,
1709,PONDER'S TM#110,117 NORTH MADISON STREET,THOMASVILLE,GA,31792,US,2292263341,,,90,,,
1716,S & S WORLDWIDE,75 MILL ST,COLCHESTER,CT,6415,US,8605373451,,,90,,www.ssww.com,
1717,FOUR STATE OFFICE PRODUCTS,327 S MCGREGOR,CARTHAGE,MO,64836,US,4173589491,,,90,,,
1718,CHALKBOARD THE,1126 NEW BRITAIN AVE,WEST HARTFORD,CT,6110,US,8602360044,,,90,,,
1719,CARDINAL OFFICE PRODUCTS  ISP008,576 E MAIN ST,FRANKFORT,KY,40601,US,5028753300,,,90,,,
1722,COMPUTERS ETC    TM#379,218 E DENVER ST,HOLYOKE,CO,80734,US,9708544093,,,90,,,
1725,3 OAKS RESOURCE GROUP,7600 SW 129TH ST,PINECREST,FL,33156,US,3057813113,,,90,,,
1728,IBUYOFFICESUPPLY.COM    IS# 1131,14940-A 28TH AVE N,PLYMOUTH,MN,55447,US,9528815507,,,90,,,
1729,MBA OFFICE SUPPLY INC TM#958,1011 TIMOTHY DR,SAN JOSE,CA,95133,US,4082887920,,,90,,,
1730,CLASSROOM OUTFITTERS LLC,19301 SW 106TH AVENUE,MIAMI,FL,33157,US,7867351155,,,90,,,
1731,ADVANCED OFFICE PRODUCTS,2515 OLD WHITTLESEY RD,COLUMBUS,GA,31909,US,7066538955,,,90,,,
1732,LATITUDE 27,257 NORTH ST,ENGLEWOOD,FL,34223,US,9414741991,,,90,,,
1733,STATIONERS INC - OP 1011,842 COMMERCE ST,JACKSON,MS,39201,US,6019483622,,,90,,,
1734,GULF COAST BUSINESS SPLY IS#1033,14484 DEDEAUX RD,GULFPORT,MS,39530,US,2288311019,,,90,,,
17358,LOOMIS INSTITUTE,4 BATCHELDER RD,WINDSOR,CT,6095,US,8606876385,,,90,,,
17388,RESOURCES FOR READING,130 E GRAND AVE,SOUTH SAN FRANCISCO,CA,940804803,US,6508714111,,,90,,www.abcstuff.com,
1739,BUFFALO BUSINESS PRODUCT IS#1174,1236 SOUTHRIDGE CT #201,HURST,TX,76053,US,8172847501,,,90,,,
1740,GIVE SOMETHING BACK,7730 PARDEE LN,OAKLAND,CA,94621,US,5106355500,,,90,,,
1741,AGAPE CHRISTIAN BOOKSTORE,140 ST JAMES AVE HWY 176,GOOSE CREEK,SC,29445,US,8435723166,,,90,,,
1742,TEACHER BOX LLC,730 UNION RD,GASTONIA,NC,28054,US,7048688269,,,90,,,
1744,OFFICE CITY  INC,9349 DOMINICAN DR,MIAMI,FL,33189,US,3052338758,,,90,,,
17448,RAINBOW RESOURCE CENTER INC,500 DUNCAN RD,TOULON,IL,61483,US,3096953105,,,90,,,
1745,ATECH TRAINING INC,12290 CHANDLER DR,WALTON,KY,41094,US,8594857229,,,90,,,
1746,C & B PRINTING,2400 W 7TH ST,AMARILLO,TX,79106,US,8063746262,,,90,,,
1750,TEACHER TOOLS,23 N STATE RD 7,PLANTATION,FL,33317,US,9545300693,,,90,,,
1754,OFFICE SUPPLY CENTER,1716 72 BYP,GREENWOOD,SC,29649,US,8642237635,,,90,,,
17630,OFFICE OUTFITTERS  IS# X003,120 W BADGER ST,WAUPACA,WI,54981,US,7152583989,,,90,,,
1769,TEACHERS EXPRESS LLC,2519 W KINGS HWY,PARAGOULD,AR,72450,US,8702400600,,,90,,,
1771,TEACHERS NEST,904 CARROLL ST,PERRY,GA,31069,US,4789889379,,,90,,,
1774,ABC OFFICE SUPPLY INC,214 W MILL ST,KINGSTREE,SC,29556,US,8433559444,,,90,,,
1776,IF ITS PAPER,1220 D BATTLEGROUND AVE,GREENSBORO,NC,27408,US,3363799874,,,90,,,
17773,SCOLARIS - TONOPAH,HWY 95 - AIR FORCE RD,TONOPAH,NV,89049,US,7754826791,,,90,,,
17788,KOOTENAI KIDS TEACHING SUPPLIES,520 E BEST AVE,COEUR D'ALENE,ID,83814,US,2087627575,,,90,,,
1780,KNOWLEDGE EXCHANGE INC,5151 BABCOCK ST NE,PALM BAY,FL,32905,US,3216768606,,,90,, www.theknowledgeexchange.com,
1782,GATOR OFFICE PRODUCTS INC,11747 PHILIPS HWY,JACKSONVILLE,FL,32256,US,9047251144,,,90,,,
1785,BEECON LEARNING,2012 FARRINGTON ST,DALLAS,TX,75207,US,8779233266,,,90,,,
1788,BALL OFFICE PRODUCTS  IS#1239,2100 WESTMORELAND ST,RICHMOND,VA,232303230,US,8042041774,,,90,,,
1789,PARTY BLVD,21 LONG SHOALS RD,ARDEN,NC,28704,US,8286760314,,,90,,,
1790,AGC TEACHER SUPPLY,592 BOBBY JONES,AUGUSTA,GA,30907,US,7068680683,,,90,,,
1791,DELTA TEACHING SUPPLY,417 WASHINGTON AVE,GREENVILLE,MS,38701,US,6628221845,,,90,,,
1793,LEARNING CURVE,1137 VAN VOORHIS RD,MORGANTOWN,WV,26505,US,3046852838,,,90,,,
1796,TAYLOR BUSINESS PRODUCTS,115 CLAYTON AVE,ROXBORO,NC,375730681,US,3365992146,,,90,,,
1797,CHESNEY BUSINESS SUPPLIES TM652,8346 TRAFORD LN,SPRINGFIELD,VA,22152,US,7035691371,,,90,,,
1799,BUSINESS OFFICE SUPPLY SUPERSTOR,160 SW 12TH AVE SUITE# 103A,DEERFIELD BEACH,FL,33442,US,8667102677,,,90,,,
1801,BMS LLC,1142 HOMER RD,MINDEN,LA,71055,US,3183776066,,,90,,,
1802,S & L OFFICE SUPPLIES,308-B HWY 90,WAVELEND,MS,39576,US,2284670002,,,90,,,
18026,SOUTHERN WINE & SPIRITS,250 LILIARD WAY,SPARKS,NV,89434,US,7753537914,,,90,,,
1804,T CLIFTON ART,2571 BROAD AVE,MEMPHIS,TN,38112,US,9013232787,,,90,,,
1805,ABOVE & BEYOND,1362 HWY 160 E,FORT MILL,SC,29715,US,8038028697,,,90,,,
1806,TEACHERS PET,4328 CENTRAL AVE,HOT SPRINGS,AR,71913,US,5015258525,,,90,,,
1807,SCRIBBLE SCRATCH EDUC SUPPLIES,1140 VICTORIA RIVERSIDE RD,PATTERSON,LA,70392,US,9853122569,,,90,,,
1808,CHILDRENS DEN,2110 JUSTICE ST,MONROE,LA,71201,US,3183257203,,,90,,,
1809,BETHANY BOOK ROOM,150 REDWING DRIVE,WINCHESTER,KY,40391,US,8597446024,,,90,,,
1810,CAPITAL OFFICE PRODUCTS,210 FENTRESS BOULEVARD,DAYTONA BEACH,FL,32114,US,8005521340,,,90,,,
1811,BIG COUNTRY SCHOOL SUPPLY LLC,3301 SOUTH 14TH,ABILENE,TX,79605,US,3257017839,,,90,,,
1812,EAKES CORPORATE,3636 WEST STOLLEY PARK ROAD,GRAND ISLAND,NE,68803,US,3083828026,,,90,,,
1813,LOVE MY SUPPLIES,2026 WARD PARKWAY,FORT WORTH,TX,76110,US,8179263209,,,90,,,
1815,SCHOLAR SHOP,14210 AIRLINE HIGHWAY,GONZALES,LA,70737,US,2256477757,,,90,,,
1816,VIKING OFFICE SUPPLY,2921 HIGHWAY 29 SOUTH,ALEXANDRIA,MN,56308,US,3207621503,,,90,,,
1817,LATHAM PRINTING,820 NORTH DIXIE,ODESSA,TX,79761,US,4323331292,,,90,,,
1818,ART WITH HEART - DO NOT USE,2921 PARIS ROAD,CHALMETTE,LA,70043,US,5043090568,,,90,,,
1819,OKELLEY OFFICE SUPPLY,290 CYPRESS STREET,ABILENE,TX,79601,US,3256736422,,,90,,,
1826,FULTON PAPER CO,1006 W 27TH ST,WILMINGTON,DE,19802,US,3025940400,,,90,,,
18295,BW WILSON PAPER COMPANY INC,PO BOX 11248,RICHMOND,VA,23230,US,3362263226,,,90,,,
18350,TEACHERS CORNER KIDS MART,201 S GILLETTE AVE,GILLETTE,WY,827163703,US,3076869231,,,90,,,
18367,TEACHERS WORLD,10102 N LOWER SACRAMENTO,STOCKTON,CA,95210,US,2094760525,,,90,,,
18376,UNIVERSITY OF VIRGINIA BOOKSTORE,P.O. BOX 400820,CHARLOTTESVILLE,VA,22904,US,4349241070,,,90,,,
18382,PARTY PALACE LLC,2830 POLE LINE RD,POCATELLO,ID,83201,US,2082338697,,,90,,,
18453,TOP TEN TOYS,104 N 85TH ST,SEATTLE,WA,98103,US,2067820098,,,90,,www.toptentoys.com,
18469,MARC GLASSMAN INC,5841 W 130TH ST,CLEVELAND,OH,44130,US,2162657700,,,90,,,
1870,APPLE TREE THE,96 S CHARLES RICHARD BEALL BLVD,DEBARY,FL,32713,US,3862535582,,,90,,,
18760,THE PAPER STORE INC   TM# 859,20 MAIN ST,ACTON,MA,1720,US,9782632198,,,90,,,
18817,YOUNGS MARKET COMPANY - SW,624 N 44TH AVE,PHOENIX,AZ,85043,US,6022331900,,,90,,,
18831,UNIVERSITY BOOK STORE,4326 UNIVERSITY WAY NE,SEATTLE,WA,98105,US,2065459478,,,90,,,
1898,GET SMART,11751 S DIXIE HWY,PINECREST,FL,331564438,US,3052552882,,,90,, www.getsmartsuperstores.com,
1900,MAC PAPERS,3300 PHILIPS HWY,JACKSONVILLE,FL,32207,US,9043483300,,,90,,,
1901,UNISOURCE-JACKSONVILLE,330 STEVENS ST,JACKSONVILLE,FL,32254,US,9047830550,,,90,,,
1902,DISCOUNT PRESCHOOL LLC,25110 BERNWOOD DR SUITE 104,BONITA SPRINGS,FL,34135,US,2399476177,,,90,,,
1904,K & W AUDIO VISUAL & CAMERA INC,1309 W EDGEWOOD AVE,JACKSONVILLE,FL,32208,US,9047687388,,,90,,,
19133,KELLY PAPER,288 BREA CANYON RD,CITY OF INDUSTRY,CA,91789,US,9098598200,,,90,,,
19164,IMAGINATION STATION,4800 GOLF RD #436,EAU CLAIRE,WI,54701,US,7158339436,,,90,,,
1921,CLASSIC SCHOOL PRODUCTS,174 SEMORAN COMMERCE PL,APOPKA,FL,32703,US,4078899661,,,90,,,
1922,AFP INDUSTRIES,7436 SW 48TH ST,MIAMI,FL,33155,US,3056638300,,,90,,,
1928,BEACON HILL,18001 NORTH WEST 22 AVE,MIAMI,FL,33056,US,3056241600,,,90,,,
1931,SMITH OFFICE & COMPUTER,1009 SO 21ST AVE,HOLLYWOOD,FL,33020,US,9549224811,,,90,,,
1934,ACE EDUC SUPPLIES INC,5595 S UNIVERSITY DR,DAVIE,FL,33328,US,9544342773,,,90,,www.ace-educational.com,
1942,PYRAMID SCHOOL PRODUCTS,6510 N 54TH ST,TAMPA,FL,33610,US,8136216446,,,90,,www.pyramidsp.com,
19501,WOODS SUPERMARKET,PO BOX 880,BOLIVAR,MO,65613,US,4173267601,,,90,,,
1952,GA SCHOOL SUPPLY,4979 MERCER UNIV DR,MACON,GA,31210,US,4784777850,,,90,, www.gaschoolsupply.com,
19527,OFFICEMAX GRAND & TOY,33 GREEN BELT DR,DON MILLS,ON,M3C1M1,CA,4163918191,,,90,,,
1957,UNISOURCE-ATLANTA,PO BOX 45195,JACKSONVILLE,FL,322325195,US,9043488188,,,90,,,
19578,PRICESMART,9740 SCRANTON RD,SAN DIEGO,CA,921211745,US,3058053123,,,90,,,
19598,PATRIA OFFICE SUPPLY  IS #1091,301 E CALTON RD,LAREDO,TX,78044,US,9567232332,,,90,,,
1970,SCHOOL BOX INC THE,1257-A KENNESTONE CIRCLE,MARIETTA,GA,30066,US,7709192232,,,90,,www.schoolbox.com,
19718,YOUNG LEARNING COMPANY,310 FIRST ST,GILROY,CA,95020,US,4088427574,,,90,,,
19790,YUMA TEACHING SUPPLIES,1198 B S 4TH AVE,YUMA,AZ,85364,US,9287831364,,,90,,www.yumateachingsupplies.com,
1984,HAWAIIAN GRAPHICS CORP,1923 S BERETANIA ST,HONOLULU,HI,96826,US,8089737171,,,90,,,
1986,TEACHERS HELPER,622 OAKFIELD DR,BRANDON,FL,33511,US,8136840688,,,90,,teachershelperonline.com,
19888,ZURCHER MERCHANDISING COMPANY,4040 RIVERDALE RD,OGDEN,UT,84405,US,8013349600,,,90,,,
1992-01,SP RICHARDS,6300 HIGHLANDS PKWY,SMYRNA,GA,30082,US,7704344571,,,90,,,
1992-02,SP RICHARDS CHARLOTTE,6280 GLEN AFTON BLVD,CONCORD,NC,28027,US,8004384072,,,90,,,
1992-03,SP RICHARDS MIAMI,3590 NW 114TH ST,MIAMI,FL,33167,US,8004325147,,,90,,,
1992-04,SP RICHARDS - TAMPA,6525 HARNEY RD,TAMPA,FL,33610,US,8136266009,,,90,,,
1992-05,SP RICHARDS CARROLLTON,611 S ROYAL LN,COPPELL,TX,75019,US,4695686444,,,90,,,
1992-06,SP RICHARDS - MEMPHIS,5820 E SHELBY DR,MEMPHIS,TN,38141,US,8008661377,,,90,,,
1992-07,SP RICHARDS KANSAS CITY,2127 RIVER FRONT DR,KANSAS CITY,MO,64120,US,8008212347,,,90,,,
1992-08,SP RICHARDS HOUSTON,6555 PINE VISTA LN,HOUSTON,TX,77092,US,7139967072,,,90,,,
1992-09,SP RICHARDS COLUMBUS,2410 MCGAW RD,COLUMBUS,OH,43207,US,8008480004,,,90,,,
1992-10,SP RICHARDS - ST PAUL,2416 MAPLEWOOD DR,SAINT PAUL,MN,55109,US,8003289559,,,90,,,
1992-11,SP RICHARDS - DENVER,11600 E 56TH AVE,DENVER,CO,80239,US,8008483506,,,90,,,
1992-12,SP RICHARDS RICHMOND,4339 CAROLINA AVE,RICHMOND,VA,23222,US,8005523427,,,90,,,
1992-13,SP RICHARDS - OKLAHOMA CITY,1326 ENTERPRISE AVE,OKLAHOMA CITY,OK,731281431,US,8005622823,,,90,,,
1992-15,SP RICHARDS SCHERTZ,6409 TRI COUNTY IND PKWY,SCHERTZ,TX,78154,US,8008483504,,,90,,,
1992-16,SP RICHARDS BIRMINGHAM,204 INDUSTRIAL DR,BIRMINGHAM,AL,35211,US,8008483508,,,90,,,
1992-17,SP RICHARDS - METAIRIE,1012 MCDERMOTT RD,METAIRIE,LA,70001,US,8005357187,,,90,,,
1992-18,SP RICHARDS - MARYLAND HEIGHTS,673 CORPORATE TRAIL DR,EARTH CITY,MO,63045,US,8003254677,,,90,,,
1992-19,SP RICHARDS - JESSUP,8231-C STAYTON DR,JESSUP,MD,20794,US,8006382335,,,90,,,
1992-23,SP RICHARDS - MOORESTOWN,336 NEW ALBANY RD,MOORESTOWN,NJ,8057,US,8005240179,,,90,,,
1992-24,SP RICHARDS INDIANAPOLIS,8009 ALLISON AVE,INDIANAPOLIS,IN,46268,US,8003319792,,,90,,,
1992-26,SP RICHARDS NASHVILLE,730 FREELAND STATION RD,NASHVILLE,TN,37228,US,8006334107,,,90,,,
1992-27,SP RICHARDS - JACKSONVILLE,5501 COMMENWEALTH AVE,JACKSONVILLE,FL,32254,US,8005356497,,,90,,,
1992-28,SP RICHARDS - TUKWILA,1100 ANDOVER PARK WEST,TUKWILA,WA,98188,US,8003467444,,,90,,,
1992-29,SP RICHARDS - EAST SYRACUSE,"BUILDING 5A, CHRYSLER LN",EAST SYRACUSE,NY,13057,US,8007520062,,,90,,,
1992-30,SP RICHARDS - SACRAMENTO,181 MAIN AVE,SACRAMENTO,CA,95838,US,8005481617,,,90,,,
1992-31,SP RICHARDS - MIRA LOMA,10235 SAN SEVAINE WAY,MIRA LOMA,CA,91752,US,8003315410,,,90,,,
1992-33,SP RICHARDS - SALT LAKE CITY,1970 S 3850 W,SALT LAKE CITY,UT,84104,US,8008458603,,,90,,,
1992-34,SP RICHARDS - NASHUA,4 CAPITOL ST,NASHUA,NH,3063,US,8004370967,,,90,,,
1992-35,SP RICHARDS ELK GROVE,2650 LIVELY BLVD,ELK GROVE VILLAGE,IL,60007,US,8008588681,,,90,,,
1992-36,SP RICHARDS - PHOENIX,1429 S 40TH AVE,PHOENIX,AZ,85009,US,8004334101,,,90,,,
1992-37,SP RICHARDS - MIDDLETOWN,24 WES WARREN DR,MIDDLETOWN,NY,10941,US,8008338658,,,90,,,
1992-38,SP RICHARDS - PITTSBURGH,810 VISTA PARK DR,PITTSBURGH,PA,15205,US,8003498837,,,90,,,
1992-39,SP RICHARDS - GRAND RAPIDS,4120 BROCKTON DR SE,GRAND RAPIDS,MI,495124020,US,6166981851,,,90,,,
20005,HARCOURT INDUSTRIES INC,7765 S 175 W,MILROY,IN,46156,US,7656292625,,,90,,,
20011,A & D BOOKSTORE & SUPPLY,2401 PARAMOUNT BLVD,AMARILLO,TX,79109,US,8064631545,,,90,,,
20012,INDIANA STATE FAIR COMMISSION,1202 E 38TH ST,INDIANAPOLIS,IN,46205,US,3179277549,,,90,,,
20014,A PLUS TEACHING SUPPLIES,5710 WARDEN RD,SHERWOOD,AR,72120,US,5018356753,,,90,,www.a+teachingonline.com,
20019,EDUCATION EXPRESS,406 E MIDLAND ST,BAY CITY,MI,48706,US,9898946666,,,90,,,
20020,SECONDARY TEACHERS STORE THE,25129 DEQUINDRE RD,MADISON HEIGHTS,MI,48071,US,2483369051,,,90,,,
20024,ABC EDUCATIONAL SUPPLY,502 EAST WATER ST,PROSPECT,OH,43342,US,7404942696,,,90,,,
20028,ABC CENTER,3606 W SYLVANIA AVE,TOLEDO,OH,43623,US,4194738928,,,90,,,
20029,LOUDOUN LEARNING INC,506 B FORT EVANS RD,LEESBURG,VA,20176,US,7034439966,,,90,, www.loudonlearning.com,
20032,MAIN STREET SCHOOL SUPPLY,723 WHEELING AVE,CAMBRIDGE,OH,43725,US,7404350319,,,90,,,
20038,HARRISON AND COMPANY,2421 S 25TH AVE,BROADVIEW,IL,60155,US,7083454000,,,90,,www.harrisonandcompany.com,
20049,CHALK DUST TEACHING RESOURCE,2410 VALLEY AVE,WINCHESTER,VA,22601,US,5406628440,,,90,,,
20066,A + TEACHING SUPPLIES,7900 E US 36,AVON,IN,46123,US,3172725395,,,90,,,
20077,ACTION BUSINESS SUPPLIER,275 GOLD RUSH RD,LEXINGTON,KY,40503,US,8592789448,,,90,,,
20090,ADVENTURES IN LEARNING INC,4538 S BROADWAY,TYLER,TX,75703,US,9035099205,,,90,,,
2022,QUALITY ART,200 E 52ND ST,BOISE,ID,83714,US,2086720530,,,90,,www.qualityart.biz,
2029,JEDS PACKAGING SUPPLIES,10436 S LAWNDALE AVE,CHICAGO,IL,606553120,US,7732339472,,,90,,,
2030,UNIVERSITY BOOK & SUPPLY,1009 W 23RD ST,CEDAR FALLS,IA,50613,US,3192667581,,,90,,,
2031,SCHOOL STORE THE,4421 MATHIS MILL RD,VALDOSTA,GA,31605,US,2292451667,,,90,,,
20360,AMBROSE CHRISTMAS STORE,6715 N 2ND ST,LOVES PARK,IL,61111,US,8156543111,,,90,,,
20480,APPLE CORE,1301 E ST PETER ST,NEW IBERIA,LA,70560,US,3373651633,,,90,,,
20490,APPLE TREE INC THE,7204 E 41ST ST,TULSA,OK,74145,US,9186228733,,,90,,,
20519,ART & LEARN,1225 UNIVERSITY DR S,FARGO,ND,58103,US,7014761988,,,90,,,
20540,ART CENTER SUPPLY STORES,1636 UNION AVE,MEMPHIS,TN,38104,US,9012740952,,,90,,,
20612,ALL ABOUT KIDS,8 5369 CANOTEK RD,OTTAWA,ON,K1J9J3,CA,6137420308,,,90,,www.allaboutkids.info,
20794,BALDWIN SCHOOL SUPPLY LTD,589 BARTON STREET UNIT 4-6,STONEY CREEK,ON,L8E6E4,CA,9053352086,,,90,,,
20808,BAPTIST BIBLE & BOOK HOUSE,605 COMMERCE ST,LAUREL,MS,39440,US,6016497682,,,90,,,
20833,BASTROP COPIER,1002 MAIN ST,BASTROP,TX,78602,US,5123211010,,,90,,,
20840,BAXTERS DIST CO,912 E BROADWAY,ALTON,IL,620020264,US,6184659347,,,90,,,
21019,BOOKERY THE- CST,129 E ABRIENDO,PUEBLO,CO,81004,US,7195441135,,,90,,,
21071,BRAULT & BOUTHILLIER LTD,700 AVE BEAUMOUT,MONTREAL,QC,H3N1V5,CA,5142739186,,,90,,,
21076,HBI OFFICE PLUS,1162 OSLER ST,REGINA,SK,S4R5G9,CA,3067575678,,,90,,,
21173,BURRIS INC  TM# 814,113 S ARKANSAS,RUSSELLVILLE,AR,72801,US,4799864888,,,90,,,
21179,BUTLERS PRINT & OFFICE SUPPLY-TM,1900 E HWY 66,GALLUP,NM,87301,US,5057226661,,,90,,,
21236,C & R OFFICE SUPPLY,182 W COURT ST,PRESTONSBURG,KY,41653,US,6068868059,,,90,,,
21281,CAPPELS INC,920 ELM ST,CINCINNATI,OH,45202,US,5136210952,,,90,,www.cappelsinc.com,
21288,CARLEX CO THE,1545 W HAMLIN RD,ROCHESTER HILLS,MI,483081786,US,2488525422,,,90,,www.carlexonline.com,
213,OFFICE XPRESS TM# 213,7701 ALABAMA AVE,CANOGA PARK,CA,9413044904,US,8188845737,,,90,,,
21309,CARR MCLEAN,461 HORNER AVE,TORONTO,ON,M8W4X2,CA,4162523371,,,90,,,
21343,TOLEDO CENTRAL DISTRIBUTORS,2838 SYLVANIA AVE,TOLEDO,OH,43613,US,4194726867,,,90,,,
21449,CHRISTIES OFFICE PLUS,705 PACIFIC AVE,BRANDON,MB,R7A0H8,CA,2047271423,,,90,,,
21493,CLASSROOM CONNECTION,1500 E MCCARTY ST,JEFFERSON CITY,MO,65101,US,5736322742,,,90,,,
21548,COPELINS OFFICE CENTER  TM195,425 W MAIN,NORMAN,OK,73069,US,4053647011,,,90,,www.copelins.com,
21599,CREATIVE CURRICULUM,790 ARLINGTON RDG SUITE 207,AKRON,OH,44312,US,3307246800,,,90,,www.thebookbag.com,
21609,CREATIVE KIDSTUFF INC,3939 EAST 46TH ST,MINNEAPOLIS,MN,55406,US,6129292431,,,90,,,
21619,CREATIVE TEACHING,5500-342 MILAN RD,SANDUSKY,OH,44870,US,4196252986,,,90,,www.zteacher.com/creativeteaching,
21639,CORPORATE BUSINESS SUPPLIES,273 PLAUCHE ST,HARAHAN,LA,70123,US,5047343072,,,90,,www.cbsupplies.net,
21657,CURRYS ART STORE LTD,2485 TEDLO ST,MISSISSAUGA,ON,L5A4A8,CA,4167987983,,,90,,www.currys.com,
21692,AMOLS SPECIALTY -CC,710 S FLORES ST,SAN ANTONIO,TX,78204,US,2102271457,,,90,,,
21697,TEACHERS HELPER,2115 S MINNESOTA AVE,SIOUX FALLS,SD,571051670,US,6053381344,,,90,,,
21719,DALLAS AND COMPANY,101 E UNIVERSITY AVE,CHAMPAIGN,IL,61820,US,2173515974,,,90,,,
21720,DALLAS PEN COMPANY,2955 ANODE LN/MONROE ST,DALLAS,TX,75220,US,2143500444,,,90,,www.dallaspen.com,
21810,DEMCO INC,PO BOX 14077,MADISON,WI,537080077,US,6082411201,,,90,,www.demco.com,
21837,DICK OFFICE SUPPLY,1009 S 77 SUNSHINE STRIP,HARLINGEN,TX,78550,US,9564281221,,,90,,,
21870,DISPLAY AID,714 HIGHLAND AVE,VALLEY PARK,MO,63088,US,6368613320,,,90,,,
21889,JO JOS PARTY PLACE,2258 CALUMET DR,SHEBOYGAN,WI,53083,US,9204525022,,,90,,,
22107,EDUCATORS OUTLET INC,2479 INTERNATIONAL BLVD,FORT COLLINS,CO,80524,US,9704498911,,,90,,,
2211,WB MASON CO,59 CENTRE ST,BROCKTON,MA,2303,US,5085863434,,,90,,,
22118,EDUCATION STATION,136 S MAIN ST,BELLEFONTAINE,OH,43311,US,9375992993,,,90,,,
22138,EDUCATIONAL PROVIDERS,1395 N COLE ST,LIMA,OH,45801,US,4192246229,,,90,,,
22150,WISE OWL,4409 WHIPPLE AVE NW,CANTON,OH,44718,US,3304930158,,,90,,,
2224,CENTRALIA STATIONERY,324 E BROADWAY,CENTRALIA,IL,62801,US,6185325643,,,90,,,
22335,SMARKETING BUSINESS SYSTEM,2525 W BELLFORT AVE,HOUSTON,TX,77054,US,7135295898,,,90,,,
22432,ERASERS & CRAYONS INC,15225 TOLEDO RD,SOUTHGATE,MI,48195,US,7342844884,,,90,,,
22675,QUILL/STAPLES-675,7701 STAPLES DR,LITHIA SPRINGS,GA,30122,US,6783983800,,,90,,,
2274,BRAINSTORM INC,625 N BRIDGEPORT TER,LINDENHURST,IL,60046,US,8472650610,,,90,,www.brainstorm-education.com,
2275,AMERICAN SCIENCE & SURPLUS INC,7410 N LEHIGH,NILES,IL,60714,US,8476470020,,,90,,www.surplus.com,
22820,50-50 FACTORY OUTLET WEB STORE,3347 STATE RD 93,EAU CLAIRE,WI,54701,US,7158331020,,,90,,,
22960,FUNDAMENTALS,25 WEST WINTER ST,DELAWARE,OH,43015,US,7403630290,,,90,,,
23014,G A EDUCATIONAL BOOKS & TOYS,461 N SERVICE RD  W UT28/29,OAKVILLE,ON,L6M2V5,CA,9058478481,,,90,,,
2303,XPEDX,PO BOX 62209,CINCINNATI,OH,45241,US,5139652713,,,90,,,
23053,GATEWAY PRINTING & OFFICE,315 S CLOSNER,EDINBURG,TX,78539,US,9563833861,,,90,,www.gatewayp.com,
23075,AWAKENING AVATAR ENTERPRISE,2417 N WESTERN AVE,CHICAGO,IL,60647,US,7732922992,,,90,,,
2309,OFFICE MAX,1590  1ST AVE,OTTAWA,IL,61350,US,8154317222,,,90,,,
23101,GIFT & BIBLE CENTER INC,522 FRANDOR AVE,LANSING,MI,48912,US,5173475500,,,90,,,
23157,GLAZERS WHOLESALE DRUG,14911 QUORUM DR / STE 400,DALLAS,TX,75380,US,9727020355,,,90,,,
2318,CLASSMATES LTD,3625 W 95TH ST,EVERGREEN PARK,IL,60805,US,7084992950,,,90,,www.theclassmateltd.com,
2322,EDUCATION DEPOT,10708 S WESTERN AVE,CHICAGO,IL,60643,US,7732338080,,,90,,,
2324,ETA/CUISENAIRE,500 GREENVIEW CT,VERNON HILLS,IL,600611862,US,8478165050,,,90,,,
23265,GREENS OF ROCHESTER,429 MAIN ST,ROCHESTER,MI,48307,US,2486513900,,,90,,,
2331,MIDLAND PAPER,101 E PALATINE RD,WHEELING,IL,60090,US,8477772700,,,90,,,
23314,GUIRYS ART SUPPLIES,2468 S COLORADO BLVD,DENVER,CO,80222,US,3037588244,,,90,,,
2333,HIGHLANDS EDUCATIONAL PRODUCTS,743 MCCLINTOCK DR,BURR RIDGE,IL,60527,US,6309907990,,,90,,,
2341,UNISOURCE-ADDISON,1141 N SWIFT RD,ADDISON,IL,60101,US,6304958257,,,90,,,
2346,SCHOOLKIDZ.COM,11210 KATHERINES XING,WOODRIDGE,IL,60517,US,6307395000,,,90,,,
2347,DICK BLICK COMPANY INC,695 US HWY 150 E,GALESBURG,IL,61401,US,3093436181,,,90,,www.dickblick.com,
2348,SCOTT FORESMAN,PO BOX 3002,LIVONIA,MI,48150,US,8474862235,,,90,,,
2352,DRAW 4 INC,1619 WEST LUTHY DR,PEORIA,IL,61615,US,3094275090,,,90,,,
23521,HSC OFFICE PRODUCTS,99-1418 KOAHA PL,AIEA,HI,96701,US,8084863200,,,90,,,
2359,LIBRARY STORE,112 E SOUTH ST,TREMONT,IL,61568,US,3099253923,,,90,,,
2361,MURNANE PAPER CO,345 FISCHER FARM RD,ELMHURST,IL,60126,US,6305308222,,,90,,,
2365,STANDARD STATIONERY SUPPLY CO,2251 S FOSTER AVE,WHEELING,IL,60090,US,8478701335,,,90,,,
2369,SCHOOL TOOL BOX LLC OP#5092,228 W PAGE ST,SYCAMORE,IL,60178,US,8158951062,,,90,,www.schooltoolbox.com,
23700,HOLLOS PAPERCRAFT,1878 PEARL RD,BRUNSWICK,OH,44212,US,3302250911,,,90,,,
23706,HOLMES STATIONERS,1136 US HWY 51-98,SUMMIT,MS,39666,US,6012762700,,,90,,,
2376,PARENT/TEACHER TOOLS INC,2073 W HWY 50,FAIRVIEW HEIGHTS,IL,62208,US,6186323777,,,90,,,
2377,PEORIA SCHOOL SUPPLY CO,2301 W GLEN,PEORIA,IL,61614,US,3096831044,,,90,,,
2381,CHALKBOARD THE,2110 PLAINFIELD RD,CREST HILL,IL,60403,US,8157412023,,,90,,,
2382,3 RS THE,1643 N ALPINE RD,ROCKFORD,IL,611074945,US,8153981600,,,90,,www.the3rs.com,
23846,INTERNATIONAL OFFICE  IS# 1062,5916 ROBERTSON AVE #862,NASHVILLE,TN,37209,US,6155787988,,,90,,www.internationofficesupply.com,
23855,SAM FLAX,1800 E COLONIAL DR,ORLANDO,FL,32803,US,4078989785,,,90,, www.samflax.com,
2386,SHICK SUPPLY & EQUIPMENT CO,801 PERRYSVILLE AVE,DANVILLE,IL,61832,US,2174421546,,,90,,,
2393,UNISOURCE-ST LOUIS,8195 LACKLAND RD,ST LOUIS,MO,63114,US,3149191800,,,90,,,
2395,WILSON PAPER COMPANY,363 S KELLOGG ST,GALESBURG,IL,61401,US,3093420168,,,90,,,
23975,ILLINOIS SCHOOL SUPPLY COMPANY,120 SOUTH SEVENTH,QUINCY,IL,62301,US,2172226913,,,90,,,
2398,CHICAGO TEACHER,1855 N MILWAUKEE AVE,CHICAGO,IL,60647,US,7732528200,,,90,,,
2400,MOLLY HAWKINS  HOUSE,PO BOX 129,NAPLES,NC,287600129,US,8884466559,,,90,, www.mollyhawkins.com,
2415,SHAUGHNESSY KNEIP-HAWE,865 PERRY RD,PLAINFIELD,IN,46168,US,3178377041,,,90,,www.shkpaper.com,
2417,OFFICE CENTER THE  IS#566,105 S BROADWAY,SEYMOUR,IN,47274,US,8125221617,,,90,,,
24208,IMAGINE PARENT TEACHER EDUC,6910 MCPHERSON RD,LAREDO,TX,78041,US,9567266105,,,90,,,
24240,IRWIN OFFICE SUPPLIES,143 CENTER ST,ASHLAND,OH,44805,US,4192893400,,,90,,,
2426,BYE MOR INC,7123 S 4TH RD,KINGSBURY,IN,46345,US,2193933514,,,90,,www.byemor.com,
2430,STEFFY WOOD PRODUCTS,701 W MILL ST,ANGOLA,IN,46703,US,2606658016,,,90,,www.steffywood.com,
2439,ARIVA PAPER COMPANY,2830 S LYNHURST DR,INDIANAPOLIS,IN,46241,US,3172403500,,,90,,,
2441,ARIVA PAPER COMPANY,1930 PRODUCTION RD,FORT WAYNE,IN,46808,US,2604838146,,,90,,,
24533,JEMS,1015 WEST KIRKLAND,NASHVILLE,TN,372163052,US,6152264707,,,90,,,
2464,KRIDAN SCHOOL & BUSINESS EQUIP,824 E TROY AVE,INDIANAPOLIS,IN,46203,US,3177833217,,,90,,www.kridancopiers.net,
2485,ARTISTIC CREATIONS,PO BOX 361000,INDIANAPOLIS,IN,46236,US,8003596767,,,90,,,
2486,LEARNING TREASURES,223 S PETE ELLIS DR,BLOOMINGTON,IN,474075086,US,8123326777,,,90,,,
24989,P A KLOPFENSTEIN COMPANY,210 N OAK ST,PONTIAC,IL,61764,US,8158446686,,,90,,,
25070,EATON OFFICE SUPPLY - TM#300,180 JOHN GLENN DR,AMHERST,NY,14228,US,7166916100,,,90,,,
25178,TEACHER STORE,4058 SUMMERHILL SQ,TEXARKANA,TX,75503,US,9037924319,,,90,,,
25187,LEES EDUCATION CENTER INC,300 E 7TH ST,THIBODAUX,LA,70302,US,9854477885,,,90,,,
25199,LEARNING TREE THE,640 WEST BROADWAY,BRADLEY,IL,60915,US,8159390319,,,90,,,
25271,NET LITIN DISTRIBUTORS,434 LAKESIDE AVE,MINNEAPOLIS,MN,554051529,US,6123434300,,,90,,,
25323,OFFICE WORKS,11 E MAIN ST,PLANO,IL,60545,US,6305524255,,,90,,,
25325,LOUISE KOOL & GALT LTD,10 NEWGALE GATE,SCARBOROUGH,ON,M1X1C5,CA,4162930312,,,90,,www.louisekool.com,
25387,ROBERTS HUTCH LINE INC TM233,413 E THIRD,HUTCHINSON,KS,675041363,US,6206623356,,,90,,,
25438,REPUBLIC  DISTRB-SHREVEPORT,8301 WYNGATE BLVD,SHREVEPORT,LA,71108,US,3186878110,,,90,,,
25445,MAJOR BRANDS,6701 S WEST AVE,SAINT LOUIS,MO,63143,US,3146451843,,,90,,,
25501,MATHISON COMPANY,1213 NP AVENUE,FARGO,ND,58102,US,7012328971,,,90,,www.mathisons.com,
25543,EDUKIT INC,613 VALLEY ST,COLORADO SPRINGS,CO,80915,US,7196323595,,,90,,,
25561,GREENLINE PAPER COMPANY INC,631 S PINE ST,YORK,PA,17403,US,7178458697,,,90,,,
25579,GALES WHOLESALE LTD,1602 ELLIOTT ST,REGINA,SK,S4N6L1,CA,3067578545,,,90,,,
25668,GREAT RIVER OFFICE PRODUCTS,115 S WABASHA ST,SAINT PAUL,MN,55107,US,6512931135,,,90,,,
25682,MICHAELS STORES INC,8000 BENT BRANCH DR,IRVING,TX,75063,US,9724091300,,,90,,,
26191,PENCIL CUP OFFICE PRODUCTS,1220 TEXAS AVE,EL PASO,TX,79901,US,9158380026,,,90,,,
2621,UNISOURCE-WICHITA,PO BOX 45195,JACKSONVILLE,FL,322325195,US,3165223494,,,90,,,
26323,OFFICE CENTRAL,401 W HOUGHTON,WEST BRANCH,MI,48661,US,9893454120,,,90,,,
26335,TEACHERS HEAVEN,120 ORANGE ST,GEORGETOWN,SC,29440,US,8435461955,,,90,,,
2650,PITSCO,1003 E ADAMS,PITTSBURG,KS,66762,US,6202310010,,,90,,,
26560,LEARNING GIZMOS,23601 VAN DYKE,WARREN,MI,48089,US,5867578488,,,90,,www.learninggizmos.com,
2662,PERFECT PEACE,604 N TYLER RD,WICHITA,KS,67212,US,3167214242,,,90,,www.superiorschool.com,
26636,LONGHORN OFFICE  TM# 781,2210 DENTON DRIVE,AUSTIN,TX,78727,US,5126724567,,,90,,,
2666,ORIENTAL TRADING,4206 S 108TH ST,OMAHA,NE,68137,US,4025961200,,,90,,,
26692,SHAUGHNESSY KNIEP HAWE PAPER CO,2355 BALL DR,ST. LOUIS,MO,63146,US,3148108100,,,90,,,
2684,SUPPLY CLOSET THE,8601 HAUSER CT,LENEXA,KS,66215,US,9134389800,,,90,,,
2685,UNISOURCE-LENEXA,PO BOX 45192,JACKSONVILLE,FL,322325192,US,3149191918,,,90,,,
26864R,LINDENMEYR MUNROE,N22W23977 RIDGEVIEW PKW  STE 700,PEWAUKEE,WI,53188,US,4147713771,,,90,,,
26881,PARTIES & WEDDINGS PLUS,1419 N RIVERFRONT DR,MANKATO,MN,56001,US,5073457277,,,90,,,
26896,PARENT TEACHER TECH CENTER,117 E GRAND RIVER AVE,BRIGHTON,MI,48116,US,8102279915,,,90,,www.parentteachertech.com,
26988,PEORIA FLAG  & DECORATING,920 E GLENN AVE,PEORIA HEIGHTS,IL,616163946,US,3096858989,,,90,,,
27000,PAULAS EDUCATIONAL,302 OCKLEY DR,SHREVEPORT,LA,71105,US,3188692902,,,90,,,
27084,PARTY ADVENTURE,23400 GREATER MACK,SAINT CLAIR SHORES,MI,48080,US,5867769750,,,90,,,
27110,PORCH SCHOOL SUPPLY,5200 NORTH SANTA FE,OKLAHOMA CITY,OK,73118,US,4055243309,,,90,,www.porchschoolsupply.com,
27129,STAPLES INC #129,4831 OLD SEWARD HWY,ANCHORAGE,AK,99503,US,9955037452,,,90,,,
27184,PRICE RITE MARKING SYSTEM,2900 TAFT HWY,SIGNAL MOUNTAIN,TN,37377,US,4238864854,,,90,,,
27229,QUILL/STAPLES-DALLAS-839,201 S NORTHPOINT DR,COPPELL,TX,75019,US,9727450000,,,90,,,
27236,QUILL/STAPLES--9472,70 COMMUNITY AVE,PLAINFIELD,CT,6374,US,8605640508,,,90,,,
27239,QUILL/STAPLES INC-692,1500 S DUPONT ST,ONTARIO,CA,91761,US,9099377800,,,90,,,
27269,QUILL STAPLES INC-805,19499 NE RIVERSIDE PKWY,PORTLAND,OR,97230,US,8476346690,,,90,,,
272694,STAPLES INC #694,1133 POPLAR CREEK RD,HENDERSON,NC,27537,US,2524363200,,,90,,,
27272,QUILL STAPLES - 472,15 RIDGE RD,PUTNAM,CT,6260,US,8609280800,,,90,,,
27279,QUILL/STAPLES INC-748,4510 ALITALIA AVE,STOCKTON,CA,95206,US,8476346690,,,90,,,
2728,GREEN JOHN R CO,411 W 6TH ST,COVINGTON,KY,41011,US,8594315568,,,90,,www.johnrgreenco.com,
27281,QUALITY CLASSROOMS,840 BRADFORD ST,WINNIPEG,MB,R3HON5,CA,2047756566,,,90,,,
272885,QUILL/STAPLES - 885,5440 E FRANCIS ST,ONTARIO,CA,91761,US,9093900600,,,90,,,
27289,QUILL STAPLES INC-684,500 E HIGH ST,LONDON,OH,43140,US,8476346690,,,90,,,
2729,CHANDLERS,208-210 MAIN ST,CAMPBELLSVILLE,KY,42718,US,2704654773,,,90,,www.chandlersoffice.com,
27291,QUILL/STAPLES-#682,1550 S MAIN ST,CHAMBERSBURG,PA,17201,US,7172643616,,,90,,,
27292,QUILL/STAPLES INC-807,200 BROMLEY BUSINESS PKWY,BRIGHTON,CO,80603,US,3034981011,,,90,,,
27295,QUILL/STAPLES - 580,3140 COLLEY RD,BELOIT,WI,53511,US,6083614528,,,90,,,
27296,QUILL/STAPLES INC-895,10701 CENTRAL PORT DR,ORLANDO,FL,32824,US,4078503700,,,90,,,
27297,QUILL/STAPLES-683-MONT,105 BRACKEN RD,MONTGOMERY,NY,12549,US,8454577200,,,90,,,
27299,QUILL CORP,PO BOX 102410,COLUMBIA,SC,29224,US,8476346690,,,90,,www.quill.com,
2730,KENTUCKY SCHOOL SERVICE,3019 RING RD,ELIZABETHTOWN,KY,427017933,US,2707693333,,,90,,www.zteacher.com/kss-ky,
27300,STAPLES/QUILL-DROP SHIP,PO BOX 102420,COLUMBIA,SC,29224,US,8033338304,,,90,,,
27304,R E SUPPLIES,512 E MAIN ST SUITE A,RIO GRANDE CITY,TX,78582,US,9564878318,,,90,,,
2731,LITTLE RED SCHOOLHOUSE,201 MADISON SQ,MADISONVILLE,KY,42431,US,2708258171,,,90,,,
2732,PARENT TEACHER STORE & TOYS TOO,10211 W PORT RD,LOUISVILLE,KY,40241,US,5028999521,,,90,,,
2735,PARENT-TEACHER STORES USA,101 VANDERBILT CT,BOWLING GREEN,KY,421026725,US,2708462209,,,90,,,
27352,RED BELL INC THE,3201 WASHINGTON AVE,RACINE,WI,53405,US,2625988641,,,90,,,
27405,RESOURCE ISLAND THE,473 W PEN AVE,CLEONA,PA,17042,US,7172701776,,,90,,,
27409,REPUBLIC NATIONAL DIST-AMARILLO,329 N NELSON,AMARILLO,TX,79107,US,8063764183,,,90,,,
2743,TRAVIS SCHOOL EQUIPMENT,901 US HIGHWAY 68 W,BENTON,KY,42025,US,2705275191,,,90,,,
27688,STAPLES 688,1233 W COUNTRY RD E,ARDEN HILLS,MN,55112,US,6516362250,,,90,,,
27704,SANGAMON COUNTY FAIR,PO BOX 147,NEW BERLIN,IL,62670,US,2174882685,,,90,,,
27721,SCHOLARSHIP LTD THE,2600 KESLINGER RD,GENEVA,IL,60134,US,6302321499,,,90,,www.scholarshipltd.com,
27724,SCHOLARS CHOICE,2323 TRAFALGAR ST,LONDON,ON,N5Y5S7,CA,5194538530,,,90,,,
27748,SCHOOLHOUSE STORE THE,707 W DAVIS,CONROE,TX,77301,US,9367562827,,,90,,www.theschoolhousestore.com,
27749,SCHOOL SALES & SERVICE LLC,1023 SOUTH WATER STREET,GALLATIN,TN,37066,US,6154529250,,,90,,,
27752,SCHOOL & CARNIVAL SUPPLIES,311 COWAN RD,GULFPORT,MS,39507,US,2288961101,,,90,,,
27753,SCHOOL DAZE,2280 HWY 127 S,CROSSVILLE,TN,38572,US,9314564013,,,90,,,
277812,STAPLES INC 812,4575 PLEASANT HILL RD,MEMPHIS,TN,38118,US,9015666446,,,90,,,
27834,STAPLES - 834 - AZ,8602 W BUCKEYE RD,TOLLESON,AZ,85353,US,6234323149,,,90,,,
27885,SHRIVER OFFICE SUPPLY,1901 E MAIN ST,ALICE,TX,783324142,US,3616642638,,,90,,,
27922,STAPLES - 922 -GA,7800 THIRD FLAG PKWY,AUSTELL,GA,30168,US,6784196720,,,90,,,
27926,STAPLES INC 926,23300 NW HWY,SOUTHFIELD,MI,48075,US,2489366600,,,90,,,
27950,QUILL/STAPLES - 950,3 KEYSTONE DR,LEBANON,PA,17042,US,7172705421,,,90,,,
27961,QUILL/STAPLES - 961,440 S ROYAL LN,COPPELL,TX,75019,US,9724627762,,,90,,,
27965,BUSINESS PRODUCTS INC/SKINNER,2093 THOMAS RD,MEMPHIS,TN,38134,US,9012785500,,,90,,,
27972,STAPLES INC 972,6400 HOLLISTER RD,HOUSTON,TX,77040,US,7139346400,,,90,,,
27973,STAPLES INC #973,4510 FRONTAGE RD NW,AUBURN,WA,98001,US,2535186935,,,90,,,
27974,STAPLES INC 974,16501 TROJAN WAY,LA MIRADA,CA,90638,US,7148684169,,,90,,,
27976,STAPLES INC 976,3900 SOUTH AMERICAN WAY,IDAHO FALLS,ID,83404,US,2085351600,,,90,,,
27981,STAPLES INC #981,7021 DORSEY RD,HANOVER,MD,21076,US,4105672300,,,90,,,
27983,STAPLES- 983,600 JEFFERSON AVE,SECAUCUS,NJ,7094,US,9734343700,,,90,,,
27985,STAPLES INC 985 - WI,120 WEST OPUS DR,OAK CREEK,WI,53154,US,4142166000,,,90,,,
28029,SONSUH EDUCATIONAL SUPPLIES,448 MCNICOLL AVE,NORTH YORK,ON,M2H2E1,CA,4164993088,,,90,,www.sonsuh.com,
28044,SOUTHERN IMPORTERS,4825 SAN JACINTO,HOUSTON,TX,77004,US,7135248236,,,90,,,
28130,SHARP SCHOOL SERVICES,6400 LINCOLNWAY,HOBART,IN,46342,US,2199426903,,,90,,,
28151,SCHOOLS LOCKER STOCKER,126 E POPLAR ST,SIDNEY,OH,45365,US,9374981117,,,90,,,
28185,LEARNING POST,2761 100TH ST,URBANDALE,IA,50322,US,5153318008,,,90,,www.learningpostltd.com,
28203,SUN NOVELTY,728 BROADWAY,LORAIN,OH,44052,US,4402449521,,,90,,,
28205,STUMP PRINTING COMPANY,1 PARTY PL,SOUTH WHITLEY,IN,46787,US,2607235171,,,90,,,
28318,TEXAS TEACHER SUPPLY,2829 SE BELTWAY 8,PASADENA,TX,77503,US,2819988484,,,90,,,
28319,LEARNING STOP THE,314 W MAIN ST,BLYTHEVILLE,AR,72315,US,8708381523,,,90,,,
28321,REPUBLIC NATIONAL DIST-HOUSTON,8045 NORTHCOURT RD,HOUSTON,TX,77040,US,8327821842,,,90,,,
28330,TAYMARK,4875 WHITE BEAR PKWY,WHITE BEAR LAKE,MN,55110,US,6514261667,,,90,,,
28343,TEACHERS CORNER,1621 BROADWAY,SCOTTSBLUFF,NE,69361,US,3086350039,,,90,,www.teacherscorner@carterinternet.t,
28369,TEACHERS CENTER,6505 CONSTITUTION BLVD,PORTAGE,MI,49024,US,2693274666,,,90,,www.teacherscenter.com,
28372,TEACHERS MART INC THE,5701 DE SIARD RD,MONROE,LA,71203,US,3183434444,,,90,,,
28387,US SHELL INC,PO BOX 129,LOS FRESNOS,TX,78566,US,9565544500,,,90,,,
28399,AMERICAN EAGLE CO INC,2741 PALDAN DR,AUBURN HILLS,MI,48326,US,2483407210,,,90,,www.teachersdiscovery.com,
28406,TERRYS 5 & 10 INC,480 LEXINGTON RD,VERSAILLES,KY,40383,US,8004003661,,,90,,,
28414,TEACHER HEAVEN,4211 S LAMAR BLVD,AUSTIN,TX,78704,US,5126930668,,,90,,www.teacherheaven.com,
28419,TEACHERS LEARNING STORE,#8 34100 S FRASER WAY,ABBOTTSFORD,BC,V2S2C6,CA,6048599663,,,90,,,
2845,BELL OFFICE SUPPLY INC,119 S COREIL ST,VILLE PLATTE,LA,70586,US,3373635486,,,90,,,
28459,TOM THUMB HOBBY CENTER,1026 DAVIS ST,EVANSTON,IL,60201,US,8478699575,,,90,,,
2846,TEACHERS AID THE,312 WING AVE,OWENSBORO,KY,42303,US,2706837115,,,90,, www.teachersaid.com,
28473,TEACHERS PET IS# 753,312 N PARKERSON,CROWLEY,LA,70527,US,8002472129,,,90,,,
2849,PLAYVILLE INC,1505 N HWY 190,COVINGTON,LA,70433,US,9858931000,,,90,,,
2854,EDUCATION STATION LLC,670 BROWNSWITCH RD,SLIDELL,LA,70458,US,9856418692,,,90,,,
2859,LEARNING TOOLS INC,3235  LISA DR,METAIRIE,LA,70003,US,5044558460,,,90,,,
2865,EDUCATOR INC,3017 EDENBORN AVE,METAIRIE,LA,70002,US,5044545147,,,90,,,
2866,NEBRASKA BOOK,4700 S 19TH STREET,LINCOLN,NE,68512,US,3183529965,,,90,,,
2868,CHALKBOARD AND GIFTS THE,2202 CYPRESS ST,WEST MONROE,LA,71291,US,3183409093,,,90,,,
2869,CLASS WORKS,1107 W MORRIS ST,HAMMOND,LA,70403,US,9855426263,,,90,,,
2877,MULE-DUREL INC - IS#745,5813 PLAUCHE ST,NEW ORLEANS,LA,70123,US,5047335707,,,90,,,
28771,UNITED OFFICE SUPPLY & EQUIP,4013 MAPLEWOOD DR,SULPHUR,LA,70663,US,3376252442,,,90,,,
2879,J & R EDUCATIONAL SUPPLIES,3123 1/2 JOHNSTON ST,LAFAYETTE,LA,70503,US,3379843069,,,90,,,
2882,PAPER SHACK & PARTY STORE INC,2430 E TEXAS,BOSSIER CITY,LA,71111,US,3187468636,,,90,,,
28845,UNIVERSITY BOOK STORE THE,711 STATE ST,MADISON,WI,53703,US,6082573784,,,90,,,
28846,UNIVERSITY BOOKSTORE,MURRAY STATE UNIVERSITY,MURRAY,KY,42071,US,2708094388,,,90,,www.murraystate.edu,
2886,SCHOOL AIDS,9335 INTERLINE AVE,BATON ROUGE,LA,70809,US,2259230294,,,90,,www.schoolaids.com,
28940,VALUE MERCHANDISE INTL INC,14105 13TH AVE N,PLYMOUTH,MN,55441,US,7634501700,,,90,,,
28963,VARIETY DISTRIBUTORS INC,PO BOX 728,HARLAN,IA,51537,US,7127552184,,,90,,,
29272,WEBER PAPER COMPANY IS# A020,4300 CHAVENELLE RD,DUBUQUE,IA,52002,US,5635884611,,,90,,,
2944,NEW ENGLAND OFFICE SUPPLY TM#122,135 LUNDQUIST DR,BRAINTREE,MA,21845238,US,7817948800,,,90,,www.neosusa.com,
2951,KALEIDOSCOPE,828 BAY AVE,CAPITOLA,CA,95010,US,8314750210,,,90,,,
2961,STRONG ARM BINDERY,58 FORE ST BUILDING 14,PORTLAND,ME,4101,US,2078794672,,,90,,,
29716,STAPLES - #9716,6600 EXECUTIVE DR,KANSAS CITY,MO,64120,US,8165042533,,,90,,,
29747,YOUNGHOUSE PARTY,PO BOX 280,CAPE GIRARDEAU,MO,63702,US,5733343910,,,90,,,
2977,CASCADE SCHOOL SUPPLIES,1 BROWN ST,NORTH ADAMS,MA,1247,US,4136633716,,,90,,www.cascadeschoolsupplies.com,
29925,STAPLES # 9925,200 MUSHROOM BLVD,ROCHESTER,NY,14623,US,11111111111,,,90,,,
30003,AOE SUPPLY INC,12908 N 56TH ST,TAMPA,FL,33617,US,8139890302,,,90,,www.aoeartworld.com,
30023,ABCS AND 123S INC,825 - D ROCKVILLE PIKE,ROCKVILLE,MD,20852,US,2402681234,,,90,,,
30043,AJ HASTINGS INC,45 S PLEASANT ST,AMHERST,MA,1002,US,4132532840,,,90,,www.ajhastings.com,
30051,ACE HANDICRAFT,314 HEMPSTED TPKE,WEST HEMPSTEAD,NY,11552,US,5162921478,,,90,,,
30062,ABC STORE THE,7 EXCHANGE ST,MILFORD,MA,1757,US,5084737878,,,90,,www.abcstoreonline.com,
30349,AQUA HOUSE INC,4999 S. Lulu,WICHITA,KS,67226,US,3166875655,,,90,,,
30401,SUMMER BOOK STORES INC,6133 OLD SHELL RD,MOBILE,AL,36608,US,2513431333,,,90,,www.andersbookstore.com,
3041,OFFICE HQ  IS#1266,1503 N 29TH,SPRINGFIELD,IL,62702,US,2176702615,,,90,,,
30428,TEACHING THINGS INC,408 WALNUT DR,TRUSSVILLE,AL,35173,US,2056557511,,,90,,,
30465,ARMFIELDS OFFICE SUPPLY,1403 MAIN ST,NEWBERRY,SC,29108,US,8032766132,,,90,,,
30514,ART STORE THE,462 W MAIN ST,KUTZTOWN,PA,19530,US,6106839123,,,90,,,
3055,TOY TOWN,27 RITA AVE,MONSEY,NY,10952,US,8453715907,,,90,,,
3071,EDUCATE & CELEBRATE,122 W DARES BEACH RD,PRINCE FREDERICK,MD,20678,US,4105352771,,,90,,www.learning-experts.com,
3078,EDUCATIONAL ETC,10582 CAMPUS WAY S,LARGO,MD,20774,US,3014665554,,,90,,,
30809,BARNETT EDUCATIONAL SUPPLIES,38 W DEREENE AVE,SAVANNAH,GA,31405,US,9123561878,,,90,,,
3090,ARTIST & CRAFTSMAN,540 DEERING AVE,PORTLAND,ME,4103,US,2078286555,,,90,,www.artistcraftsman.com,
30942,BIBLAIRIE GGC LTEE,1567 RUE KING QUEST,SHERBROOKE,QC,J1J2C6,CA,8195660344,,,90,,,
3102,LINDENMEYR MUNROE,190 RIVERSIDE UNIT 10A,PORTLAND,ME,41031078,US,2078780007,,,90,,,
31046,BOWERS SCHOOL SUPPLY,2021 E MAIN ST,EASLEY,SC,29640,US,8648553222,,,90,,,
31081,EMPIRE MERCHANTS LLC,39-34 43RD ST,LONG ISLAND CITY,NY,11104,US,7182552732,,,90,,,
31105,BRODART CO,100 NORTH RD,MC ELHATTAN,PA,17748,US,5707693265,,,90,,www.shopbrodart.com,
31120,BRUCE VARIETY-CST,8011 WOODMONT AVE,BETHESDA,MD,20814,US,3016567543,,,90,,,
31214,CALLOWAY HOUSE INC,451 RICHARDSON DR,LANCASTER,PA,17603,US,7172995703,,,90,,www.callowayhouse.com,
3124,FREDS INC,4300 NEW GETWELL RD,MEMPHIS,TN,38118,US,9012382251,,,90,,,
31343,CENTRAL SUPPLY COMPANY-CST,154 IVEY ST,MONROEVILLE,AL,36460,US,2515754858,,,90,,,
31351,CERAMIC SUPPLY OF NY & NJ,7 RTE 46 W,LODI,NJ,7644,US,9733403005,,,90,,www.7ceramic.com,
31407,RELIABLE CHURCHILL,7621 ENERGY PKWY,BALTIMORE,MD,21226,US,4104395018,,,90,,,
31420,CITY PAPER CO,3700 1ST AVE N,BIRMINGHAM,AL,35222,US,2053282626,,,90,,www.citypaper2.com,
31466,KNOWLEDGE TREE INC DBA LEARNING,1009 WASHINGTON BLVD,WILLIAMSPORT,PA,17701,US,5703238292,,,90,,,
31526,COLUMBIA MARKING PRODUCTS,7200-G BROAD RIVER RD,IRMO,SC,29063,US,8037817048,,,90,,,
31530,COMMERCIAL ART SUPPLY,935 ERIE BLVD E,SYRACUSE,NY,13210,US,3154741000,,,90,,www.wholesaleart.net,
31540,COASTAL OFFICE EQUIPMENT CO,501 E CHURCH ST,ELIZABETH CITY,NC,27909,US,2523352927,,,90,,,
31606,CREATIVE KIDS,42 CLIFTON AVE,LAKEWOOD,NJ,8701,US,7323639696,,,90,,,
31609,CREATIVE TEACHING AIDS LLC,310 S MAIN ST,SALISBURY,NC,28144,US,7046338836,,,90,,,
31628,CRISS OFFICE SUPPLY,2245 S COMMERCE ST,GRENADA,MS,38901,US,6622261901,,,90,,jcriss@network-one.com,
31705,EAI EDUCATION,PO BOX 7046,OAKLAND,NJ,74360746,US,2018919466,,,90,,www.eaieducation.com,
31715,SCHOLASTIC INC,100 PLAZA DR,SECAUCUS,NJ,70943613,US,2016332400,,,90,,,
31767,DELAWARE STATE FAIR,PO BOX 28,HARRINGTON,DE,19952,US,3023983269,,,90,,,
31836,DISPLAY ASSOCIATES,23 LIVOLI RD,FRAMINGHAM,MA,1701,US,5083207505,,,90,,,
31855,DISPLAY ADVERTISING LLC,10441 GEORGETOWN PL,LAS VEGAS,NV,891345121,US,7022339555,,,90,,,
31920,DOYAL WHOLESALE COMPANY,949 OGELTHORPE AVE,ALBANY,GA,31701,US,2294354031,,,90,,,
32005,MYOFFICEPRODUCTS INC,PO BOX 306003,NASHVILLE,TN,372306003,US,6155073900,,,90,,,
3203,DOLL HOSPITAL & TOY SOLDIER,3947 W 12 MILE RD,BERKLEY,MI,48072,US,2485433115,,,90,,,
32100,ECONOMY HANDICRAFTS,932 46TH ST,BROOKLYN,NY,11219,US,7184319300,,,90,,,
32116,EDUCATION STATION INC,241 W ROSEVILLE RD,LANCASTER,PA,17601,US,7175819195,,,90,,,
32121,3EDUCATION STATION THE,1220 W NEW HAVEN AVE #160,WEST MELBOURNE,FL,32904,US,3216310458,,,90,,,
32122,EDUCATION LAND INC,10 E WINGCO LN,READING,PA,19605,US,6109160499,,,90,,,
32127,EDUCATIONAL SUPPLIES INC,1506 S SALISBURY BLVD,SALISBURY,MD,21801,US,4105432519,,,90,,,
32130,KERRI'S KORNER BOOKSTORE,1011 SPEEDWAY,FAIRMONT,WV,26554,US,3043630765,,,90,,,
32134,EDUCATION WORKS INC,850 HARTFORD TPKE,WATERFORD,CT,6385,US,8609100705,,,90,,,
32362,EDUCATION EXPRESS,820 FACTORY SHOPS BLVD,GAFFNEY,SC,29341,US,8644874008,,,90,,www.educationsexpressonline.com,
3238,PAPER CENTRAL,PO BOX 2649,GRAND RAPIDS,MI,49301,US,6166769203,,,90,,,
3250,LUFTS ADVERTISOR,W5472 THIRD ST,HERMANSVILLE,MI,49847,US,9064982265,,,90,,,
3251,TEACHERS STORE INC,6001 S PENNSYLVANIA AVE,LANSING,MI,48911,US,5173930235,,,90,,,
3263,ECA EDUCATIONAL SERVICES,1981 DALLAVO DR,WALLED LAKE,MI,48390,US,2486697170,,,90,,,
3264,LEWIS PAPER PLACE,4570 COMMERCIAL AVE,PORTAGE,MI,49002,US,2693296060,,,90,,,
3265,LINDENMEYR -GRAND RAPIDS,2944 WALKENT DR NW,GRAND RAPIDS,MI,49544,US,6167844700,,,90,,,
3270,SCHOOL DAYS,3110 JEFFERSON AVE,MIDLAND,MI,486403572,US,9896367604,,,90,,,
3273,PAPER EXPRESS,550 HULET DR SUITE 103,BLOOMFIELD,MI,48302,US,2486552320,,,90,,,
3275,SERVICE REPRODUCTION,345 SUMMER NW,GRAND RAPIDS,MI,49504,US,6164512901,,,90,,,
3281,C M U BOOKSTORE,202 BOVER UNIVERSITY CTR,MT PLEASANT,MI,48859,US,9897747493,,,90,,,
32940,A I FRIEDMAN INC,44 W 18TH ST,NEW YORK,NY,10011,US,2122439000,,,90,,,
3305,ANCHOR PAPER CO,480 BROADWAY ST,SAINT PAUL,MN,55101,US,8006529755,,,90,,,
33057,GAYLORD BROS INC,500 EAST NORTH ST,DEFOREST,WI,53532,US,6082411201,,,90,,,
33204,GOOD IDEAS,1432 MAIN ST,WATERTOWN,CT,6795,US,8602746939,,,90,,,
3324,ABC & TOY ZONE,122 17TH AVE NW,ROCHESTER,MN,55901,US,5072868440,,,90,,,
3326,DUFFEY CJ PAPER CO,528 WASHINGTON AVE N,MINNEAPOLIS,MN,55401,US,6123388701,,,90,,,
33405,HALL SCHOOL SUPPLIES-CST,2613 GILLIONVILLE RD,ALBANY,GA,317073003,US,2294351423,,,90,,,
33470,HAPPY OWL,227 N RIDGEWOOD DR,SEBRING,FL,33870,US,8633854544,,,90,,,
3376,BRECK SCHOOL BOOKSTORE,123 OTTAWA AVE N,MINNEAPOLIS,MN,55422,US,7633818249,,,90,,,
33815,HUNTINGTON BUSINESS PROD IS# 321,339 MAIN ST,HUNTINGTON,NY,11743,US,6314275600,,,90,,,
3422,BEST TEACHER SUPPLY,123 O'FALLON PLZ,O'FALLON,MO,63366,US,6369780222,,,90,,www.bestteachersupplies.com,
34242,INSIDE THE JELLY JAR,2644 W 8TH ST,ERIE,PA,16505,US,8148383212,,,90,,,
3433,AJAX SCHOOL/OFFICE SOURCE,5482 N STATE ST,JACKSON,MS,39206,US,6019578520,,,90,,,
3467,PRO WISCONSIN,17700 W CAPITOL DR BLDG #7,BROOKFIELD,WI,53045,US,4145263432,,,90,,,
3496,ART MASTERS INC,24872 VIA DEL RIO,LAKE FOREST,CA,92630,US,9498599837,,,90,,,
35052,KRON CHOCOLATIER,5300 WISCONSIN AVE NW,WASHINGTON,DC,20015,US,2029664946,,,90,,,
35058,KELVIN,280 ADAMS BLVD,FARMINGDALE,NY,11735,US,6317561750,,,90,,,
35075,KURTZ BROTHERS,400 REED ST,CLEARFIELD,PA,16830,US,8147656561,,,90,,www.kurtzbros.com,
35088,LTM THE PARTYWARE OUTLET,999C CATTLEMEN RD,SARASOTA,FL,34232,US,9413661985,,,90,,,
3509,MMB ENTERPRISES,112 GIST RD,CARDWELL,MO,63829,US,8005061685,,,90,,,
35098,LA CLASE DIVERTIDA INC,1703 ANNISTON AVE,HOLLY HILL,FL,32117,US,3866770421,,,90,,,
35168,LEARNING TREE,281 NORMAN DR,VALDOSTA,GA,31601,US,2292449967,,,90,,,
35171,LEARNING PATH STORE,2020 NW 6TH ST,GAINESVILLE,FL,32609,US,3523757284,,,90,,,
35174,LEARNING LINK INC THE,3 MANMAR DR UNIT 17,PLAINVILLE,MA,2762,US,5086951355,,,90,,,
35178,LEARNING STATION THE,10425 US HWY 19,PORT RICHEY,FL,34668,US,7278688129,,,90,,www.zteacher.com/learningstation-fl,
3518,BRADBURN SCHOOL SUPPLY,2166 HAMPTON AVE,SAINT LOUIS,MO,63139,US,3146453722,,,90,,,
35183,LEARNING EXPERIENCES,923 MCFARLAND BLVD,NORTHPORT,AL,35476,US,2053336922,,,90,,,
35186,LEARNING WHEEL INC,2370 SW COLLEGE RD,OCALA,FL,34471,US,3522372204,,,90,,www.learningwheel.net,
35194,LEARNING WELL - CLOSED 4/1/14,650 WASHINGTON ST,NORWOOD,MA,2062,US,7817623221,,,90,,,
35197,LEARNING SAFARI,301 MARKET ST,SENECA,SC,29678,US,8648559016,,,90,,,
35199,LEES ART SHOP TM#820,220 W 57TH ST,NEW YORK,NY,10019,US,2122470110,,,90,,,
35290,MARK IV OFFICE SUPPLY  IS#1250,110 S BESSON AVE,UNIONTOWN,PA,15401,US,7244374831,,,90,,,
35329,LONGS CARDS AND BOOKS,115 MAIN ST,PENN YAN,NY,14527,US,3155363131,,,90,,,
35469,MARS HILL BOOK STORE,698 COX CREEK PKWY,FLORENCE,AL,35630,US,2567644088,,,90,,www.mhbook.com,
3547,IPA EDUCATIONAL SUPPLIES,2404 W KINGSLEY ST,SPRINGFIELD,MO,65807,US,4178871154,,,90,,www.ipaeducational.com,
35527,MAXS ART SUPPLY,68 POST RD E,WESTPORT,CT,6880,US,2032260716,,,90,,,
35696,ART SUPPLIES WHOLESALE,4 ENON ST,BEVERLY,MA,1915,US,9789222420,,,90,,,
35701,MIDSHIPMENT STORE,101 WILSON RD,ANNAPOLIS,MD,214025081,US,4102932392,,,90,,,
35713,MILLERS  SCHOOL SUPPLIES,151 BAYWOOD AVE STE 101,LONGWOOD,FL,32750,US,4077670095,,,90,,,
3578,SHAUGHNESSY KNIEP-HAWE,2355 BALL DR,SAINT LOUIS,MO,63146,US,3148108100,,,90,,,
3590,US TOY CO INC,13201 ARRINGTON RD,GRANDVIEW,MO,64030,US,8167615900,,,90,,www.ustoy.com,
36030,SCHOOL SPOT,1042 A WOODRUFF RD,GREENVILLE,SC,29607,US,8642849305,,,90,,,
36080,FORMS & SUPPLY INC,6410 ORR RD,CHARLOTTE,NC,28213,US,7045988971,,,90,,,
36128,NOVA NATURAL TOYS & CRAFTS,6221 SHELBOURNE RD SUITE 200,SHELBURNE,VT,5482,US,8028601300,,,90,,,
3629,WARDEN PAPER INC,2529 16TH ST NE,BLACK EAGLE,MT,59414,US,4064533221,,,90,,,
3631,360 OFFICE SOLUTIONS,3676 PIERCE PKWY,BILLINGS,MT,591070598,US,4066567379,,,90,,,
36329,OFFICE MACHINE CENTER,PO BOX 967,MONTICELLO,MS,39654,US,6015874864,,,90,,,
36764,PARTY CITY-LARGO #161,16064 US HWY 19N,CLEARWATER,FL,33764,US,7275248860,,,90,,,
36825,PARTY CORNER THE,208 MAIN ST,MILLSBORO,DE,19966,US,3029348119,,,90,,,
3683,HANDWRITING WITHOUT TEARS,8001 MACARTHUR BLVD,CABIN JOHN,MD,20818,US,3012632700,,,90,,,
36865,ZRW INC,2291 NOSTRAND AVE,BROOKLYN,NY,11210,US,7183777779,,,90,,,
36882,PARENT TEACHER STORE THE,2600 S ROAD ROUTE 9,POUGHKEEPSIE,NY,12601,US,8453391442,,,90,,www.parenteacherstore.com,
36985,BARNES &NOBLE COLLEGE BOOKSELLER,#435 PENN STATE UNIV PARK,UNIVERSITY PARK,PA,16802,US,8148633250,,,90,,www.psu.bkstore.com,
37103,PLAY TIME INC,283 BROADWAY,ARLINGTON,MA,2474,US,7816483230,,,90,,www.reinstones.com,
37115,POINT PLEASANT STATIONERS,601 ARNOLD AVE,POINT PLEASANT BEACH,NJ,8742,US,7328991234,,,90,,www.bordenstat.com,
3713,LEARNING CENTER INC THE,2513 E ASH ST,GOLDSBORO,NC,27534,US,9197786333,,,90,,www.thelearningcenteronline.com,
37136,OKEFENOKEE FAIR ASSOCIATION,PO BOX 926,WAYCROSS,GA,31502,US,9122832667,,,90,,,
37171,PRESENT PERFECT,1807 CHERRY RD,ROCK HILL,SC,29732,US,8033257832,,,90,,,
3718,KINGS OFFICE SUPPLY INC,227 E MAIN ST,LINCOLNTON,NC,28092,US,7047357415,,,90,,www.kingsofficesupply.com,
3729,TEACHERS PET,575 E FLEMING DR,MORGANTON,NC,28655,US,8284380903,,,90,,,
3733,KAPLAN COMPANIES,1310 LEWISVILLE-CLEMMONS RD,LEWISVILLE,NC,27023,US,3367667374,,,90,,www.kaplanco.com,
3734,MAC PAPERS - DO NOT USE,8011 THORNDIKE ROAD,GREENSBORO,NC,27409,US,3366059411,,,90,,,
3735,HATCH ASSOCIATES,301 N MAIN ST,WINSTON SALEM,NC,27101,US,3367447280,,,90,, www.hatchstuff.com,
37366,REALLY GOOD STUFF INC,448 PEPPER ST,MONROE,CT,6468,US,2032611920,,,90,,www.reallygoodstuff.com,
3738,STONES EDUCATION SUPER STORE,210 HAMPTON WOODS LANE,RALEIGH,NC,27607,US,9198217210,,,90,,www.stonesschoolsupply.com,
3739,SCHOOL TOOLS,246 RAEFORD RD,FAYETTEVILLE,NC,283035364,US,9104846188,,,90,,,
3743,BANK STREET BOOKSTORE,610 W 112TH ST,NEW YORK,NY,10025,US,2126781654,,,90,,,
3745,PLAYTIME EQUIPMENT & SCHOOL,5310 N 99TH ST,OMAHA,NE,68134,US,4025711717,,,90,,,
3748,TEACH ME STORE,3520 SPRING FOREST RD,RALEIGH,NC,27616,US,9198722747,,,90,,teachmestore@aol.com,
3749,APPLES & MORE  A TEACHERS STORE,1013 GALVIN RD S,BELLEVUE,NE,680053055,US,4022910765,,,90,,,
37503,ROBERTS BROS INC,5115 RT 38,PENNSAUKEN,NJ,81094890,US,8566625195,,,90,,www.robertsbrothersllc.com,
3752,UNISOURCE-OMAHA,5220 F ST,OMAHA,NE,68117,US,4027311100,,,90,,,
37526,ROEBLING DISTRIBUTORS,4 KAUFMAN CT,MONSEY,NY,10952,US,8453716281,,,90,,,
3760,OMAHA PAPER COMPANY,6936 L ST,OMAHA,NE,68117,US,4023313243,,,90,,www.omahapaper.com,
37715,SATICOS PARENT TEACHER CTR,133 WASHINGTON AVE,ENDICOTT,NY,13760,US,6077854391,,,90,,,
37733,SCHOOL BOX,5054 NICHOLSON LN,ROCKVILLE,MD,20852,US,3017706677,,,90,,,
37734,SCHOOL & OFFICE ANNEX THE,12541 DILLINGHAM SQ,WOODBRIDGE,VA,22192,US,7035906070,,,90,,,
37743,LEARNING HOW-CST,8895 MCGAW RD,COLUMBIA,MD,21045,US,4103819999,,,90,,www.learninghow.com,
37765,SCIENCE KIT & BOREAL LAB,PO BOX 2158,SERAUCUS,NJ,146929012,US,8562412336,,,90,,www.sciencekit.com,
37768,SCHOOL DAZE,902 ARSENAL ST,WATERTOWN,NY,13601,US,3157888604,,,90,,,
37773,SCHOOL CROSSING,4640 -11C MONTICELLO AVE,WILLIAMSBURG,VA,23188,US,7572208772,,,90,,,
37816,SCHOOL TOOLS,167 CROSSCREEK CONN,GREENWOOD,SC,29649,US,8642236868,,,90,,,
37830,SENIOR LIVING DEPOT,5525 ALTO VISTA ROAD,BETHESDA,MD,20814,US,3019611661,,,90,,,
37967,SGA BOOKSTORE INACS-559,111 SMITH STUDENT CENTER,SLIPPERY ROCK,PA,16057,US,7247382104,,,90,,,
38094-499,STAPLES INC 499,700 E INDUSTRIAL DR,TERRA HAUTE,IN,47802,US,8122996200,,,90,,,
38094-799,STAPLES INC 799,155 TRACY RD,DAYVILLE,CT,6241,US,8607798800,,,90,,,
38094-964,STAPLES INC 964,450 S CACTUS AVE,RIALTO,CA,92376,US,9098797756,,,90,,,
38094-994,STAPLES INC 994,11540 HOPEWELL RD,HAGERSTOWN,MD,21740,US,3015823410,,,90,,,
38096,STAPLES INC - DROP SHIP,ACCOUNTS PAYABLE,COLUMBIA,SC,29224,US,5082535000,,,90,,,
38114,STEPS TO LITERACY,4 EASY ST STE 10,BOUND BROOK,NJ,8805,US,7325608363,,,90,,www.stepstoliteracy.com,
3812,STOP LOOK & LEARN,2184 JOG ROAD,GREENACRES,FL,33415,US,5616417867,,,90,,,
38197,KU STUDENT BOOKSTORE,MCFARLAND STUDENT UNION BLDG,KUTZTOWN,PA,19530,US,6106834099,,,90,,www.kubstore.com,
38332,TEACH N THINGS,611 RESEARCH RD,RICHMOND,VA,23236,US,8043790647,,,90,,,
38339,TEACHERS AID,4310 SHIPYARD BLVD  STE103,WILMINGTON,NC,28403,US,9107990101,,,90,,,
38344,TEACHERS CHOICE,3009 AVE J,BROOKLYN,NY,11210,US,7186921934,,,90,,,
38345,TEACHERS CHOICE PLUS,65-12 MYRTLE AVE,GLENDALE,NY,11385,US,7183265457,,,90,,,
38350,TEACHERS EDITION INC,4704 18TH AVE,BROOKLYN,NY,11204,US,7184351940,,,90,,,
38351,TEACHERS PET THE,55 CHASE ST,METHUEN,MA,1844,US,9786810745,,,90,,,
38361,TEACHING ROOM - MORRISTOWN,158 SOUTH ST,MORRISTOWN,NJ,79604139,US,9735408358,,,90,,www.theteachingroom.com,
38372,TEACHERS TOUCH INC,2610 S KINGS HWY,MRYTLE BEACH,SC,29577,US,8434484690,,,90,,,
38396,TEACHERS PET AND MORE,6985 HANCOCK DR,PORT ST. LUCIE,FL,34952,US,7724663633,,,90,,,
38407,TEACHERS EXCHANGE,801 S FLORIDA AVE # 5,LAKELAND,FL,33801,US,8636826627,,,90,,,
38541,LAUNCHING SUCCESS,133 PRINCE AVE,BELLINGHAM,WA,98225,US,3605272641,,,90,,,
38824,UNITED SUPPLY CO - IS#1066,250 44TH ST,BROOKLYN,NY,11232,US,7184399387,,,90,,www.unitedsupplycorp.com,
38967,VARIETIES P PRUD HOMME,801 PRICE ST,SAINT JEROME,PE,J7Y4E2,CA,4504382977,,,90,,,
39021,VILLAGE SCHOOL TEACHER CENTER,36 CORNWELL DR,BRIDGETON,NJ,8302,US,8564516777,,,90,,,
39050,SMILEMAKERS,425 SHA LN,SPARTANBURG,SC,29304,US,8645832405,,,90,,,
39181,WALKER BUSINESS MACHINE,4 WEST COURT SQ,ANDALUSIA,AL,36420,US,3342226255,,,90,,,
39430,WILSONS 5 & 10,1428 LAURENS RD,GREENVILLE,SC,296072350,US,8642711441,,,90,,,
39622,YORK DRUG,583-4TH AVE,YORK,AL,36925,US,2053925201,,,90,,,
40031,CAPITOL SUPPLY INC  TM #243,1000 SAWGRASS CORPORATE #452,SUNRISE,FL,33323,US,9544855000,,,90,,,
41005,COLLINS EDUCATIONAL,8358 ST GEORGE ST,VANCOUVER,BC,V5X3S7,CA,6043255005,,,90,,,
41008,TEACHERS FILE,5114 ROOK RD,COURTENAY,BC,V9J1L9,CA,2508973404,,,90,,,
4115,WAL-MART STORES INC,702 SW 8TH ST,BENTONVILLE,AR,717168004,US,1111111111,,,90,,,
4137,MAIL CENTER PLUS THE,1712 E MAIN ST,MILLVILLE,NJ,8332,US,8563279100,,,90,,,
4152,BOSLANDS LEARNING PLUS,280 N MIDLAND AVE #104,SADDLE BROOK,NJ,7663,US,2017976700,,,90,,www.boslands.com,
4172,TEACH THE CHILDREN,1618  E 20TH ST,FARMINGTON,NM,87401,US,5053258833,,,90,,,
4198,ELEGANT DISPLAY & CRAFTS,1434 47TH ST,BROOKLYN,NY,11219,US,7189729755,,,90,,,
4199,GUILDCRAFT INC,100 FIRE TOWER DR,TONAWANDA,NY,141505812,US,7167438336,,,90,,www.guildcraftinc.com,
42013,AVRON FOODS,215 JARDIN DR,CONCORD,ON,L4K1X5,CA,9057619752,,,90,,,
42014,LEARNING TREE EDUCATIONAL,1450 HEADON RD,BURLINGTON,ON,L7M3Z5,CA,9053192690,,,90,,,
4215,BARCLAY SCHOOL SUPPLY,166 LIVINGSTON ST,BROOKLYN,NY,11201,US,7188752424,,,90,,www.barclayschoolsupplies.com,
4217,TOWER PAPER,1216 BRUNSWICK AVE,FAR ROCKAWAY,NY,11691,US,7183376280,,,90,,,
4230,TANNENS STATIONERS - TM761,363 E 149TH ST,BRONX,NY,10455,US,7182924646,,,90,,,
4232,WORLD CLASS BUSINESS PRODUCTS,48-49 35TH ST,LONG ISLAND CITY,NY,111012511,US,7184820408,,,90,,,
4233,GRAMCO SCHOOL SUPPLY,126 31ST ST,BROOKLYN,NY,11232,US,7187880030,,,90,,www.gramcoonline.com,
4234,CITRONS EDUCATIONAL SUPPLIES,21 BIRCH RD,YONKERS,NY,10705,US,9149634093,,,90,,,
4235,EDUCATIONAL TOOLS N TOYS,572 MAIN ST,NEW ROCHELLE,NY,10801,US,9146329080,,,90,,,
4238,MID-CAROLINA OFFICE EQUIP,854 BROUGHTON ST,ORANGEBURG,SC,29115,US,8035347183,,,90,,www.midcarolina.com,
4243,ISLAND SCHOOL & ART SUPPLY,3030 ROUTE 112,MEDFORD,NY,11763,US,6317363630,,,90,,www.educationalmaterial.com,
4244,CAROL SCHOOL SUPPLY,179-28 UNION TPKE,FLUSHING,NY,113661636,US,7183804203,,,90,,www.carolschoolsupply.com,
4245,ISLANDIA SCHOOL SUPPLY,65 SEA CLIFF AVE SUITE 4,GLEN COVE,NY,11542,US,5166763756,,,90,,,
4260,OUR CHILDREN ENTERPRISES,34 GARFIELD PL,BROOKLYN,NY,11215,US,7187884400,,,90,,www.shopourchildren.com,
4262,SCRIBBLES,1308 40TH ST,BROOKLYN,NY,11218,US,7184358711,,,90,,,
4264,TEACHERS STUFF INC,1545 B CROSBY AVE,BRONX,NY,10461,US,7189319069,,,90,,,
4265,CREATIVE CHILD,209 SUNRISE HWY,ROCKVILLE CENTER,NY,11570,US,5167644488,,,90,,,
43011,SCOLART,595 BOUL PIERRE-BERTRAND,QUEBEC,QC,G1M1T8,CA,4186225126,,,90,,,
43013,PAPETERIE ATLAS,32 BOUL PIE 1X,GRANBY,QC,J2G9G9,CA,4507774039,,,90,,,
43014,LA MAISON SCHOLAREX,7300 HUTCHISON,MONTREAL,QC,H3N1Z1,CA,5142763956,,,90,,www.scholorax.com,
4343,DUCDUC LLC,524 BROADWAY #206,NEW YORK,NY,10012,US,2122261868,,,90,,,
4344,BRAME SCHOOL PRODUCTS,949 WASHINGTON,DURHAM,NC,27701,US,9196831331,,,90,,www.brameco.com,
4345,BENDER-BURKOT EAST COAST,HWY 17 N SERMON LN,POLLOCKSVILLE,NC,28573,US,2522244631,,,90,,www.bender-burkot.com,
4350,CAROLINA PAD,9144 ARROWPOINT BLVD SUITE 200,CHARLOTTE,NC,28241,US,7045883190,,,90,,,
4440,NATIONAL ART & SCHOOL SUP TM#283,2195 ELIZABETH AVE,RAHWAY,NJ,7065,US,7323815001,,,90,,,
4497,CRAYONS TO COMPUTERS,1350 TENNESSEE AVE,CINCINNATI,OH,45229,US,5134823290,,,90,,,
4499,MODERN OFFICE PRODUCTS INC TM963,7825 S AVE,BOARDMAN,OH,44512,US,3307972600,,,90,,,
4506,EDUCATION AVENUE INC,6420 PEARL RD,PARMA HEIGHTS,OH,44130,US,4408847760,,,90,,,
4513,M CONLEY COMPANY THE,1312 FOURTH ST SE,CANTON,OH,44707,US,3304568243,,,90,,,
4520,SCHOOL TIME INC,9525 KENWOOD RD,CINCINNATI,OH,45242,US,5138918463,,,90,,www.schooltime.cc,
4524,ESSENTIAL LEARNING PRODUCTS,PO BOX 18360,COLUMBUS,OH,432180360,US,8003573570,,,90,,,
4531,UNISOURCE-CLEVELAND,7575 E PLEASANT VALLEY RD,CLEVELAND,OH,44131,US,2168831675,,,90,,,
4533,COMMERCE PAPER COMPANY,15 S ONTARIO ST,TOLEDO,OH,43604,US,4192419101,,,90,,,
4536,F & S SCHOOL AND OFFICE SUPPLIES,1012 E DOROTHY LN,DAYTON,OH,45419,US,9372941224,,,90,,,
4537,MILLCRAFT,6800 GRANT AVE,CLEVELAND,OH,44105,US,2164415500,,,90,,,
4546,HOME MESSENGER BOOKSTORE,702 E LINCOLN AVE,MYERSTOWN,PA,17067,US,7178667605,,,90,,,
4555,CREATIVE MINDS,122 S LYNN ST,BRYAN,OH,43506,US,4196368323,,,90,,,
4557,STERLING PAPER CO,1845 PROGRESS AVE,COLUMBUS,OH,43207,US,6144430303,,,90,,,
4559,SUPPLYROOM THE,3221 BELMONT AVE,YOUNGSTOWN,OH,44505,US,3307597057,,,90,,,
4565,STAR-BEACON PRODUCTS CO,1104-10 W GOODALE,COLUMBUS,OH,43212,US,6142944657,,,90,,www.starbeaconproducts.net,
4572,ZANER-BLOSER INC,PO BOX 18360,COLUMBUS,OH,432151026,US,6144860221,,,90,,www.zaner-bloser.com,
4578,LEARNING LADDER THE,413 KEATS ST,MUSKOGEE,OK,74403,US,9186838511,,,90,,www.zteacher.com/learningladder-ok,
4582,MARDEL INC,7727 SW 44TH ST,OKLAHOMA CITY,OK,73179,US,4057451300,,,90,,www.mardel.com,
4584,MERRIFIELD OFFICE-ENID  IS# 279,202 EAST BROADWAY,ENID,OK,73701,US,5802335921,,,90,,,
4587,HOBBY LOBBY INC,7707 SW 44TH ST,OKLAHOMA CITY,OK,73179,US,4057451100,,,90,,www.hobbylobby.com,
4589,MERRIFIELD OFFICE  IS# 279,616 S MAIN,STILLWATER,OK,740744059,US,4053779732,,,90,,,
4590,SEXTON & SEXTON SCHOOL SUPPLY,103 N COBLAKE,APACHE,OK,73006,US,5805883686,,,90,,,
4592,BIHLS OFFICE SUPPLY IS652,912 GALLIA ST,PORTSMOUTH,OH,45662,US,7403532900,,,90,,,
4596,HINKLE PRINTING & OFFICE SUPPLY,110 E PAUL,PAULS VALLEY,OK,73075,US,4052389308,,,90,,,
4599,FIVE STAR OFFICE SUPPLY #656,628 W. OKMULGEE AVENUE,MUSKOGEE,OK,74401,US,9186827777,,,90,,,
4602,TRIANGLE/A & E INC,7201 N BROADWAY,OKLAHOMA CITY,OK,73116,US,4058484661,,,90,,,
4607,POTT COUNTY BOOK & OFFICE,109 E MAIN,SHAWNEE,OK,74801,US,4052733400,,,90,,www.pcofficesupply.com,
4730,C2F INC,6600 SW 111TH AVE,BEAVERTON,OR,97008,US,5036439050,,,90,,,
4734,WCP SOLUTIONS,3600 AVION DR,MEDFORD,OR,97504,US,5417790400,,,90,,,
4760,LEARNING PALACE,9971 NE CASCADES PKWY,PORTLAND,OR,97220,US,5032511833,,,90,,www.learningpalace.com,
4764,PHILLIPS SUPPLY COMPANY,195 BEADE ST,PLYMOUTH,PA,18651,US,5707799575,,,90,,,
4765,GORDONVILLE BOOK STORE,275 OLD LEACOCK RD,GORDONVILLE,PA,17529,US,7177683512,,,90,,,
4773,PAPER PLUS,1090 BAILEY HILL RD #F,EUGENE,OR,97402,US,5413453223,,,90,,,
4801,BECKERS SCHOOL SUPPLIES,1500 MELROSE HWY,PENNSAUKEN,NJ,8110,US,8567929292,,,90,,www.shopbecker.com,
4802,COUNTRY SCHOOL NOOK THE,870 ST THOMAS RD,MT PLEASANT MILL,PA,17853,US,5705392371,,,90,,,
4812,CLAY BOOKSTORE,2450 W MAIN ST,EPHRATA,PA,17522,US,7177337253,,,90,,,
4837,EDU CARE SCHOOL SUPPLY,1201 S 20TH ST,HARRISBURG,PA,17104,US,7172386769,,,90,,,
4840,KENS EDUCATIONAL JOYS,1930 DIVISION HWY,EPHRATA,PA,17522,US,7173518347,,,90,,,
4844,HOBAN SUPPLY & FURNITURE,651 KEYSTONE INDUSTRIAL PARK,DUNMORE,PA,18512,US,5703421112,,,90,,,
4848,LINDENMEYR MUNROE,1065 STICKLER RD,MT JOY,PA,17552,US,7173932111,,,90,,,
4862,SCHOOL STORE THE,PO BOX 2145,UPPER DARBY,PA,19082,US,6103571342,,,90,,,
4867,TEACHING TOUCHES,1846 W 26TH ST,ERIE,PA,16508,US,8148716676,,,90,,,
4950,BOOKWORLD INC,263 KELLEY ST,LAKE CITY,SC,29560,US,8433740948,,,90,,,
4951,BOB JONES UNIVERSITY,1700 WADE HAMPTON BLVD,GREENVILLE,SC,296140001,US,8643701800,,,90,,,
4952,WULBERN-KOVAL CO TM#375,1111 MORRISON DR,CHARLESTON,SC,29403,US,8435777666,,,90,,,
4955,EDUCATION STATION LLC,628 BACONS BRIDGE RD,SUMMERVILLE,SC,29485,US,8438328421,,,90,, www.zteacher.com/edstation-sc,
5000,ENVIRONMENTS INC,PO BOX 7636,SPRECKELS,CA,93962,US,8003332515,,,90,,,
5005,EDUCATIONAL WONDERLAND,1623 BROAD RIVER RD,COLUMBIA,SC,29210,US,8037986827,,,90,,www.educationalwonderland.com,
5024,PALMETTO OFFICE SUPPLY,1380 RUSSELL ST,ORANGEBURG,SC,29115,US,8035342331,,,90,,www.officepros.com\palmetto.com,
5101,OFFICE CHURCH SCHOOL SUPPLY,780 S PIKE RD,SUMTER,SC,29150,US,8037737226,,,90,,,
5171,BROWN & SAENGER  TM#29,711 W RUSSELL,SIOUX FALLS,SD,571184040,US,6053361960,,,90,,www.brown-saenger.com,
5180,TEACHING TREASURES,1113 W 41ST ST,SIOUX FALLS,SD,57105,US,6053328755,,,90,,,
5195,NEIGHBORHOOD TUTOR THE,10620 HWY 51 S,ATOKA,TN,38004,US,9018377606,,,90,,,
5201,A2Z SCHOOL SUPPLY,2898 BOONES CREEK RD SUITE 105,JOHNSON CITY,TN,37615,US,4239520889,,,90,,www.a2zschoolsupply.com,
5215,CSEP,8109 RUE KILDARE,MONTREAL,QC,H4W1E7,CA,5144828167,,,90,,,
5217,DENNIS PAPER CO,910 ACORN DR,NASHVILLE,TN,37210,US,6158839010,,,90,,,
5220,KNOWLEDGE TREE,5000 SUMMER AVE,MEMPHIS,TN,38122,US,9013249251,,,90,, www.theknowledgetree.com,
5226,LEARNING CIRCLE THE,2992A S CHURCH ST,MURFREESBORO,TN,37127,US,6159041082,,,90,,,
5231,UNISOURCE,PO BOX 45195,JACKSONVILLE,FL,322325195,US,9043488100,,,90,,,
5245,LEARNING HOUSE-JACKSON,50-2 OLD HICKORY BLVD,JACKSON,TN,38305,US,7314248732,,,90,,www.thelearninghouse.com,
5247,NATIONAL SCHOOL PRODUCTS,1523 OLD NILES FERRY RD,MARYVILLE,TN,37803,US,8659820866,,,90,,,
5252,MASCOM COMMUNICATIONS,7620 APPLING CENTER DR STE 105,MEMPHIS,TN,381332127,US,9013738563,,,90,,,
5261,TOP FLIGHT,1300 CENTRAL AVE,CHATTANOOGA,TN,37401,US,4232668171,,,90,,,
5271,INDOFF INC,11816 LACKLAND RD,ST LOUIS,MO,63146,US,3149971122,,,90,,,
5273,MCKINNEY OFFICE SUPPLY TM#500219,117 W LOUSIANA ST,MC KINNEY,TX,75069,US,9725425571,,,90,,,
5284,A & A SALES CO,#7 MUSTANG CIR,FORNEY,TX,75126,US,2146930576,,,90,,,
5287,ZIRAF INC,2150 DE LA PROVINCE,LONGUEUIL,QC,J4G1R7,CA,4504424413,,,90,,,
5299,BOSWORTH PAPERS INC,10425 OKANELLA ST,HOUSTON,TX,77041,US,7134605060,,,90,,www.bosworthpapers.com,
5302,INK SPOT PRESS,502 3RD ST,BEMIDJI,MN,56601,US,2187514441,,,90,,,
5314,ENGLANDS SUPPLIES,915 ASH ST,PLAINVIEW,TX,79072,US,8062965114,,,90,,,
5315,EXECUTIVE OFFICE SUPPLY TM752,3312 SANTA URSULA AVE,LAREDO,TX,78040,US,9567226791,,,90,,,
5316,EDUCATIONAL OUTFITTERS,400 E CENTRAL TEXAS EXPY,HARKER HEIGHTS,TX,76548,US,2546981614,,,90,, www.edoutfitters.com,
5318,GULF COAST PAPER,3705 HOUSTON HWY,VICTORIA,TX,77903,US,9565463010,,,90,,,
5320,EDUCATIONAL PRODUCTS,4100 N SAM HOUSTON PKWY W,HOUSTON,TX,770861465,US,9728125114,,,90,,www.educationalproducts.com,
5326,FLATT STATIONERS,206 W COMMERCE ST,MEXIA,TX,76667,US,2545623877,,,90,,www.flattstationers.com,
5330,GREAT NORTH AMERICAN COS,2828 FOREST LN,DALLAS,TX,75234,US,8005272782,,,90,,,
5336,STORY-WRIGHT PRINTING & OFFICE,807 NORTH ST,NACOGDOCHES,TX,75961,US,9366327727,,,90,,,
5350,MANNINGS SCHOOL SUPPLY,1510 7TH ST,BEAUMONT,TX,77703,US,4098991122,,,90,,www.manningssupply.com,
5352,UNISOURCE-HOUSTON,PO BOX 45195,JACKSONVILLE,FL,32232,US,9729823566,,,90,,,
5354,EVERY SEASON SCHOOL SUPPLY,544 E WHEATLAND PLZ,DUNCANVILLE,TX,75116,US,9722987109,,,90,,,
5355,UNISOURCE-AUSTIN,210 E ST ELMO ROAD,AUSTIN,TX,78745,US,5124489300,,,90,,,
5362,HORIZON FOOD SERVICE & SUPPLY,28595 IH-10 W,BOERNE,TX,78006,US,8309815812,,,90,,,
5363,LEARNING ZONE,10531 GULFDALE,SAN ANTONIO,TX,78216,US,2103414373,,,90,,,
5366,ERASER DUST,1241 S LEE TREVINO DR,EL PASO,TX,79907,US,9155940707,,,90,,,
5368,P & G SALES,1641 ALLENDE,SAN ANTONIO,TX,782373807,US,2104349622,,,90,,www.pgsales.com,
5370,CAMBIUM LEARNING INC,17855 N DALLAS PKWY,DALLAS,TX,75287,US,2149329500,,,90,, www.voyagerlearning.com,
5378,BASIC OFFICE & SCHOOL SUPPLY  TM,10831 WOODEDGE DR,HOUSTON,TX,77070,US,2818906615,,,90,,www.basicschoolsupply.com,
5380,TEACHERS TOOLS,1935 S HWY 121,LEWISVILLE,TX,75067,US,9723163033,,,90,,,
5381,WEDGE SUPPLY LLC,1132 N FIRST ST,GARLAND,TX,75040,US,9722722293,,,90,,,
5387,PERRY OFFICE PLUS  IS# 151,1401 NORTH 3RD STREET,TEMPLE,TX,765011648,US,2547915500,,,90,,www.perryop.com,
5399,ANGELO SCHOOL & TEACHER SUPPLY,310 N CHADBOURNE,SAN ANGELO,TX,76903,US,3256535778,,,90,,www.ilovetoteach.com,
5400,NATIONAL EDUCATION SYSTEMS,6333 DE ZAVALA RD STE 106,SAN ANTONIO,TX,78249,US,2105586888,,,90,,,
5401,WAGNER SUPPLY COMPANY,925 E 66TH ST,LUBBOCK,TX,79404,US,8067472877,,,90,,,
5403,STAPLES-BUSINESS INT-HOUSTON,6400 HOLLISTER RD,HOUSTON,TX,770406809,US,7139346265,,,90,,,
5408,BUTLER BUSINESS PROD LLC TM#861,6942 SIGNAT DR,HOUSTON,TX,77041,US,7134612938,,,90,,,
5454,SOPHIES EDUCATION CORNER,2699 THOUSAND OAKS BLVD,THOUSAND OAKS,CA,91362,US,8057770077,,,90,,,
5455,TEACHING ETC,1455 BUCHINGHAM,RICHARDSON,TX,75081,US,9724809082,,,90,,,
5458,SCHOOL MART,1812 S PRESA ST,SAN ANTONIO,TX,78210,US,2105348805,,,90,,www.texasbusinessproducts.com,
5472,TEJAS SCHOOL & OFFICE SUPPLY,103 EAST HUISACHE AVE,KINGSVILLE,TX,78363,US,3615926406,,,90,,,
5473,MARVEL PRODUCTS,PO BOX 140027,AUSTIN,TX,787140027,US,2103401210,,,90,,,
5557,UNISOURCE-WORLDWIDE INC,SALT LAKE DIVISION,JACKSONVILLE,FL,322314287,US,8012362400,,,90,,,
5560,CARPENTER PAPER CO,745 OVERLAND,NORTH SALT LAKE,UT,84054,US,8012959475,,,90,,,
5567,PAPER PLUS,3228 S 900 WEST,SALT LAKE CITY,UT,84119,US,8019085225,,,90,,,
5588,SPECIAL OCCASIONS PARTY SUPPLY,306 LOONEY RD,PIQUA,OH,45356,US,9376159660,,,90,,,
5590,EDUCATIONALLY DEVELOPED PRODUCTS,20720 EARL ST,TORRANCE,CA,90503,US,3107930323,,,90,,,
5593,U I INVESTORS,7733 S REDWOOD RD,WEST JORDAN,UT,84084,US,8013075552,,,90,,www.uisupply.com,
5597,ADVENTURES IN LEARNING NEW MEXIC,PO BOX 654,ALBUQUERQUE,NM,87103,US,5058732511,,,90,,,
5630,COVENANT HOME CURRICULUM,100 S WASHINGTON ST,SPARTA,IL,62286,US,8005782421,,,90,,,
5637,KIDS CAN DO PRESCHL PROGRAM LLC,6726 HAPPY HOLLOW RD,STANWOOD,WA,98292,US,3606296835,,,90,,www.cut-rateschoolsupplies.com,
5638,LITTLE DICKENS,2236 LAKESIDE DR,LYNCHBURG,VA,24501,US,4343855133,,,90,,www.givenbooks.com,
5641,PARENT-TEACHER SUPPLY CO,12146 C JEFFERSON AVE,NEWPORT NEWS,VA,23602,US,7578849374,,,90,,,
5646,HOWARD A SPANGLER CO INC,245 OLD S HIGH ST,HARRISONBURG,VA,22801,US,5404342581,,,90,,www.spanglerpaper.com,
5649,KENBRIDGE OFFICE & SCHOOL,116 S BROAD ST,KENBRIDGE,VA,23944,US,4346763424,,,90,,,
5655,PAPER PEOPLE THE,6946 WELLINGTON RD,MANASSAS,VA,20109,US,5712922490,,,90,,www.thepaperpeople.com,
5657,BOYD-BLUFORD INC,5359 E VIRGINIA BEACH BLVD,NORFOLK,VA,23502,US,7574556042,,,90,,,
5658,BEYOND THE BLACKBOARD,7721 WADSWORTH BLVD #8,ARVADA,CO,80003,US,7204889960,,,90,,,
5659,LEARNING SOURCE THE,1301-B ORANGE AVE NE,ROANOKE,VA,24012,US,5403429864,,,90,,www.thelearningsourceva.com,
5662,TEACHERS EDITION,2111 BERKMAR DR,CHARLOTTESVILLE,VA,22901,US,4342963439,,,90,,,
5682,BECKS BOOK STORE,4520 N BROADWAY,CHICAGO,IL,60640,US,7735882770,,,90,,,
5692,GLAZERS - EL PASO,7801 TRADE CTR,EL PASO,TX,79912,US,9158775511,,,90,,,
5730,ALEXANDER SUPPLY CO INC,135 GARDNER AVE,BROOKLYN,NY,11237,US,7184167660,,,90,,,
5735,OFFICE EVERYTHING TM#124,436 S LYNN RIGGS BLVD,CLAREMORE,OK,74017,US,9183421501,,,90,,,
5738,UNIVERSAL BUSINESS SUPPLY TM#852,4344 RIDER TRL NORTH,EARTH CITY,MO,63045,US,3142980153,,,90,,,
5742,OFFICE SUPPLIES AND EQUIPMENT,217-219 ELM ST,WASHINGTON,MO,63090,US,6362396425,,,90,,www.store.yahoo.com/ose217-store,
5774,ARCTIC OFFICE PRODUCTS  TM#324,100 W FIREWEED LN,ANCHORAGE,AK,99503,US,8004752322,,,90,,,
5783,HBC SERVICE COMPANY/GIANT EAGLE,101 KAPPA DR,PITTSBURGH,PA,15238,US,4129636200,,,90,,,
5797,SUPPLIES-SUPPLIES INC TM#424,158 N 8TH ST,KENILWORTH,NJ,7033,US,9082725100,,,90,,,
5821,HAYWOOD PRINTING COMPANY,300 N 5TH ST,LAFAYETTE,IN,47902,US,7657424085,,,90,,,
5825,SPICERS PAPER,14209 E 35TH PL   SUITE 103,AURORA,CO,80011,US,3033739655,,,90,,,
5827,IMPERIAL TEACHERS STORE,2347 MAIN ST,WHEELING,WV,260030711,US,3042330711,,,90,,,
5830,DOMINION OFFICE PRODUCTS,281 W MAIN ST,LEBANON,VA,24266,US,2768890481,,,90,,,
5832,MORE FOR TEACHERS,68530 30TH AVE,CATHEDRAL CITY,CA,92234,US,7607746146,,,90,,,
5835,LATTAS,1502 4TH AVE,HUNTINGTON,WV,25701,US,3045238400,,,90,,,
5837,MILLS FLEET FARM,1300 S LYNNDALE DR,APPLETON,WI,54914,US,9207318121,,,90,,,
5885,WCP SOLUTIONS,23200 64TH AVE S,KENT,WA,980321845,US,2538501900,,,90,,,
5886,CHILDRENS BOOKSHOP,19720 44th AVE W SUITE R,LYNNWOOD,WA,98036,US,4256732416,,,90,,,
5889,C G BRETTING MANUFACTURING CO,3401 LAKE PARK ROAD,ASHLAND,WI,54806,US,7156825231,,,90,,,
5898,SCHOOL DAZE INC,400 COOPER POINT RD,OLYMPIA,WA,98502,US,3607868009,,,90,,schooldaze@qwest.net,
5899,UNISOURCE KENT,20213 89TH AVE S,KENT,WA,980311284,US,2537666525,,,90,,,
5902,SCHOOL STATIONERS CORP,1641 S MAIN ST,OSHKOSH,WI,549016688,US,9204266370,,,90,,,
5903,ARTIST & DISPLAY SUPPLY INC,9015 W BURLEIGH ST,MILWAUKEE,WI,53222,US,4144429100,,,90,,info@artistanddisplay.com,
5910,ARIZONA EXPO & STATE FAIR,1826 W MC DOWELL RD,PHOENIX,AZ,85007,US,6022526771,,,90,,,
5918,LIBBEES PARTEE PLUS,19 N MAIN,RICE LAKE,WI,54868,US,7152343251,,,90,,,
5919,UNISOURCE,PO BOX 45192,JACKSONVILLE,FL,32232,US,7154242161,,,90,,,
5922,CVS PHARMACY INC,ATTN ACCOUNTS PAYABLE,WOONSOCKET,RI,28953120,US,1111111111,,,90,,,
5932,GENIUS SUPPLY CO,6758 N SIDNEY PL,MILWAUKEE,WI,53209,US,4143523440,,,90,,www.geniussupply.com,
5944,LEARNING SHOP,4705 W COLLEGE AVE,APPLETON,WI,54914,US,9207395028,,,90,,www.learningshop.com,
5946,MILLER PADS & PAPER,2840 NEFF RD,BOSCOBEL,WI,53805,US,6083752181,,,90,,,
5954,NASCO,901 JANESVILLE AVE,FORT ATKINSON,WI,53538,US,9205632446,,,90,,www.enasco.com,
5959,MARSHFIELD BOOK & STATIONERY,M111  W MCMILLAN ST,MARSHFIELD,WI,54449,US,7153871286,,,90,,,
5970,RACE OFFICE/ART PRODUCTS  OP1009,1351 PLANEVIEW DR,OSHKOSH,WI,54904,US,9202363420,,,90,,,
5975,SCHOOL HOUSE,770 WILLARD DR,GREEN BAY,WI,54304,US,9204997999,,,90,,www.schoolhousegb.com,
5977,STEEN-MACEK PAPER CO,3224 MARKET ST,GREEN BAY,WI,54307,US,9203360070,,,90,,,
5983,UNISOURCE-APPLETON,PO BOX 45192,JACKSONVILLE,FL,322325191,US,9207314171,,,90,,,
5984,UNISOURCE-NEW BERLIN,PO BOX 45192,JACKSONVILLE,FL,322325192,US,7634887413,,,90,,,
5987-10,SCHOOL SPECIALTY,W6316 DESIGN DR,GREENVILLE,WI,54942,US,8883883224,,,90,,www.junebox.com,
5987-74,SCHOOL SPECIALTY - LANCASTER,140 MARBLE DR,LANCASTER,PA,179016812,US,7176668373,,,90,,www.junebox.com,
5987-75,SCHOOL SPECIALTY - MANSFIELD,100 PARAGON PKWY,MANSFIELD,OH,44903,US,4195892100,,,90,,www.junebox.com,
5987-78,SCHOOL SPECIALTY - FRESNO,3825 S WILLOW AVE #101,FRESNO,CA,93725,US,5594425881,,,90,,www.junebox.com,
5987-80,SCHOOL SPECIALTY - SALINA,3525 S 9TH ST,SALINA,KS,67401,US,8003078899,,,90,,www.junebox.com,
5987-88,SCHOOL SPECIALTY NASHUA,80 NW BLVD,NASHUA,NH,30633000,US,6035793428,,,90,,www.junebox.com,
5987-9999,SCHOOL SPECIALTY,PO BOX 1017,APPLETON,WI,549121017,US,8003050174,,,90,,www.junebox.com,
59917,NEENAH DISPLAY SAMPLES,1097 EHLERS RD,NEENAH,WI,54956,US,8002289799,,,90,,,
59918,BEMISS JASON CASH ACCOUNT,1097 EHLERS RD,NEENAH,WI,54956,US,8002289799,,,90,,,
5995,ASHLAND OFFICE SUPPLY TM#607,1026 4TH AVE,HUNTINGTON,WV,25701,US,3045254714,,,90,,www.ashlandoffice.com,
6001R,COMMERCIAL DISTRIBUTORS,2704 S GREEN ST,TUPELO,MS,38801,US,6628424785,,,90,,,
6009,J & J REPAK SALES,3645 WADSWORTH RD,NORTON,OH,44203,US,3308258068,,,90,,,
6011,A & R SCHOOL SUPPLIES,W-7260 CTY CM,PORTAGE,WI,53901,US,6086440520,,,90,,,
6044,NORTHWEST COMPANY THE,3633 136TH PL SE,BELLEVUE,WA,98006,US,4259450213,,,90,,,
6087,DERIANS PARTY WAREHOUSE,13555 TELEGRAPH RD,WHITTIER,CA,90605,US,5629448044,,,90,,,
6090,DUNN HARDWARE & SUPPLY,2023 GATES STREET,REESE,MI,48757,US,9898684901,,,90,,,
6095,DONAHUE PAPER EMPORIUM,7286 S YOSEMITE ST #130,CENTENNIAL,CO,80112,US,3037413984,,,90,,,
6109,LINA HOBBY LAND,4271 BROADWAY,NEW YORK,NY,10033,US,2125683979,,,90,,,
6153,CHILDRENS LEARNING WORLD,1029 N RD,WESTFIELD,MA,1085,US,4135389800,,,90,,,
6154R,FINE PAPER INC-CST,5620 BLESSEY ST,HARAHAN,LA,70123,US,5047337651,,,90,,,
6165,CRAFT SHOP INC  THE,699 EAST 2ND ST,BROOKLYN,NY,11218,US,7184310301,,,90,,,
6187,SCHOOL-PAK  INC,W220 N16712 CTH P - SUITE 102,JACKSON,WI,53037,US,8662319573,,,90,,,
6190,WAREHOUSE DIRECT,2001 S MOUNT PROSPECT,DES PLAINES,IL,60018,US,8476317151,,,90,,,
6192R,FUNSHINE EXPRESS,926 E INDUSTRIAL DR,DICKINSON,ND,58601,US,7014838103,,,90,,,
6196,MOTHER HUBBARDS LEARNING CUPBOAR,219 BROADWAY ST,FINDLAY,OH,45840,US,4194253276,,,90,,,
6196R,JP GASWAY COMPANY INC,PO BOX 11700,CEDAR RAPIDS,IA,524101700,US,3193633537,,,90,,,
6236,FASTENAL COMPANY,1010 W MAIN ST,SUN PRAIRIE,WI,53590,US,6088349888,,,90,,,
6244,HAWKINSVILLE DISPATCH & NEWS,122 COMMERCE ST,HAWKINSVILLE,GA,31036,US,4787831291,,,90,,,
6246,HERALD OFFICE SUPPLY  TM# 302,708 NORTH 1ST AVE,DILLON,SC,29536,US,8437745155,,,90,,,
6248,TIFFEN COMPANY LLC,80 OSER AVE,HAUPPAUGE,NY,11788,US,6312732500,,,90,,,
6252,NOGGIN FACTORY,53 WASHINGTON ST,DOVER,NH,3820,US,6037420012,,,90,,,
6381,KERR FRANK W,43155 W NINE MILE RD,NOVI,MI,483768026,US,2483495000,,,90,,,
6385,KIDS N FUN CRAFTS,684 131ST AVE NE,BLAINE,MN,55434,US,7637673209,,,90,,,
6408,THOMAS BUSINESS CENTER  TM#50047,333 N FRANKLIN,MUNCIE,IN,47305,US,7652846329,,,90,,,
6411,GLOBAL OFFICE SOLUTIONS TM#798,22759 HESLIP DR,NOVI,MI,48375,US,2484499100,,,90,,,
6417,TEACHERS RULE LLC,28 WEBSTER ST,ROCKLAND,MA,2370,US,7819822665,,,90,,,
6426,INDEPENDENCE BUSINESS SUPPLY,4550 HINCKLEY PKWY,CLEVELAND,OH,441096010,US,2163988880,,,90,,,
6429R,AIDS FOR EDUCATION,1116 S YALE AVE,TULSA,OK,74112,US,9188342642,,,90,,,
6513,EDUSCO,36 RUE DU BLAINVILLIER,BLAINVILLE,QC,J7C5A9,CA,5142372926,,,90,,,
6513R,MINNESOTA BOOK CENTER,2221 UNIVERSITY AVE SE,MINNEAPOLIS,MN,55414,US,6126260522,,,90,,,
6534,MOTHER GOOSE TIME,PO BOX 225,INTERLOCHEN,MI,49643,US,2312766578,,,90,,,
6536,A L ECHELLE DU MONDE,74  BOUL  GREBER,GATINEAU,QC,J8T3P8,CA,8195612812,,,90,,www.alechelledumonde.com,
6629,OLENSKY BROS SCHOOLHOUSE,28 S ROYAL ST,MOBILE,AL,366021617,US,2514382851,,,90,,,
6643,QUICK DELIVERY OFFICE SUPPLY,975 COBB PLACE BLVD # 211,KENNESAW,GA,30144,US,6789214242,,,90,,,
6674,REVERE CENTRAL INC,3S675 LORRAINE AVE,WARRENVILLE,IL,60555,US,6303931150,,,90,,,
6681,RICHARDS PEN SUPPLY,118 N LEE ST,SPOKANE,WA,992202587,US,5095343444,,,90,,,
6784,PAXTON PATTERSON LLC,7523 S SAYRE AVE,CHICAGO,IL,60638,US,7085947270,,,90,,,
6854,EXPLORATIONS,201 W SUPERIOR ST,DULUTH,MN,55802,US,2187221651,,,90,,,
6888,CREATIVE TEACHER THE,2027 CENTRAL AVE,KEARNEY,NE,68847,US,3082365558,,,90,,,
6944,TEACHERS LOUNGE THE,21 RONNIES PLZ,SAINT LOUIS,MO,63126,US,3148432227,,,90,,,
6951,SCHOOL SUPPLIES COMPANY,1756 FLOWERS DR,CARROLLTON,TX,75007,US,2144975790,,,90,,,
6962,EDUCATION STATION  THE,700 CENTRAL AVE  NE,LEMARS,IA,51031,US,7125466673,,,90,,,
6965R,SERVICE WHOLESALE INC,2825 HENKLE DR,LEBANON,OH,45036,US,5139339042,,,90,,,
6981,SUBURBAN STATIONERS TM410,693 HIGH ST,MIDDLETOWN,CT,6457,US,8603470299,,,90,,,
7028,XPEDX-SPRINGFIELD,PO BOX 625799,CINCINNATI,OH,45262,US,4178696418,,,90,,,
7030,QUEST AEROSPACE/RCS RMC INC,2113 W 850 N,CEDAR CITY,UT,84721,US,4358657100,,,90,,,
7070,COSTCO WHOLESALE,PO BOX 34622,SEATTLE,WA,98124,US,8007742678,,,90,,,
7070-ARL,COSTCO WHOLESALE ARLINGTON,1200 S FERN ST,ARLINGTON,VA,22202,US,7034132324,,,90,,,
7070-LEW,COSTCO WHOLESALE LEWISVILLE,851 S HWY 121,LEWISVILLE,TX,75067,US,5555555555,,,90,,,
7098,TRADEWIND PRODUCTS,836 SMITH AVE,ST PAUL,MN,55107,US,6512902931,,,90,,,
7184,RUNCO OFFICE SUPPLY TM 646,1655 ELMHURST RD,ELK GROVE,IL,60007,US,8474374300,,,90,,,
7188,UNIVERSAL BUSINESS EQUIP CORP,120 PORTER ST,BRIDGEPORT,CT,6606,US,2033684241,,,90,,,
7192,BROWER STATIONERS OFFICE PRODUCT,16 S MARKET ST,TROY,OH,45373,US,9373352117,,,90,,,
7201,EDUCATION STATION,13204 137 AVE,EDMONTON,AB,T5L4Z6,CA,7804754680,,,90,,,
7225,FBS INDUSTRIES-CC,4306 DANIEL BLVD,BISMARK,ND,58504,US,7012249317,,,90,,,
7226,HARRIS OFFICE PRODUCTS TM#770,7100 VALJEAN AVE,VAN NUYS,CA,91406,US,8188152400,,,90,,,
7239R,WEST ALLIS PAPER COMPANY,237 S CURTIS RD,WEST ALLIS,WI,532141030,US,4144761187,,,90,,,
7257,JOHNSTON HIGH SCHOOL,345 CHERRY HILL RD,JOHNSTON,RI,2919,US,4012331920,,,90,,,
7286,HK ALLEN PAPER,601 CLINTON ST,OWOSSO,MI,48867,US,9897258686,,,90,,,
7304,BAYWOOD PAPER ULC,25 LORENA ST,BARRIE,ON,L4N3H5,CA,7057226700,,,90,,,
7305,ULINE,12575 ULINE DR,PLEASANT PRAIRIE,WI,53158,US,2626124200,,,90,,,
7307,MIDDLESEX LAMINATING EQUIPMENT &,PO BOX 752,WOODBRIDGE,NJ,7095,US,9086161915,,,90,,,
7350R,BETTER OFFICE SUPPLIES SERVICE,750 DESIGN COURT,CHULA VISTA,CA,91911,US,6194211680,,,90,,,
7353,FISHING POND,110 2 ST S,WAITE PARK,MN,56387,US,3202577663,,,90,,,
7363,SUNFLOWER SCHOOL SUPPLIES,4019 SW GAGE CENTER DR,TOPEKA,KS,66604,US,7852729898,,,90,,,
7364,KANDI KASTLE,72-12 MAIN ST,FLUSHING,NY,11367,US,7185207520,,,90,,,
7489,SEMPCO INC,51 LAKE ST,NASHUA,NH,30603262,US,6038891830,,,90,,,
7592R,ROBERT MASON CO,441 WASHINGTON ST,RAVENSWOOD,WV,26164,US,3042733232,,,90,,,
7608R,PARTYCO,10336 PORTSMOUTH RD,MANASSAS,VA,22110,US,7033695616,,,90,,,
77-3004,A I FRIEDMAN-PORT CHSTR DO NOT U,495 BOSTON POST RD,PORT CHESTER,NY,10573,US,9149377351,,,90,,,
7850,KNOWLEDGE BOUND,1290 MAIN ST,WINDSOR,CO,80550,US,9706742997,,,90,,,
7985,OCEAN STATE JOB LOT,375 COMMERCE PARK RD,NORTH KINGSTOWN,RI,2852,US,4012952672,,,90,,,
8011,UNIVERSITY BOOK CENTER,PAYNE ST - GEMMELL COMPLEX,CLARION,PA,162141232,US,8143932000,,,90,,,
8014,EVERGREEN OFFICE PROD  IS# 578,811 SAINT JOSEPH ST,RAPID CITY,SD,57701,US,6053438265,,,90,,,
8015,THOMPSON'S EDUCATIONAL FURNISHIN,1400 S. Fretz Suite 160,Edmond,OK,73003,US,4052850323,,,90,,,
8038,BILLS BOOKSTORE #182,2020 W PENSACOLA ST / STE 28,TALLAHASSEE,FL,32304,US,8502243179,,,90,,,
8050,BIG LOTS,300 PHILLIPI RD,COLUMBUS,OH,43228,US,6142786800,,,90,,,
8057,DOLLAR TREE STORES,500 VOLVO PKWY,CHESAPEAKE,VA,23320,US,7573215000,,,90,,,
8099,UNISOURCE WORLDWIDE INC,PO BOX 44178,JACKSONVILLE,FL,322314178,US,9072761735,,,90,,,
8102,JENSEN DISTRIBUTION SERVICES,314 W RIVERSIDE,SPOKANE,WA,99201,US,5096241321,,,90,,,
8136,PIERCE MANUFACTURING INC,2600 AMERICAN DR,APPLETON,WI,549122017,US,9208323000,,,90,,,
8153,BERTELSON TOTAL OFFICE TM#901,6645 JAMES AVE N,MINNEAPOLIS,MN,55430,US,7635955300,,,90,,,
8180,LITTLE RED SCHOOL HOUSE THE,12000 S CLEVELAND AVE,FORT MYERS,FL,33907,US,2399394304,,,90,,,
8182,CERTIFIED ART SUPPLY,1437 W COLLINS AVE,ORANGE,CA,92867,US,7149977410,,,90,,,
8192,ABC SHOP,RT 2  BOX 175D,ARTHUR,IL,61911,US,2175432655,,,90,,,
8194,DISCOUNT DRUG,211 COMMERCE DR,MEDINA,OH,44256,US,3307252340,,,90,,,
8237,GOLD SUPPLY GROUP,23 WILDWOOD DR,DIX HILLS,NY,11746,US,6314911810,,,90,,,
8258,FIFTH AVE BOOK CENTER,549 W MAIN ST,EL CENTRO,CA,92243,US,7603378067,,,90,,,
8286,THERAPY SHOPPE,13707 W ST,CEDAR SPRING,MI,49319,US,6166967441,,,90,,,
8299,BUBRICKS OFFICE SUPPLY IS#P005,N115 W18500 EDISON DR,GERMANTOWN,WI,53022,US,2622555500,,,90,,,
8308,SIG MANUFACTURING COMPANY INC,401 S FRONT ST,MONTEZUMA,IA,50171,US,6416235154,,,90,,,
8340,TGI ENTERPRISES,1219 S HUDSON ST,TULSA,OK,74112,US,9188354330,,,90,,,
8352,CAPPELS INC,920 ELM ST,CINCINNATI,OH,45202,US,5136210952,,,90,,,
8354,"CENTRAL PAPER CO., INC",140 W OXMOOR RD,HOMEWOOD,AL,35209,US,2059426333,,,90,,,
8382,MIKE BALTER MALLETS LLC,15 E PALATINE RD STE 116,PROSPECT HEIGHTS,IL,60070,US,8475415777,,,90,,,
8384,YOUR PACKAGING RESOURCE,PO BOX 846,BELLMORE,NY,11710,US,5162086997,,,90,,,
8414,WORLD OF GOODIES,198 W ENGLEWOOD AVE,TEANECK,NJ,7666,US,2018339950,,,90,,,
8425,WALT EVANS DECORATORS,8812 N COUNTY RD 225 W,BRAZIL,IN,47834,US,8124467621,,,90,,,
8487,CRAFTIVITY,54 BIRCH ST,LAKEWOOD,NJ,8701,US,7323704095,,,90,,,
8499,FRANK COONEY COMPANY INC,1226 N MICHAEL DR,WOOD DALE,IL,60191,US,6306948800,,,90,,,
8503,SUPER GIANT,300 EDEN SQ,BEAR,DE,19701,US,3028320166,,,90,,,
8528,MIDWEST ENVELOPES,480 W HINTZ ROAD,WHEELING,IL,60090,US,7734893300,,,90,,,
85390,ROGARDS OFFICE PLUS  IS# 013,214 SOUTH WALNUT ST,CHAMPAIGN,IL,61824,US,2173591795,,,90,,,
8567,PAPER MART INC,151 RIDGEDALE AVE,EAST HANOVER,NJ,7936,US,9738842505,,,90,,,
8573,MDS INC,1010 LYNDALE AVE N,MINNEAPOLIS,MN,55411,US,6123797877,,,90,,,
8629,TORAH UMESORA TEACHERS CENTER,1090 CONEY ISLAND AVE,BROOKLYN,NY,11230,US,7187443100,,,90,,,
8631,WINDMILL DISTRIBUTING / PHOENIX,2 ATLANTIC AVE PIER 7,BROOKLYN,NY,11201,US,7186097200,,,90,,,
8632,CANDY STORE THE,7002 REISTERTOWN RD,BALTIMORE,MD,21215,US,4106539900,,,90,,,
8679,PURDUE EXTENSION / MARION COUNTY,1202 E 38TH ST,INDIANAPOLIS,IN,46205,US,3172759305,,,90,,,
8683,PARTY PLUS WAREHOUSE,6520 UNIVERSITY AVE / STE #10,LUBBOCK,TX,79413,US,8067951443,,,90,,,
8694,BUSINESS ESSENTIALS TM#795,205 E MAIN AVE,WEST FARGO,ND,58078,US,7012826570,,,90,,,
8797,OFFICESCAPES,2506 ZEPPLIN RD,COLORADO SPRINGS,CO,80916,US,7195741113,,,90,,,
88-1423,CBC COATING,820 S OLDE ONEIDA ST,APPLETON,WI,54915,US,8886164222,,,90,,,
88-7304,BAYWOOD PAPER ULC,25 LORENA ST,BARRIE,ON,L4N3H5,CA,7057226711,,,90,,,
8802,LOWES COMPANIES,PO BOX 1765,NORTH WILKESBORO,NC,28659,US,3366582121,,,90,,,
8810,MAGNOLIA PAPER CO,4871 SUMMER AVE,MEMPHIS,TN,381170360,US,9016835796,,,90,,,
8841,BILLINGSLEY WHOLESALE FLORAL,3620 N LEVERMAN,PORTLAND,OR,97217,US,5032899831,,,90,,,
8871,TRU BLUE INDUSTRIES,1549 LAKE ST,NILES,MI,49120,US,2696878027,,,90,,,
9052,IDEAL DISTRIBUTION TM#135,25 PELICAN WAY,SAN RAFAEL,CA,94901,US,4154571677,,,90,,,
9058,AQUAPHOENIX SCIENTIFIC INC,9 BARNHART DR,HANOVER,PA,17331,US,7176321291,,,90,,,
9089,7147538 CANADA INC,4025 LITE,LAVAL,QC,H7E1A3,CA,4506619306,,,90,,,
9112,TEACHERS TOOLS & TREASURES,664 CLEVELAND DR,CHEEKTOWAGA,NY,14225,US,7168340651,,,90,,,
9148,MATTHEWS OFFICE SUPPLY TM#500336,2367 PECAN CT,FORT WORTH,TX,76117,US,8173353318,,,90,,,
9153,RELIABLE OFFICE SOLUTIONS  #954,3570 FOURTEENTH ST,RIVERSIDE,CA,92501,US,9516828800,,,90,,,
9157,LOGSDON OFFICE SUPPLY TM#802,1055 ARTHUR,ELK GROVE VILLAGE,IL,60007,US,8475938282,,,90,,,
9202,ALLEGRA AKA AMERICAN SPEEDY,27413 HARPER AVE,SAINT CLAIR SHORES,MI,48081,US,5867748880,,,90,,,
9210,CAL U STUDENT BOOKSTORE,428 HICKORY ST/NATALI CTR,CALIFORNIA,PA,15419,US,7249384324,,,90,,,
9216,CLEMSON VARIETY & FRAME-CC,374 COLLEGE AVE,CLEMSON,SC,29631,US,8646541723,,,90,,,
9220,DANVILLE PAPER & SUPPLY,118 E NORTH ST,DANVILLE,IL,61832,US,2174420851,,,90,,,
9222,DUPREE SPORTS,316 S WASHINGTON ST,STILLWATER,OK,74074,US,4053770921,,,90,,,
9224,EDGEWOOD HIGH SCHOOL,3045 BUSENBARK RD,TRENTON,OH,45067,US,7659694755,,,90,,,
9225,JESSIE CHEN INC,11070 ABBOTSS STATION DR,DULUTH,GA,30097,US,7708148183,,,90,,,
9226,FRATERNITY PURCHASING,226 E NITTANY,STATE COLLEGE,PA,16801,US,8142378800,,,90,,,
9229,COMPASS INDUSTRIES,104 W 29TH ST,NEW YORK,NY,10001,US,2129345803,,,90,,,
9238,MC WHORTER & COMPANY,121 E JACKSON AVE,KNOXVILLE,TN,37915,US,8655216127,,,90,,,
92401,JR FREEMAN COMPANY  INC  IS408,123 S D ST,SAN BERNARDINO,CA,92401,US,9093871108,,,90,,,
9246,PARTIES START HERE,3150 VALLEY ST,BATON ROUGE,LA,70808,US,2253818488,,,90,,,
9254,"SPORTDECALS, INC",2504 SPRING RIDGE DR,SPRING GROVE,IL,60081,US,8156752471,,,90,,,
9258,TRIBOUT DISTRIBUTORS,517 S ILLINOIS ST,BELLEVILLE,IL,62220,US,6182340388,,,90,,,
9262,UNIVERSITY BOOKSTORE,623 N MANHATTAN AVE,MANHATTAN,KS,66502,US,7855390511,,,90,,,
9264,CAP PARTY SUPPLIES,1511 S HIGH ST,COLUMBUS,OH,43207,US,6144443716,,,90,,,
9268,LEXINGTON FRAMING SUPPLIES,1038-B BRENTWOOD CT,LEXINGTON,KY,40511,US,8592543353,,,90,,,
9276,CONRAD ENTERPRISES   TM#325,301 SAND ISLAND ACCESS RD,HONOLULU,HI,96819,US,8088424467,,,90,,,
9292,SCHOOL BOX,7112 COLUMBIA PIKE,ANNADALE,VA,22003,US,7039140656,,,90,,,
9331,THE BOOKERY INC,2300 W FOURTH ST,MANSFIELD,OH,44906,US,4195294324,,,90,,,
9332,BEEMUNS,35277 KENAI SPUR HWY,SOLDOTNA,AK,99669,US,9072621234,,,90,,,
9333,ERGADOO,1320 S STATE,SPRINGFIELD,IL,62704,US,2175449466,,,90,,,
9351,TEACH RIGHT,586 S COLUMBIA AVE # 11,RINCON,GA,31326,US,9128261681,,,90,,,
9358,CHICAGO OFFICE PRODUCTS TM 602,9710 INDUSTRIAL DR,BRIDGEVIEW,IL,60455,US,7084302005,,,90,,,
9378,WILTONS OFFICEWORKS LTD,181 N EARL RUDDER FWY,BRYAN,TX,77802,US,9792680062,,,90,,,
9388,HUMMELS OFFICE PLUS IS #154,25 CANAL ST,MOHAWK,NY,13407,US,3158663860,,,90,,,
9396,GIFTS GALORE,1805 RICE AVE,DUBLIN,GA,31021,US,4782748860,,,90,,,
9417,MATERIALS CONVERTING LLC,2121 S 116TH ST,WEST ALLIS,WI,53227,US,4145469550,,,90,,,
9450,WRITE STUFF THE,PO BOX 217,ELBURN,IL,60119,US,6303654425,,,90,,,
9459,TEACHERS LOUNGE THE,1504 S LOCUST,GRAND ISLAND,NE,68801,US,3083987010,,,90,,,
9469,TAJ OFFICE SUPPLY -IS X017, 11410 LONG BEACH BLVD,LYNWOOD,CA,90262,US,3107635072,,,90,,,
9472,COPY PLUS  IS# 1178,4500 N 10TH ST SUITE 240,MCALLEN,TX,78504,US,9566687587,,,90,,,
9504,ACADEMIC AVENUE,16020 KING,RIVERVIEW,MI,48193,US,7344797900,,,90,,,
9505,GREAT LAKES FURNITURE & SUPPLY,26433 HARPER AVE,ST CLAIR SHORES,MI,48081,US,5867745970,,,90,,www.greatlakesfurniture.com,
9510,BRINDILLE SENC,36 MARTIN,SAINT ETIENNE-DE-LAUZON,QC,G6J1P3,CA,4188369959,,,90,,,
9511,PURPLE CAMEL LEARNING RESOURCES,605 D HEWITSON ST,THUNDER BAY,ON,P7B5V5,CA,8076232871,,,90,,,
9512,WINKLER OFFICE EQUIPMENT-TM355,508 HICKORY ST,WEST BEND,WI,53095,US,2623347354,,,90,,,
9513,AERIAL ARTS FIREWORKS,640 W NATIONAL AVE,BRAZIL,IN,47834,US,8124432264,,,90,,,
9516,D & D OFFICE PLUS  IS# 057,1751 LINCOLN HIGHWAY,NORTH VERSAILLES,PA,15137,US,4128291200,,,90,,www.ddoffice.com,
9521,EDUCATION OUTLET,42 BUREAU DR,GAITHERSBURG,MD,20878,US,3019485710,,,90,,,
9527,99 CENTS ONLY STORES LLC,4000  UNION PACIFIC AVE,CITY OF COMMERCE,CA,90023,US,3239808145,,,90,,,
9531,AMAZON.COM,701 5TH AVE,SEATTLE,WA,98104,US,2062661000,,,90,,,
9543,GRAND VALLEY DIRECT,24 CORYDON PL,CAMBRIDGE,ON,N1R7L5,CA,5196241996,,,90,,,
9551,STANDARD OFFICE SUPPLY,35 SHERIDAN ST NW,WASHINGTON,DC,20011,US,2028294820,,,90,,,
9557,TAVITTS,1109 MARICOPA HWY,OJAI,CA,93023,US,8056468963,,,90,,,
9570,SUCCESSFUL SOLUTIONS,1848 WAUKEGAN RD,GLENVIEW,IL,60025,US,8476570039,,,90,,,
9580,INTEGRITY BUSINESS TM#865,4740 TALON CT SE,GRAND RAPIDS,MI,49512,US,6166566010,,,90,,,
9583,LIPAQ 2006 INC,2676 JACQUES CARTIER EST BLVD,LONGUEUIL,QC,J4N1P8,CA,4506775654,,,90,,,
9607,TRIPLE PINES,N15136 SPARROW AVE,CURTISS,WI,54422,US,7152292008,,,90,,,
9609,SANDYS COUNTRY CHRISTMAS,2536 W DIXON BLVD,SHELBY,NC,28152,US,7044710015,,,90,,,
9612,MEMORIES N MORE,109 S DETROIT ST,LOS ANGELES,CA,90036,US,3237021239,,,90,,,
9614,CURRY OFFICE SUPPLY  IS#1017,1005 PONTIAC RD,PILGRIM GARDENS,PA,190260366,US,2156270990,,,90,,,
9630,THE PARTY FACTORY,10 PLATTSBURGH PLZ,PLATTSBURGH,NY,12901,US,5185616001,,,90,,,
9632,OFFICE SUPER SAVERS TM255,4865 19TH ST NW-STE 120,ROCHESTER,MN,55901,US,5075299756,,,90,,,
9634,UNITED OFFICE PRODUCTS,601 W DENNIS AVE,OLATHE,KS,66061,US,7853688222,,,90,,,
9641,TEACHERS PET,1252 W MAIN,TUPELO,MS,38801,US,6628409763,,,90,, www.teacherspetinc.com,
9647,CREATIONS,109 HWY 64 WEST,ALMA,AR,72921,US,4794307301,,,90,,,
9677,STEC-STEADFAST TECHNICS TM#114,"4080 W BROADWAY, SUITE 104",ROBBINSDALE,MN,55422,US,7635883877,,,90,,,
9679,TEACH N TOYS,3155 HOWARD AVE,WINDSOR,ON,N8X4Y8,CA,5199695278,,,90,,,
9681,PAPER CLIP THE,204 US HWY 412 E,SILOAM SPRINGS,AR,72761,US,8774747949,,,90,,,
9682,POSPAPER COM,6740 BROADWAY AVE,JACKSONVILLE,FL,32254,US,9047379989,,,90,,,
9685,PREMIER SUPPLIES TM#621,460 W 39TH ST,NEW YORK,NY,10001,US,2129471365,,,90,,,
9691,LEARNING HEADQUARTERS,2283 S 67TH ST,OMAHA,NE,68106,US,4027638455,,,90,, www.learninghq.com,
9695,BETTER MARKETING KONNECTION,5236 HWY 80 WEST,JACKSON,MS,39209,US,6019236350,,,90,,,
9701,CLASSY STUFF INC,106 NORTH 16TH ST,MATTOON,IL,61938,US,2172588822,,,90,,,
9704,BULKOFFICESUPPLY.COM,145 MARCUS BLVD,HAUPPAUGE,NY,11788,US,8006581488,,,90,,,
9710,JDA ENTERPRISES,131 JACOBS LN,NORWELL,MA,2061,US,5085843900,,,90,,,
9711,S & F MERCHANDISE CO,1129 E 12 ST,BROOKLYN,NY,11230,US,9177972833,,,90,,,
9715,TEACHING STORE THE,4259 US HWY 98 N,LAKELAND,FL,33809,US,8638596207,,,90,,,
9726,THE PHILLIPS GROUP    IS# P014,501 FULLING MILL RD,MIDDLETON,PA,17057,US,7179440400,,,90,,,
9758,TEACHING RESOURCE CENTER LLC,PO BOX 443,WEST LINN,OR,97068,US,8008333389,,,90,,,
9763,S & B COMPUTORS & OFFICE PRODUCT,1 FAIRCHILD SQ SUITE 3,CLIFTON PARK,NY,12065,US,5188779500,,,90,,,
9770,GREENTREE MARKETING INC,10 CENTRAL ST,FRAMINGHAM,MA,1701,US,5088772581,,,90,,,
9774,QUANTUM OFFICE PRODUCTS  TM#197,12180 RIDGECREST RD  #328,VICTORVILLE,CA,92395,US,7607800382,,,90,,,
9798,STEPHENS OFFICE SUP - TM#500251,372-C WYTHE CREEK RD,POQUOSON,VA,23662,US,7578680914,,,90,,,
9801,COASTAL OFFICE PRODUCTS  IS# 986,820 GREENBRIER CIR SUITE #7,CHESAPEAKE,VA,23320,US,7573665502,,,90,,,
9857,CORTECH,13 - 1ST AVE,MAPLE CREEK,SK,S0N1N0,CA,3066622800,,,90,,,
9860,WIST OFFICE PRODUCTS,107 W JULIE DR,TEMPE,AZ,85283,US,4809212900,,,90,,,
9874,STAPLES-CE-DIRECT SHIP,ATTN: DIRECT SHIP INVOICES,COLUMBIA,SC,29224,US,111111111,,,90,,,
9876,STS FILING PRODUCTS INC,1100 CHANDLER ST,MONTGOMERY,AL,36104,US,3342658786,,,90,,,
9881,TOPS MALIBU,29496 AIRPORT RD #6,EUGENE,OR,97403,US,8088280071,,,90,,,
9884,YOUR CLASSROOM CONNECTION,1015 W MAIN ST,MONONGAHELA,PA,15063,US,7242928013,,,90,,,
9887,SOURCE OFFICE PRODUCTS,13350 W 43RD DR,WHEAT RIDGE,CO,80403,US,3039648100,,,90,,,
9894,WITH A TWIST LLC,617 SE 18TH ST,GRIMES,IA,50111,US,5159910275,,,90,,,
9900,TARGET CORPORATION,1000 NICOLLET MALL,MINNEAPOLIS,MN,55403,US,6123046073,,,90,,,
9900CAN,TARGET CANADA HEADQUARTERS,5570 EXPLORER DR,MISSISSAUGA,ON,L4W0C4,CA,2892611221,,,90,,,
9920,TEACHERS DELIGHT OF IN-CH7,127 FARABEE DR N,LAFAYETTE,IN,47905,US,7654481545,,,90,,,
9930,DISCOUNT OFFICE ITEMS TM#758,302 INDUSTRIAL DR,COLUMBUS,WI,53925,US,9206239528,,,90,,,
9932,TEACHERS LOUNGE THE,2828 N MAIN  SUITE 101,DECATUR,IL,62526,US,2177916273,,,90,,,
9933,ACE PRODUCTS,11240 CORNELL PARK DR STE 110,CINCINNATI,OH,45242,US,5136979500,,,90,,,
9936,COSMO JOE ENTERTAINMENT,404 CAROLINE ST,NEENAH,WI,54956,US,9204501565,,,90,,,
9942,FIVE STAR ENTERPRISES,275 STEELCASE RD E,MARKHAM,ON,L3R1G3,CA,9059441080,,,90,,,
9949,FASEL & SONS,10841 SOUTH CICERO AVE,OAK LAWN,IL,60453,US,7084225335,,,90,,,
9955,CENTRAL MISSISSIPPI OFC SUPPLY,127 E JEFFERSON ST,KOSCIUSKO,MS,39090,US,6622893762,,,90,,,
9958,LINDENMEYR BOOK PUBLISHING PAPER,20 N WACKER DR  STE 3400,CHICAGO,IL,60606,US,3127261890,,,90,,,
9959,TOM SEXTON & ASSOCIATES INC,65 CUMMINGS DR,WALTON,KY,41094,US,8594857065,,,90,,,
9961,SHOPLET.COM,39 BROADWAY,NEW YORK,NY,10006,US,8007573015,,,90,,,
9981,ALONG THE WAY,307 LINCOLN CTR,STOCKTON,CA,95207,US,2099513100,,,90,,,
1279-A,A 2 Z Educational Supplies,222 1st Street W #B,Humble,TX,77338-3615,US,,,,90,,,
3324-A,ABC & Toy Zone,14003 Grand Avenue,Burnville,MN,55337,US,952-892-7666,,,90,,,
3321-B,ABC & Toy Zone,820 West 78th Street,Chanhassen,MN,55317,US,952-474-4366,,,90,,,
3324-C,ABC & Toy Zone,8098 Morgan Circle,Bloomington,MN,55431,US,952-948-0108,,,90,,,
1934-A,Ace Educational,5670 West Sample Road,Margate,FL,33073,US,954-978-6991,,,90,,,
1741-A,Agape Christian Bookstore,140 Saint James Avenue,Goose Creek,SC,29445-2924,US,,,,90,,,
4801-A,Becker's,1702 Rt 22 & Bonnie Burn Rd,Watchung,NJ,7060,US,(908) 322-2757,,,90,,,
4801-B,Becker's,450 Hackensack Ave,Hackensack,NJ,7601,US,(201) 342-1050,,,90,,,
4801-D,Becker's,284 Main Street,Exton,PA,19341,US,(610) 363-4911,,,90,,,
4801-E,Becker's,1627 Bethlehem Pike,Hatfield,PA,19440,US,(215) 997-6599,,,90,,,
4801-F,Becker's,PA Route 320,Broomall,PA,19008,US,(610) 356-6605,,,90,,,
4801-G,Becker's,9165 Roosevelt Blvd,Philadelphia,PA,19114,US,(267) 672-1680,,,90,,,
4801-I,Becker's,2520 MacArthur Rd,Whitehall,PA,18052,US,(610) 439-5850,,,90,,,
4801-J,Becker's,635 Bay Ave,Toms River,NJ,8753,US,(732) 281-2100,,,90,,,
4801-K,Becker's,2506 W. Moreland Road,Willow Grove,PA,19090,US,(215) 657-9122,,,90,,,
4345-A,Bender-Burkot East Coast,213 Sermon Road,Pollocksville,NC,28573,US,,,,90,,,
2347-M,Blick Art & Craft,1975 E Golf Rd,Schaumburg,IL,60173,US,(847) 619-1115,,,90,,,
2347-CC,Blick Art & Craft,6486 Sawmill Rd,Colombus,OH,43235,US,(614) 792-1900,,,90,,,
2347-DD,Blick Art & Craft,3152 Lehigh St,Allentown,PA,18103,US,(610) 791-7576,,,90,,,
2347-A,Blick Art Materials,811 University Ave,Berkeley,CA,94710,US,(510) 486-2600,,,90,,,
2347-B,Blick Art Materials,7301 W Beverly Blvd,Los Angeles,CA,90036,US,(323) 933-9284,,,90,,,
2347-C,Blick Art Materials,5301 Broadway ,Oakland,CA,94618,US,(510) 658-2787,,,90,,,
2347-D,Blick Art Materials,44 S Raymond,Pasadena,CA,91105,US,(626) 795-4985,,,90,,,
2347-E,Blick Art Materials,1844 India Ave,San Diego,CA,92101,US,(619) 687-0050,,,90,,,
2347-F,Blick Art Materials,1414 Van Ness Ave,San Francisco,CA,94109,US,(415) 441-6075,,,90,,,
2347-G,Blick Art Materials,11660 Santa Monica Blvd,West Los Angeles,CA,90025,US,(310) 477-0451,,,90,,,
2347-H,Blick Art Materials,341 Cooke St,Plainville,CT,6062,US,(860) 747-5551,,,90,,,
2347-I,Blick Art Materials,1574 Kingsbury St,Chicago,IL,60622,US,(312) 573-0110,,,90,,,
2347-J,Blick Art Materials,1755 Maple Ave,Evanston,IL,60201,US,(847) 425-9100,,,90,,,
2347-K,Blick Art Materials,695 US Highway 150 E,Galesburg,IL ,61401,US,(309) 343-1411,,,90,,,
2347-L,Blick Art Materials,4601 16th St Plaza South,Moline ,IL,61265,US,(309) 765-2787,,,90,,,
2347-N,Blick Art Materials,51 Danada Square East,Wheaton,IL,60187,US,(630) 653-0569,,,90,,,
2347-O,Blick Art Materials,4924 Plaza East Blvd,Evansville,IN,47715,US,(812) 476-9551,,,90,,,
2347-P,Blick Art Materials,201 S Clinton Ste 180,Iowa City,IA,52240,US,(319) 337-5745,,,90,,,
2347-Q,Blick Art Materials,401 Park Dr,Boston,MA,2215,US,(617) 247-3322,,,90,,,
2347-R,Blick Art Materials,14339 Michigan Ave,Dearborn,MI,48126,US,(313) 581-7063,,,90,,,
2347-S,Blick Art Materials,3509 Hazelton Rd,Edina,MN,55435,US,(952) 831-6061,,,90,,,
2347-T,Blick Art Materials,13011 Ridgedale Dr,Minnetonka,MN,55305,US,(952) 593-5588,,,90,,,
2347-U,Blick Art Materials,2389 Fairview Ave,Roseville,MN,55113,US,(651) 636-2818,,,90,,,
2347-V,Blick Art Materials,8007 Maryland Ave,St Louis ,MO,63105,US,(314) 862-6980,,,90,,,
2347-W,Blick Art Materials,1300 Q St,Lincoln,NE,68508,US,(402) 474-2062,,,90,,,
2347-X,Blick Art Materials,7827 Dodge St,Omaha,NE,68114,US,(402) 397-6077,,,90,,,
2347-AA,Blick Art Materials,290 S Decatur Blvd D101,Las Vegas,NV,89107,US,(702) 368-0209,,,90,,,
2347-BB,Blick Art Materials,1-5 Bond St,New York,NY,10012,US,(212) 533-2444,,,90,,,
2347-FF,Blick Art Materials,1165 Woodstock Rd.  Ste 830,Roswell ,GA,30075,US,(770)-993-0240,,,90,,,
2347-GG,Blick Art Materials,42 South State St,Chicago,IL,60603,US,(312)-920-0300,,,90,,,
2347-HH,Blick Art Materials,1330 Chestnut Street,Philadelphia,PA,19107,US,(215)545-3214,,,90,,,
2347-II,Blick Art Materials,5500 Campanile Drive,San Diego,CA,92182,US,(619)594-7560,,,90,,,
31105-A,Brodart Company,100 North Road,Mc Elhattan,PA,17748,US,,,,90,,,
2866-A,Campus Corner,912 University Parkway,Natchitoches,LA,71457,US,,,,90,,,
1718-A,"Chalkboard, The",1126 New Britian Ave,West Hartford,CT,6110,US,(860) 236-0044,,,90,,,
2381-A,"Chalkboard, The",367 S. Route 59,Aurora,IL,60504,US,(630) 585-8700,,,90,,,
2381-B,"Chalkboard, The",2966 Finley Rd,Downers Grove,IL,60515,US,(630) 424-1810,,,90,,,
2381-C,"Chalkboard, The",381 N. Randall Road,Batavia ,IL,60510,US,(630) 406-8697,,,90,,,
1532-A,CM School Supply,1025 E. Orangethorpe Avenue,Anaheim,CA,92801,US,714-680-6681,,,90,,www.cmschoolsupply.com,
1532-B,CM School Supply,4155 Van Buren Blvd.,Riverside,CA,92503,US,800-458-0390,,,90,,www.cmschoolsupply.com,
1532-C,CM School Supply,940 N Central Avenue,Upland,CA,91786,US,909-982-9695,,,90,,www.cmschoolsupply.com,
1532-D,CM School Supply,5440 E. Del Amo Blvd.,Long Beach,CA,90808,US,562-429-2425,,,90,,www.cmschoolsupply.com,
1532-E,CM School Supply,28860 Old Town Front Street,Temecula,CA,92590,US,951-693-2422,,,90,,www.cmschoolsupply.com,
21720-A,Dallas Pen Company,2939 Anode Lane,Dallas,TX,75220-1405,US,,,,90,,,
1309-A,Davies School Supply,3925-C Michael Blvd,Mobile ,AL,36609,US,334-304-0982,,,90,, ,
1309-B,Davies School Supply,350 Coliseum Blvd,Montgomery ,AL,36109,US,334-270-0982,,,90,, ,
32362-A,Education Express,820 Factory Shops Blvd.,Gaffney,SC,29341,US,(864)487-4008,,,90,,,
32362-B,Education Express,8111 Concord Mills Blvd.  Suite 518,Concord,NC ,28027,US,(704)-979-1507,,,90,,,
32122-A,Education Land Inc,10E Wingco Lane,Reading ,PA,19605-9783,US,,,,90,,,
5316-A,Educational Outfitters,918 S. 31st Street,Temple,TX,76548,US,254-774-9417,,,90,,,
5320-A,"Educational Products, Inc.","2155 Silber Road, Suite 100",Houston,TX,77055,US,972-812-5114,,,90,,,
5005-A,Educational Wonderland,2400 Decker Blvd,Columbia,SC,29206,US,803-865-0048,,,90,,,
5005-B,Educational Wonderland,Lexington Village 205-E Columbia Ave,Lexington,SC,29072,US,803-808-0993,,,90,,,
2846-B,"Educator, Inc.",1760 Stumpf Blvd,Gretna,LA,70056,US,504-367-8660,,,90,,,
1579-A,Excelligence Learning,340 El Camino Real South,Salinas,CA,93901,US,831-424-2588,,,90,,,
1579-B,Excelligence Learning,6746 Stuart,Jacksonville,FL,32254,US,904-786-3138,,,90,,,
1579-C,Excelligence Learning,1515 Bobali Drive,Harrisburg,PA,17104,US,717-939-3576,,,90,,,
1579-D,Excelligence Learning,2 Lower Ragsdale,Montroy,CA,93940,US,831-333-5525,,,90,,,
1579-D,Excelligence Learning,5203 Speaker Road,Kansas City,KS ,66106,US,913-371-0402,,,90,,,
4536-A,F & S School Supply,1012 E Dorothy Lane ,Dayton ,OH,45419,US,(937) 294-1224,,,90,,,
1898-A,Get Smart,11751 S. Dixie Hwy,Miami,FL,33156,US,305-378-0834,,,90,,,
1898-B,Get Smart,8507 Pines Blvd,Pembroke Pines,FL,33024,US,954-431-5052,,,90,,,
1898-C,Get Smart,4366 Northlake Blvd,Palm Beach Gardens,FL,33410,US,561-691-0091,,,90,,,
5827-A,Imperial Parent Teacher Store,2644 Mosside Blvd.,Monroeville,PA,15146,US,412-380-7280,,,90,,,
5302-A,Ink Spot Press,502 3rd Street NE,Bemidji,MN,56601-2904,US,,,,90,,,
5649-A,Kenbridge Office & School,116 Broad Street,Kenbridge,VA,23944,US,,,,90,,,
2730-A,Kentucky School Service,3945 Taylorsville Road,Louisville,KY,40220,US,502-458-0677,,,90,,,
2730-B,Kentucky School Service,5212 Dixie Highway,Louisville,KY,40216,US,502-448-4295,,,90,,,
2730-C,Kentucky School Service,6712 Williamson Rd. N.W.,Roanoke,VA,24019,US,540-362-7172,,,90,,,
2730-D,Kentucky School Service,837-839 State Street,Bristol,VA,24201,US,276-466-5524,,,90,,,
2730-E,Kentucky School Service,527 Pearl Street,New Albany,IN,47150,US,812-944-8964,,,90,,,
5220-A,Knowledge Treet,1217 Getwell Road,Memphis,TN,38111,US,,,,90,,,
5220-B,Knowledge Treet,2095 Exeter Road,Germantown,TN,38138,US,901-758-2280,,,90,,,
5220-C,Knowledge Treet,2832 Wolfcreek Pkwy,Memphis,TN,38133,US,901-888-6283,,,90,,,
5220-D,Knowledge Treet,825 N. University,Little Rock,AR,72205,US,501-663-2877,,,90,,,
38197-A,KU Student Bookstore,Kutztown University,Kutztown ,PA,19530,US,,,,90,,,
1560-A,Lakeshore Learning Materials,4819 E Ray Road,Phoenix,AZ,85044,US,480-940-7700,,,90,,www.lakeshorelearning.com,
1560-B,Lakeshore Learning Materials,2500 E Imperial Hwy,Brea,CA,92821,US,714-256-6770,,,90,,www.lakeshorelearning.com,
1560-C,Lakeshore Learning Materials,2695 E Dominguez St,Carson,CA,90895,US,310-537-4778,,,90,,www.lakeshorelearning.com,
1560-D,Lakeshore Learning Materials,18679 Brookhurst St,Fountain Valley,CA,92708,US,714-963-8255,,,90,,www.lakeshorelearning.com,
1560-E,Lakeshore Learning Materials,17072 Devonshire St,Northridge,CA,91325,US,818-366-4105,,,90,,www.lakeshorelearning.com,
1560-F,Lakeshore Learning Materials,3848 E Foothill Blvd,Pasadena,CA,91107,US,626-356-3848,,,90,,www.lakeshorelearning.com,
1560-G,Lakeshore Learning Materials,1850 Douglas Blvd,Roseville,CA,95661,US,916-774-4304,,,90,,www.lakeshorelearning.com,
1560-H,Lakeshore Learning Materials,898 E Harriman Pl,San Bernardino,CA,92408,US,909-890-1222,,,90,,www.lakeshorelearning.com,
1560-I,Lakeshore Learning Materials,7510 Hazard Center Dr,San Diego,CA,92108,US,619-297-8494,,,90,,www.lakeshorelearning.com,
1560-J,Lakeshore Learning Materials,1099 S Bascom Ave,San Jose,CA,95128,US,408-998-0794,,,90,,www.lakeshorelearning.com,
1560-K,Lakeshore Learning Materials,1144 Montague Avenue,San Leandro,CA,94577,US,510-483-9750,,,90,,www.lakeshorelearning.com,
1560-L,Lakeshore Learning Materials,125 N. Mountain Avenue,Upland,CA,91786,US,909-985-9945,,,90,,www.lakeshorelearning.com,
1560-M,Lakeshore Learning Materials,4705 Telephone Road,Ventura,CA,93003,US,805-289-7550,,,90,,www.lakeshorelearning.com,
1560-N,Lakeshore Learning Materials,1929 Mt Diablo Blvd,Walnut Creek,CA,94596,US,925-944-1495,,,90,,www.lakeshorelearning.com,
1560-O,Lakeshore Learning Materials,8888 Venice Blvd,Los Angeles,CA,90034,US,310-559-9630,,,90,,www.lakeshorelearning.com,
1560-P,Lakeshore Learning Materials,8680A Park Meadows Ctr Dr,Littleton,CO,80124,US,303-768-8484,,,90,,www.lakeshorelearning.com,
1560-Q,Lakeshore Learning Materials,335 E State Road 436,Fern Park,FL,32730,US,407-260-5531,,,90,,www.lakeshorelearning.com,
1560-R,Lakeshore Learning Materials,4501 W Kennedy Blvd,Tampa,FL,33609,US,813-207-0468,,,90,,www.lakeshorelearning.com,
1560-S,Lakeshore Learning Materials,2757 Cobb Pkwy at I-285,Atlanta,GA,30339,US,770-951-1700,,,90,,www.lakeshorelearning.com,
1560-T,Lakeshore Learning Materials,2255 W 95th Street,Chicago,IL,60643,US,773-233-9210,,,90,,www.lakeshorelearning.com,
1560-U,Lakeshore Learning Materials,1403 N Rand Road,Palatine,IL,60074,US,847-705-5052,,,90,,www.lakeshorelearning.com,
1560-V,Lakeshore Learning Materials,1721 Beam Avenue,Maplewood,MN,55109,US,651-777-0650,,,90,,www.lakeshorelearning.com,
1560-W,Lakeshore Learning Materials,5699 W 16th Street,St Louis Park,MN,55416,US,952-541-0991,,,90,,www.lakeshorelearning.com,
1560-X,Lakeshore Learning Materials,275 State Route 18,East Brunswick,NJ,8816,US,732-967-8585,,,90,,www.lakeshorelearning.com,
1560-Y,Lakeshore Learning Materials,449 Essex Street,Hackensack,NJ,7601,US,201-441-9214,,,90,,www.lakeshorelearning.com,
1560-Z,Lakeshore Learning Materials,2079 Hillside Avenue,New Hyde Park,NY,11040,US,516-616-9360,,,90,,www.lakeshorelearning.com,
1560-AA,Lakeshore Learning Materials,969A Central Park Avenue,Scarsdale,NY,10583,US,405-858-8778,,,90,,www.lakeshorelearning.com,
1560-BB,Lakeshore Learning Materials,6300 N May Avenue,Oklahoma City,OK,73112,US,405-858-8778,,,90,,www.lakeshorelearning.com,
1560-CC,Lakeshore Learning Materials,13846 N Dallas Parkway,Dallas,TX,75240,US,972-934-8866,,,90,,www.lakeshorelearning.com,
1560-DD,Lakeshore Learning Materials,19032 Gulf Fwy,Friendswood,TX,77546,US,281-461-6263,,,90,,www.lakeshorelearning.com,
1560-EE,Lakeshore Learning Materials,2405 Post Oak Blvd,Houston,TX,77056,US,713-355-1893,,,90,,www.lakeshorelearning.com,
1560-FF,Lakeshore Learning Materials,327 NW Loop 410,San Antonio,TX,78216,US,210-340-0504,,,90,,www.lakeshorelearning.com,
1560-GG,Lakeshore Learning Materials,11027 NE 4th Street,Bellevue,WA,98004,US,425-462-8076,,,90,,www.lakeshorelearning.com,
5245-A,Learning House,520 W. Jefferson Blvd,Fort Wayne,IN,46802,US,260-424-1536,,,90,,,
5245-B,Learning House,226 S. First Street,Union City,TN,38261,US,731-885-2113,,,90,,,
5245-C,Learning House,536 US Hwy. 51 BYP W,Dyersburg,TN,38024-1943,US,731-287-7193,,,90,,,
5350-A,Mannings School Supply,4144 Dowlen Rd,Beaumont,TX,77706,US,409-899-1122,,,90,,,
5350-B,Mannings School Supply,3704 Hwy. 365,Nederland,TX,77627,US,409-722-5599,,,90,,,
4582-A,Mardel,12201 West Markham Ste 1,Little Rock,AR,72211,US,(501) 312-0316,,,90,,,
4582-B,Mardel,5460 Landers Rd,Sherwood,AR,72120,US,(501) 955-2646,,,90,,,
4582-C,Mardel,5964 Barnes Rd,Colorado Springs,CO,80922,US,(719) 573-0402,,,90,,,
4582-D,Mardel,"4887 South Wadsworth Way, Ste 150",Littleton,CO,80123,US,(303) 904-6015,,,90,,,
4582-E,Mardel,7102 West 119th St,Overland Park,KS,66213,US,(913) 498-0739,,,90,,,
4582-F,Mardel,1533 E Battlefield Rd,Springfield,MO,65804,US,(417) 881-6338,,,90,,,
4582-G,Mardel,3300 South Blvd,Edmond,OK,73013,US,(405) 341-2439,,,90,,,
4582-H,Mardel,500 West Main,Norman,OK,73069,US,(405) 360-5444,,,90,,,
4582-I,Mardel,1421 W I-240 Service Rd,Oklahoma City,OK,73159,US,(405) 681-1444,,,90,,,
4582-J,Mardel,4848 NW Expressway ,Oklahoma City,OK,73132,US,(405) 773-1717,,,90,,,
4582-K,Mardel,5202 South Harvard ,Tulsa,OK,74135,US,(918) 747-1208,,,90,,,
4582-L,Mardel,9725 East 71st St,Tulsa,OK,74133,US,(918) 254-1571,,,90,,,
4582-M,Mardel,"4652 South Cooper St, Ste 172",Arlington,TX,76017,US,(817) 417-0888,,,90,,,
4582-N,Mardel,"1800 S Loop 288, Ste 210",Denton,TX,76205,US,(940) 384-7076,,,90,,,
4582-O,Mardel,"6080 South Hulen St, Ste 200",Fort Worth,TX,76132,US,(817) 294-8800,,,90,,,
4582-P,Mardel,3174 Lavon Dr,Garland,TX,75040,US,(972) 496-0135,,,90,,,
4582-Q,Mardel,3919 West Airport Freeway ,Irving,TX,75062,US,(972) 255-6812,,,90,,,
4582-R,Mardel,2428-B S Stemmons Freeway,Lewisville,TX,75067,US,(972) 316-8444,,,90,,,
4582-S,Mardel,7020 Quaker,Lubbock,TX,79424,US,(806) 780-8332,,,90,,,
4582-T,Mardel,2308 North Galloway,Mequite,TX,75150,US,(972) 289-9361,,,90,,,
4582-U,Mardel,5214 West Wadley Ave,Midland,TX,79707,US,(432) 699-5914,,,90,,,
4582-V,Mardel,"2300 Coit Rd, Ste 100",Plano,TX,75075,US,(972) 867-1656,,,90,,,
4582-W,Mardel,4324 West Waco Drive,Waco,TX,76710,US,(254) 399-9237,,,90,,,
4582-X,Mardel,20085 Gulf Freeway,Webster (Houston),TX,77598,US,(281) 316-5081,,,90,,,
4582-Y,Mardel,2809 Southwest Parkway ,Wichita Falls,TX,76308,US,(940) 696-1166,,,90,,,
35713-A,Millers School Supplies,521 E. State Rd 434 - Suite 1009,Winter Springs,FL,32708,US,407-706-1394,,,90,,,
35713-B,Millers School Supplies,"4401 S. Orange Avenue, #121",Orlando,FL,32806,US,407-855-7230,,,90,,,
3251-A,MPI Capital,16911 Middlebelt Rd,Livonia,MI,48154,US,(734) 525-0720,,,90,,,
3251-B,MPI Capital,2383 Fourteen Mile Rd,Sterling Heights,MI,48310,US,(586) 979-8050,,,90,,,
6252-A,Noggin Factory,53 Washington Street,Dover,NH,3820,US,,,,90,,,
4344-A,Not Just Paper,1010 W. Main Street,Durham,NC,27701,US,(919)688-6886,,,90,,,
1754-A,Office Supply Center,1716 ByPass 72 NE,Greenwood,SC,29649,US,,,,90,,,
2735-A,Parent-Teacher Store USA,780 Rivergate Parkway,Goodlettsville,TN,37072,US,615-859-3007,,,90,,,
2735-B,Parent-Teacher Store USA,700 Nitro Market Place,Cross Lanes,WV,25313,US,304-776-6300,,,90,,,
2735-C,Parent-Teacher Store USA,1945 Scottsville Rd  Suite A-9,Bowling Green,KY,42104,US,270-783-8060,,,90,,,
2735-D,Parent-Teacher Store USA,3320 Partner Place   Suite 104,Lexington,KY,40503,US,859-223-3555,,,90,,,
2735-E,Parent-Teacher Store USA,1615 Montgomery Hwy,Hoover ,AL,35216,US,205-979-7222,,,90,,,
2735-F,Parent-Teacher Store USA,4004 Hillsboro Pike,Nashville,TN,37215-2705,US,615-292-3533,,,90,,,
2735-G,Parent-Teacher Store USA,1135 Bell Road,Antioch,TN,37013,US,615-731-2033,,,90,,,
2735-H,Parent-Teacher Store USA,203 Williamson Square,Franklin,TN,37064-1318,US,615-599-3477,,,90,,,
2735-I,Parent-Teacher Store USA,131 John Rice Blvd,Murfreesboro,TN,37129,US,615-895-6131,,,90,,,
2735-J,Parent-Teacher Store USA,6914 Burlington Pike,Florence,KY,41042,US,859-283-0151,,,90,,,
27950-A,Quill / Staples - 950,1 Keystone Drive,Lebanon,PA,17042-9791,US,,,,90,,,
1992-10,S.P. Richards,2416 Maplewood Drive,Maplewood,MN,55109,US,,,,90,,,
1992-19,S.P. Richards,8231 Stayton Drive #C,Jessup,MD,20794-9633,US,,,,90,,,
1992-29,S.P. Richards,6600 Chrysler Lane,East Syracuse,NY,13057-1228,US,,,,90,,,
27724-A,Scholar's Choice,12 Commerce Park Dr at Bryne Dr,Barrie,Ontario,L4N8W8,CA,(705) 739-0775,,,90,,,
27724-B,Scholar's Choice,1800 The Queensway,Etobicoka,Ontario,M9C5H5,CA,(416) 626-0060,,,90,,,
27724-D,Scholar's Choice,101 Fanshawe Park Rd E,London,Ontario,N5X3V9,CA,(519) 673-4525,,,90,,,
27724-E,Scholar's Choice,3120 Wonderland Rd S at Southdale,London,Ontario,N6L1A6,CA,(519) 668-6382,,,90,,,
27724-H,Scholar's Choice,145 Kingston Rd E Unit 11,Ajax,Ontario,L1S7J4,CA,(905) 426-9224,,,90,,,
27724-I,Scholar's Choice,110 at Brickyard Way off Maint St,Brampton,Ontario,L6V4L9,CA,(905) 459-9888,,,90,,,
27724-J,Scholar's Choice,920 Upper Wentworth St,Hamilton,Ontario,L9A5C5,CA,(905) 318-5471,,,90,,,
27724-K,Scholar's Choice,3145 Dundes St W,Mississauga,Ontario,L515V8,CA,(905) 828-2944,,,90,,,
27724-L,Scholar's Choice,5851 Yonge St at Cummer Ave,North York,Ontario,M2M3T9,CA,(416) 223-8898,,,90,,,
27724-M,Scholar's Choice,1070 Major Mackenzie Dr East,Richmond Hill,Ontario,L4S1P3,CA,(905) 787-1785,,,90,,,
27724-O,Scholar's Choice,"1610 Ness Avenue, Unit C",Winnipeg,Manitoba,R3J3X3,CA,(204) 775-4608,,,90,,,
27724-P,Scholar's Choice,"110 Brickyard Way, Units 11-14",Brampton,Ontario,L6V4L9,CA,(905) 459-9888,,,90,,,
27724-Q,Scholar's Choice,2323 Trafalgar Street (At Airport Road),London,Ontario,N5Y5S7,CA,(519) 457-6330,,,90,,,
27724-R,Scholar's Choice,1001 Daze Drive,Ottawa,Ontario,K1V2G3,CA,(613) 260-8444,,,90,,,
27724-S,Scholar's Choice,2121 Carling Ave at Woodroffe Ave,Ottawa,Ontario,K2A1H2,CA,(613) 729-5665,,,90,,,
27724-T,Scholar's Choice,1865 Paris St,Sudbury,Ontario,P3E3C5,CA,(705) 523-2167,,,90,,,
27724-U,Scholar's Choice,Mic Mac Mall 21 Mic Mac Blvd,Dartmouth,Nova Scotia,B3A4N3,CA,(902) 466-1611,,,90,,,
27724-V,Scholar's Choice,700 St George Blvd,Moncton,New Brunswick,E1E2C6,CA,(506) 854-4952,,,90,,,
27724-W,Scholar's Choice,Madison Square 1610 Ness Ave,Winnipeg,Manitoba,R3J3X3,CA,(204) 775-4608,,,90,,,
27724-X,Scholar's Choice,8060 Silver Springs Blvd NW Unit C-178,Calgary,Alberta,T3B5K1,CA,(403) 266-2262,,,90,,,
27724-Y,Scholar's Choice,16061 McLeod Trail SE ,Calgary,Alberta,T2Y3S5,CA,(403) 254-2604,,,90,,,
27752-A,School & Carnival,1604 Highway 90,Gautier,MS,39553,US,228-497-5872,,,90,,,
27752-B,School & Carnival,5583 Highway 42,Hattiesburg,MS,39401,US,601-583-0435,,,90,,,
37743-A,School & Preschool (Learning How),8895 McGaw Rd,Columbia,MD,21045,US,(410) 381-0828,,,90,,,
37743-B,School & Preschool (Learning How),872 Kenilworth Dr,Towson,MD,21204,US,(410) 823-7300,,,90,,,
37743-C,School & Preschool (Learning How),571A Baltimore Pike,Bel Air,MD,21014,US,(410) 638-1200,,,90,,,
37743-D,School & Preschool (Learning How),490 F. Prospect Blvd,Frederick,MD,21701,US,(301) 682-9500,,,90,,,
37743-E,School & Preschool (Learning How),250 Englar Road Suite R10,Westminster,MD,21157,US,(410) 857-6200,,,90,,,
37743-F,School & Preschool (Learning How),2039 Industrial Dr,Annapolis,MD,21401,US,(410) 224-2920,,,90,,,
37743-G,School & Preschool (Learning How),9616 Reisterstown Rd,Owings Mills,MD,21117,US,(410) 581-1007,,,90,,,
2886-A,School Aids,1826 Sterkx Rd,Alexandria,LA,71301,US,318-487-0706,,,90,,,
2886-B,School Aids,301 Orchard Court,Ridgeland ,MS,39157,US,601-957-2755,,,90,,,
2886-C,School Aids,7119 Bonneval Road,Jacksonville,FL,32211,US,904-880-9888,,,90,,,
2886-D,School Aids,3735 Kirkman Street,Lake Charles,LA,70607,US,337-474-4646,,,90,,,
2886-E,School Aids,664 S. University Blvd.,Mobile,AL,36609,US,251-272-3713,,,90,,,
2886-F,School Aids,3950 W. Lucas ,Beaumont,TX,77706,US,409-291-8820,,,90,,,
2886-G,School Aids,5812 Youree Drive,Shreveport,LA,71105,US,318-212-0641,,,90,,,
1970-A,School Box,3999 Austell Road,Austell,GA ,30001,US,770-739-2244,,,90,,,
1970-B,School Box,2200 Hamilton Place Blvd,Chattanooga,TN,37421,US,423-485-9300,,,90,,,
1970-C,School Box,1486 Dogwood Dr. SE,Conyers,GA,30013,US,770-602-3151,,,90,,,
1970-D,School Box,3865 Venture Drive,Duluth,GA,30096,US,770-497-1005,,,90,,,
1970-E,School Box,9559 Highway 5 #303,Douglasville,GA,30135,US,770-577-6503,,,90,,,
1970-F,School Box,7591 North Point Pkwy #820,Alpharetta,GA,30022,US,770-998-7979,,,90,,,
1970-G,School Box,4073 LaVista Rd #311,Tucker,GA,30084,US,770-414-9686,,,90,,,
1970-H,School Box,1355 Mt. Zion Road,Morrow,GA,30260,US,770-968-1737,,,90,,,
1970-I,School Box,1108 Bulls Boro Dr #1076,Newnan,GA,30265,US,770-251-3310,,,90,,,
1970-J,School Box,1926 Jonesboro Rd,McDonough,GA,30253,US,770-898-2012,,,90,,,
5898-A,"School Daze, Inc.",400 Cooper Point Rt. Suite 18,Olympia,WA,98502,US,360-786-8009,,,90,,,
5898-B,"School Daze, Inc.",3630 S. Cedar Street,Tacoma,WA,98409,US,253-472-2542,,,90,,,
3739-A,School Tools,246 Tallywood Shopping Center,Fayetteville,NC,28303-5395,US,,,,90,,,
37967-A,SGA Bookstore INACS-559,Slipper Rock University,Slippery Rock,PA,16057,US,,,,90,,,
2846-A,Teachers Aid,301 North Congress,Evansville,IN,47715,US,812-474-1771,,,90,,,
28414-A,Teachers Heaven,"8868 Research Blvd, Suite 701",Austin,TX,78758,US,512-323-5288,,,90,,,
28414-B,Teachers Heaven,"6101 43rd St., Ste. A",Lubbock,TX,79407,US,806-797-0003,,,90,,,
28414-C,Teachers Heaven,11625 Southwest Freeway,Houston,TX,77031,US,281-879-9887,,,90,,,
38396-A,Teacher's Pet and More,6645 South U.S. Hwy #1,Port St. Lucie,FL,34952,US,772-466-3633,,,90,,,
38396-B,Teacher's Pet and More,854 SW Federal Hwy,Stuart,FL,34994,US,772-283-9700,,,90,,,
4264-A,Teachers Stuff Inc,1545 Crosby Avenue #B,Bronx,NY,10461-5514,US,,,,90,,,
5380-C,Teachers Tools,9982 Grapevine Hwy,Hurst,TX,76054,US,817-656-7233,,,90,,,
5380-D,Teachers Tools,6080 S. Hulen Street,Fort Worth,TX,76132,US,817-263-8990,,,90,,,
38361-A,Teaching Room,726 Morris Turnpike,Short Hills,NJ,7078,US,(973) 376-1166,,,90,,,
1718-A,The Chalkboard,1126 New Britain Avenue,West Hartford,CT,6110,US,,,,90,,,
5944-A,The Learning Shop,17435 W. Bluemound Road,Brookfield,WI,53045,US,262-789-8735,,,90,,www.learningshop.com,
5944-B,The Learning Shop,5431 S. 76th Street - Southridge Plaza,Greendale,WI,53129,US,414-423-7294,,,90,,www.learningshop.com,
5944-D,The Learning Shop,11043 N. Port Washington Road,Mequon,WI,53092,US,262-478-0227,,,90,,www.learningshop.com,
5944-A,The Learning Shop,4705 W. College Avenue,Appleton,WI,54913,US,,,,90,,,
5944-B,The Learning Shop,714 S. Gamon Road,Madison,WI,53719,US,,,,90,,,
5944-E,The Learning Shop (Mayfair),2911 N. Mayfair Road,Wauwatosa,WI,53222,US,414-475-9577,,,90,,www.learningshop.com,
5954-B,Triarco,463 Park Street,Ft. Atkinson,WI,53538,US,(920) 568-5500,,,90,,,
7305-A,Uline,400 Boulder Drive,Breinigsville,PA,18031,US,,,,90,,,
7305-A,ULINE,2105 S. Lakeside Drive,Waukegan,IL,60085,US,,,,90,,www.uline.com,
7305-B,ULINE,400 Boulder Drive,Breinigsville,PA,18031,US,,,,90,,www.uline.com,
7305-C,ULINE,2165 Northmont Pkwy,Duluth,GA,30096,US,,,,90,,www.uline.com,
7305-D,ULINE,635 Freeport Pkwy,Coppell,TX,75019,US,,,,90,,www.uline.com,
7305-E,ULINE,25392 Commerce Center Drive,Lake Forest,CA,92630,US,,,,90,,www.uline.com,
7305-F,ULINE,985 Aldrin Drive,Eagan,MN,55121,US,,,,90,,www.uline.com,
28846-A,University Bookstore,102 Curris Center,Murray,KY,42071,US,,,,90,,,
3590-A,US Toy,2008 W. 103rd Terrace,Leewood,KS,66206,US,(913) 642-8247,,,90,,,
3590-B,US Toy,5314 W. Lincoln,Skokie,IL,60077,US,(847) 675-5900,,,90,,,
3590-C,US Toy,12372 Garden Grove Blvd.,Garden Grove,CA,92843,US,(714) 636-7831,,,90,,,
3590-D,US Toy,1200 Welsh Road,North Wales,PA,19454,US,(215) 362-1599,,,90,,,
3590-E,US Toy,805 E. Semoran Blvd.,Apopka,FL,32703,US,(407) 886-4120,,,90,,,
3590-F,US Toy,8101 S. Quebec,Centennial,CO,80112,US,(303) 220-7555,,,90,,,
3590-G,US Toy,3115 W. Parker Road - Suite 298,Plano,TX,75023,US,(972) 964-8600,,,90,,,
3590-H,US Toy,7885 W FM-1960,Houston,TX,77070,US,(281) 807-4573,,,90,,,
